{
"type": "FeatureCollection",
"name": "AO 1.0",
"crs": { "type": "name", "properties": { "name": "urn:ogc:def:crs:EPSG::32632" } },
"features": [
{ "type": "Feature", "properties": { "name": "ABAlterObstgarten 01" }, "geometry": { "type": "Polygon", "coordinates": [ [ [ 468556.031073666643351, 5246977.899048786610365 ], [ 468557.290888523159083, 5246977.738529230467975 ], [ 468549.40644856687868, 5246915.858625445514917 ], [ 468548.146633710479364, 5246916.019145000725985 ], [ 468556.031073666643351, 5246977.899048786610365 ] ] ] } },
{ "type": "Feature", "properties": { "name": "ABAlterObstgarten 02" }, "geometry": { "type": "Polygon", "coordinates": [ [ [ 468557.725338401331101, 5246977.192342885769904 ], [ 468558.985153257788625, 5246977.031823331490159 ], [ 468551.106650172616355, 5246915.198514231480658 ], [ 468549.846835316275246, 5246915.359033785760403 ], [ 468557.725338401331101, 5246977.192342885769904 ] ] ] } },
{ "type": "Feature", "properties": { "name": "ABAlterObstgarten 03" }, "geometry": { "type": "Polygon", "coordinates": [ [ [ 468559.419603136251681, 5246976.485636985860765 ], [ 468560.679417992709205, 5246976.325117432512343 ], [ 468552.806851778528653, 5246914.538403019309044 ], [ 468551.547036922129337, 5246914.698922572657466 ], [ 468559.419603136251681, 5246976.485636985860765 ] ] ] } },
{ "type": "Feature", "properties": { "name": "ABAlterObstgarten 04" }, "geometry": { "type": "Polygon", "coordinates": [ [ [ 468561.113867870881222, 5246975.778931085951626 ], [ 468562.373682727338746, 5246975.618411532603204 ], [ 468554.507053384324536, 5246913.878291803412139 ], [ 468553.247238527983427, 5246914.038811360485852 ], [ 468561.113867870881222, 5246975.778931085951626 ] ] ] } },
{ "type": "Feature", "properties": { "name": "ABAlterObstgarten 05" }, "geometry": { "type": "Polygon", "coordinates": [ [ [ 468562.80813260586001, 5246975.072225185111165 ], [ 468564.067947462317534, 5246974.911705631762743 ], [ 468556.207254990295041, 5246913.218180590309203 ], [ 468554.94744013377931, 5246913.378700146451592 ], [ 468562.80813260586001, 5246975.072225185111165 ] ] ] } },
{ "type": "Feature", "properties": { "name": "ABAlterObstgarten 06" }, "geometry": { "type": "Polygon", "coordinates": [ [ [ 468564.502397340664174, 5246974.365519287064672 ], [ 468565.762212197063491, 5246974.204999729990959 ], [ 468557.907456595974509, 5246912.558069377206266 ], [ 468556.647641739575192, 5246912.718588933348656 ], [ 468564.502397340664174, 5246974.365519287064672 ] ] ] } },
{ "type": "Feature", "properties": { "name": "ABAlterObstgarten 07" }, "geometry": { "type": "Polygon", "coordinates": [ [ [ 468566.196662075584754, 5246973.658813385292888 ], [ 468567.456476931984071, 5246973.49829383008182 ], [ 468559.60765820206143, 5246911.897958165034652 ], [ 468558.347843345545698, 5246912.058477718383074 ], [ 468566.196662075584754, 5246973.658813385292888 ] ] ] } },
{ "type": "Feature", "properties": { "name": "ABAlterObstgarten 08" }, "geometry": { "type": "Polygon", "coordinates": [ [ [ 468567.890926810214296, 5246972.952107486315072 ], [ 468569.150741666613612, 5246972.791587930172682 ], [ 468561.307859807682689, 5246911.23784695006907 ], [ 468560.048044951399788, 5246911.398366505280137 ], [ 468567.890926810214296, 5246972.952107486315072 ] ] ] } },
{ "type": "Feature", "properties": { "name": "ABAlterObstgarten 09" }, "geometry": { "type": "Polygon", "coordinates": [ [ [ 468569.585191545076668, 5246972.245401586405933 ], [ 468570.8450064015924, 5246972.084882031194866 ], [ 468563.008061413594987, 5246910.577735736966133 ], [ 468561.748246557079256, 5246910.738255291245878 ], [ 468569.585191545076668, 5246972.245401586405933 ] ] ] } },
{ "type": "Feature", "properties": { "name": "ABAlterObstgarten 10" }, "geometry": { "type": "Polygon", "coordinates": [ [ [ 468571.279456279880833, 5246971.538695685565472 ], [ 468572.539271136221942, 5246971.378176129423082 ], [ 468564.708263019274455, 5246909.917624523863196 ], [ 468563.448448162875138, 5246910.078144078142941 ], [ 468571.279456279880833, 5246971.538695685565472 ] ] ] } },
{ "type": "Feature", "properties": { "name": "ABAlterObstgarten 11" }, "geometry": { "type": "Polygon", "coordinates": [ [ [ 468572.973721014917828, 5246970.83198978472501 ], [ 468574.233535871142522, 5246970.671470230445266 ], [ 468566.408464625361376, 5246909.257513309828937 ], [ 468565.148649768962059, 5246909.418032865040004 ], [ 468572.973721014917828, 5246970.83198978472501 ] ] ] } },
{ "type": "Feature", "properties": { "name": "ABAlterObstgarten 12" }, "geometry": { "type": "Polygon", "coordinates": [ [ [ 468574.667985749430954, 5246970.125283884815872 ], [ 468575.927800605946686, 5246969.96476433146745 ], [ 468568.10866623109905, 5246908.597402095794678 ], [ 468566.848851374583319, 5246908.757921650074422 ], [ 468574.667985749430954, 5246970.125283884815872 ] ] ] } },
{ "type": "Feature", "properties": { "name": "ABAlterObstgarten 13" }, "geometry": { "type": "Polygon", "coordinates": [ [ [ 468576.362250484293327, 5246969.418577985838056 ], [ 468577.622065340692643, 5246969.258058429695666 ], [ 468569.808867836836725, 5246907.937290881760418 ], [ 468568.549052980495617, 5246908.097810438834131 ], [ 468576.362250484293327, 5246969.418577985838056 ] ] ] } },
{ "type": "Feature", "properties": { "name": "ABAlterObstgarten 14" }, "geometry": { "type": "Polygon", "coordinates": [ [ [ 468578.056515219097491, 5246968.711872085928917 ], [ 468579.316330075671431, 5246968.55135253071785 ], [ 468571.509069442807231, 5246907.277179668657482 ], [ 468570.249254586407915, 5246907.437699224799871 ], [ 468578.056515219097491, 5246968.711872085928917 ] ] ] } },
{ "type": "Feature", "properties": { "name": "ABAlterObstgarten 15" }, "geometry": { "type": "Polygon", "coordinates": [ [ [ 468579.750779953785241, 5246968.005166186019778 ], [ 468581.01059481035918, 5246967.844646629877388 ], [ 468573.209271048486698, 5246906.617068454623222 ], [ 468571.94945619214559, 5246906.777588010765612 ], [ 468579.750779953785241, 5246968.005166186019778 ] ] ] } },
{ "type": "Feature", "properties": { "name": "ABAlterObstgarten 16" }, "geometry": { "type": "Polygon", "coordinates": [ [ [ 468581.445044688705821, 5246967.298460284247994 ], [ 468582.704859545163345, 5246967.13794072996825 ], [ 468574.909472654340789, 5246905.956957241520286 ], [ 468573.64965779799968, 5246906.117476796731353 ], [ 468581.445044688705821, 5246967.298460284247994 ] ] ] } },
{ "type": "Feature", "properties": { "name": "ABAlterObstgarten 17" }, "geometry": { "type": "Polygon", "coordinates": [ [ [ 468581.863141516572796, 5246954.638513845391572 ], [ 468583.12295637303032, 5246954.477994289249182 ], [ 468575.33350635325769, 5246893.343605487607419 ], [ 468574.073691496916581, 5246893.504125042818487 ], [ 468581.863141516572796, 5246954.638513845391572 ] ] ] } },
{ "type": "Feature", "properties": { "name": "ABAlterObstgarten 18" }, "geometry": { "type": "Polygon", "coordinates": [ [ [ 468583.545336709474213, 5246954.553157820366323 ], [ 468584.805151565989945, 5246954.392638265155256 ], [ 468577.021638417383656, 5246893.304844149388373 ], [ 468575.761823561042547, 5246893.465363705530763 ], [ 468583.545336709474213, 5246954.553157820366323 ] ] ] } },
{ "type": "Feature", "properties": { "name": "ABAlterObstgarten 19" }, "geometry": { "type": "Polygon", "coordinates": [ [ [ 468586.385883342823945, 5246961.65549735352397 ], [ 468587.645698199397884, 5246961.494977799244225 ], [ 468579.868121921666898, 5246900.453778370283544 ], [ 468578.608307065325789, 5246900.614297925494611 ], [ 468586.385883342823945, 5246961.65549735352397 ] ] ] } },
{ "type": "Feature", "properties": { "name": "ABAlterObstgarten 20" }, "geometry": { "type": "Polygon", "coordinates": [ [ [ 468588.08014807786094, 5246960.948791454546154 ], [ 468589.339962934318464, 5246960.788271898403764 ], [ 468581.568323527695611, 5246899.793667157180607 ], [ 468580.308508671179879, 5246899.954186711460352 ], [ 468588.08014807786094, 5246960.948791454546154 ] ] ] } },
{ "type": "Feature", "properties": { "name": "ABAlterObstgarten 21" }, "geometry": { "type": "Polygon", "coordinates": [ [ [ 468589.775020892149769, 5246960.246857978403568 ], [ 468591.0348357486655, 5246960.086338424123824 ], [ 468583.268525133607909, 5246899.133555944077671 ], [ 468582.008710277092177, 5246899.294075497426093 ], [ 468589.775020892149769, 5246960.246857978403568 ] ] ] } },
{ "type": "Feature", "properties": { "name": "ABAlterObstgarten 22" }, "geometry": { "type": "Polygon", "coordinates": [ [ [ 468591.479427434678655, 5246959.619748612865806 ], [ 468592.739242291019764, 5246959.459229056723416 ], [ 468584.968726739403792, 5246898.473444729112089 ], [ 468583.708911883004475, 5246898.633964283391833 ], [ 468591.479427434678655, 5246959.619748612865806 ] ] ] } },
{ "type": "Feature", "properties": { "name": "ABAlterObstgarten 23" }, "geometry": { "type": "Polygon", "coordinates": [ [ [ 468593.183833977207541, 5246958.992639244534075 ], [ 468594.443648833606858, 5246958.832119689323008 ], [ 468586.668928345141467, 5246897.813333516940475 ], [ 468585.409113488625735, 5246897.973853070288897 ], [ 468593.183833977207541, 5246958.992639244534075 ] ] ] } },
{ "type": "Feature", "properties": { "name": "ABAlterObstgarten 24" }, "geometry": { "type": "Polygon", "coordinates": [ [ [ 468594.888240519736428, 5246958.365529877133667 ], [ 468596.148055376252159, 5246958.2050103219226 ], [ 468588.369129950995557, 5246897.15322230104357 ], [ 468587.109315094654448, 5246897.313741858117282 ], [ 468594.888240519736428, 5246958.365529877133667 ] ] ] } },
{ "type": "Feature", "properties": { "name": "ABAlterObstgarten 25" }, "geometry": { "type": "Polygon", "coordinates": [ [ [ 468596.592647062148899, 5246957.738420511595905 ], [ 468597.852461918606423, 5246957.57790095731616 ], [ 468590.069331556733232, 5246896.493111088871956 ], [ 468588.809516700333916, 5246896.653630644083023 ], [ 468596.592647062148899, 5246957.738420511595905 ] ] ] } },
{ "type": "Feature", "properties": { "name": "ABAlterObstgarten 26" }, "geometry": { "type": "Polygon", "coordinates": [ [ [ 468598.297053604794201, 5246957.111311144195497 ], [ 468599.55686846136814, 5246956.95079158898443 ], [ 468591.769533162878361, 5246895.832999875769019 ], [ 468590.509718306420837, 5246895.993519429117441 ], [ 468598.297053604794201, 5246957.111311144195497 ] ] ] } },
{ "type": "Feature", "properties": { "name": "ABAlterObstgarten 27" }, "geometry": { "type": "Polygon", "coordinates": [ [ [ 468600.001460147555918, 5246956.484201777726412 ], [ 468601.261275003838819, 5246956.323682220652699 ], [ 468593.469734768616036, 5246895.17288866173476 ], [ 468592.209919912274927, 5246895.333408216945827 ], [ 468600.001460147555918, 5246956.484201777726412 ] ] ] } },
{ "type": "Feature", "properties": { "name": "ABAlterObstgarten 28" }, "geometry": { "type": "Polygon", "coordinates": [ [ [ 468601.705866689793766, 5246955.857092410326004 ], [ 468602.965681546193082, 5246955.696572855114937 ], [ 468595.169936374295503, 5246894.5127774477005 ], [ 468593.910121517837979, 5246894.67329700384289 ], [ 468601.705866689793766, 5246955.857092410326004 ] ] ] } },
{ "type": "Feature", "properties": { "name": "ABAlterObstgarten 29" }, "geometry": { "type": "Polygon", "coordinates": [ [ [ 468603.410273232322652, 5246955.229983044788241 ], [ 468604.670088088721968, 5246955.069463488645852 ], [ 468596.870137980324216, 5246893.852666234597564 ], [ 468595.610323123750277, 5246894.013185788877308 ], [ 468603.410273232322652, 5246955.229983044788241 ] ] ] } },
{ "type": "Feature", "properties": { "name": "ABAlterObstgarten 30" }, "geometry": { "type": "Polygon", "coordinates": [ [ [ 468605.114679774851538, 5246954.602873675525188 ], [ 468606.374494631250855, 5246954.442354120314121 ], [ 468598.570339585945476, 5246893.192555021494627 ], [ 468597.310524729487952, 5246893.353074576705694 ], [ 468605.114679774851538, 5246954.602873675525188 ] ] ] } },
{ "type": "Feature", "properties": { "name": "ABAlterObstgarten 31" }, "geometry": { "type": "Polygon", "coordinates": [ [ [ 468606.819086317555048, 5246953.975764310918748 ], [ 468608.078901173779741, 5246953.815244754776359 ], [ 468600.270541191974189, 5246892.532443807460368 ], [ 468599.010726335516665, 5246892.692963363602757 ], [ 468606.819086317555048, 5246953.975764310918748 ] ] ] } },
{ "type": "Feature", "properties": { "name": "ABAlterObstgarten 32" }, "geometry": { "type": "Polygon", "coordinates": [ [ [ 468608.523492859967519, 5246953.348654942587018 ], [ 468609.783307716308627, 5246953.188135387375951 ], [ 468601.970742797770072, 5246891.872332593426108 ], [ 468600.71092794125434, 5246892.032852149568498 ], [ 468608.523492859967519, 5246953.348654942587018 ] ] ] } },
{ "type": "Feature", "properties": { "name": "ABAlterObstgarten 33" }, "geometry": { "type": "Polygon", "coordinates": [ [ [ 468610.227899402321782, 5246952.721545577049255 ], [ 468611.487714258779306, 5246952.561026021838188 ], [ 468603.670944403507747, 5246891.212221380323172 ], [ 468602.411129546992015, 5246891.372740934602916 ], [ 468610.227899402321782, 5246952.721545577049255 ] ] ] } },
{ "type": "Feature", "properties": { "name": "ABAlterObstgarten 34" }, "geometry": { "type": "Polygon", "coordinates": [ [ [ 468611.932305944908876, 5246952.094436208717525 ], [ 468613.1921208013664, 5246951.933916652575135 ], [ 468605.371146009361837, 5246890.552110166288912 ], [ 468604.111331152904313, 5246890.712629721499979 ], [ 468611.932305944908876, 5246952.094436208717525 ] ] ] } },
{ "type": "Feature", "properties": { "name": "ABAlterObstgarten 35" }, "geometry": { "type": "Polygon", "coordinates": [ [ [ 468613.636712487321347, 5246951.467326841317117 ], [ 468614.896527343778871, 5246951.306807287037373 ], [ 468607.071347615041304, 5246889.891998953185976 ], [ 468605.811532758525573, 5246890.052518508397043 ], [ 468613.636712487321347, 5246951.467326841317117 ] ] ] } },
{ "type": "Feature", "properties": { "name": "ABAlterObstgarten 36" }, "geometry": { "type": "Polygon", "coordinates": [ [ [ 468615.341119029966649, 5246950.840217475779355 ], [ 468616.60093388648238, 5246950.679697919636965 ], [ 468608.771549220953602, 5246889.231887740083039 ], [ 468607.511734364612494, 5246889.392407294362783 ], [ 468615.341119029966649, 5246950.840217475779355 ] ] ] } },
{ "type": "Feature", "properties": { "name": "ABAlterObstgarten 37" }, "geometry": { "type": "Polygon", "coordinates": [ [ [ 468617.04552557237912, 5246950.213108107447624 ], [ 468618.305340428894851, 5246950.052588552236557 ], [ 468610.471750826807693, 5246888.571776526980102 ], [ 468609.211935970350169, 5246888.732296081259847 ], [ 468617.04552557237912, 5246950.213108107447624 ] ] ] } },
{ "type": "Feature", "properties": { "name": "ABAlterObstgarten 38" }, "geometry": { "type": "Polygon", "coordinates": [ [ [ 468618.749932114908006, 5246949.585998740047216 ], [ 468620.009746971540153, 5246949.425479185767472 ], [ 468612.171952432719991, 5246887.91166531201452 ], [ 468610.912137576087844, 5246888.07218486815691 ], [ 468618.749932114908006, 5246949.585998740047216 ] ] ] } },
{ "type": "Feature", "properties": { "name": "ABAlterObstgarten 39" }, "geometry": { "type": "Polygon", "coordinates": [ [ [ 468620.454338657786138, 5246948.958889374509454 ], [ 468621.714153514127247, 5246948.798369818367064 ], [ 468613.872154038748704, 5246887.251554098911583 ], [ 468612.61233918229118, 5246887.412073653191328 ], [ 468620.454338657786138, 5246948.958889374509454 ] ] ] } },
{ "type": "Feature", "properties": { "name": "ABAlterObstgarten 40" }, "geometry": { "type": "Polygon", "coordinates": [ [ [ 468622.500612313160673, 5246950.080639370717108 ], [ 468623.760427169676404, 5246949.920119817368686 ], [ 468615.914222757448442, 5246888.340302251279354 ], [ 468614.654407901049126, 5246888.500821805559099 ], [ 468622.500612313160673, 5246950.080639370717108 ] ] ] } },
{ "type": "Feature", "properties": { "name": "ABAlterObstgarten 41" }, "geometry": { "type": "Polygon", "coordinates": [ [ [ 468624.205018855689559, 5246949.453530005179346 ], [ 468625.464833712147083, 5246949.293010448105633 ], [ 468617.61442436336074, 5246887.68019103538245 ], [ 468616.354609506961424, 5246887.840710591524839 ], [ 468624.205018855689559, 5246949.453530005179346 ] ] ] } },
{ "type": "Feature", "properties": { "name": "ABAlterObstgarten 42" }, "geometry": { "type": "Polygon", "coordinates": [ [ [ 468625.909425398218445, 5246948.826420637778938 ], [ 468627.169240254675969, 5246948.665901083499193 ], [ 468619.314625969156623, 5246887.020079822279513 ], [ 468618.054811112640891, 5246887.180599378421903 ], [ 468625.909425398218445, 5246948.826420637778938 ] ] ] } },
{ "type": "Feature", "properties": { "name": "ABAlterObstgarten 43" }, "geometry": { "type": "Polygon", "coordinates": [ [ [ 468627.613831940747332, 5246948.199311269447207 ], [ 468628.873646797204856, 5246948.038791715167463 ], [ 468621.014827575068921, 5246886.359968609176576 ], [ 468619.755012718727812, 5246886.520488164387643 ], [ 468627.613831940747332, 5246948.199311269447207 ] ] ] } },
{ "type": "Feature", "properties": { "name": "ABAlterObstgarten 44" }, "geometry": { "type": "Polygon", "coordinates": [ [ [ 468629.318238483276218, 5246947.572201902978122 ], [ 468630.578053339850157, 5246947.411682347767055 ], [ 468622.715029180981219, 5246885.699857397004962 ], [ 468621.455214324465487, 5246885.860376951284707 ], [ 468629.318238483276218, 5246947.572201902978122 ] ] ] } },
{ "type": "Feature", "properties": { "name": "ABAlterObstgarten 45" }, "geometry": { "type": "Polygon", "coordinates": [ [ [ 468631.02264502592152, 5246946.94509253744036 ], [ 468632.282459882204421, 5246946.784572982229292 ], [ 468624.415230786660686, 5246885.03974618203938 ], [ 468623.155415930144954, 5246885.200265737250447 ], [ 468631.02264502592152, 5246946.94509253744036 ] ] ] } },
{ "type": "Feature", "properties": { "name": "ABAlterObstgarten 46" }, "geometry": { "type": "Polygon", "coordinates": [ [ [ 468632.727051568333991, 5246946.317983169108629 ], [ 468633.986866424791515, 5246946.157463613897562 ], [ 468626.115432392456569, 5246884.379634968936443 ], [ 468624.855617535940837, 5246884.540154522284865 ], [ 468632.727051568333991, 5246946.317983169108629 ] ] ] } },
{ "type": "Feature", "properties": { "name": "ABAlterObstgarten 47" }, "geometry": { "type": "Polygon", "coordinates": [ [ [ 468634.431458110746462, 5246945.690873802639544 ], [ 468635.691272967262194, 5246945.530354248359799 ], [ 468627.815633998252451, 5246883.719523754902184 ], [ 468626.555819141853135, 5246883.880043310113251 ], [ 468634.431458110746462, 5246945.690873802639544 ] ] ] } },
{ "type": "Feature", "properties": { "name": "ABAlterObstgarten 48" }, "geometry": { "type": "Polygon", "coordinates": [ [ [ 468636.135864653391764, 5246945.063764435239136 ], [ 468637.395679509907495, 5246944.903244880959392 ], [ 468629.515835604164749, 5246883.059412541799247 ], [ 468628.256020747765433, 5246883.219932097010314 ], [ 468636.135864653391764, 5246945.063764435239136 ] ] ] } },
{ "type": "Feature", "properties": { "name": "ABAlterObstgarten 49" }, "geometry": { "type": "Polygon", "coordinates": [ [ [ 468637.84027119592065, 5246944.436655068770051 ], [ 468639.100086052436382, 5246944.276135512627661 ], [ 468631.216037209960632, 5246882.399301327764988 ], [ 468629.956222353677731, 5246882.559820882044733 ], [ 468637.84027119592065, 5246944.436655068770051 ] ] ] } },
{ "type": "Feature", "properties": { "name": "ABAlterObstgarten 50" }, "geometry": { "type": "Polygon", "coordinates": [ [ [ 468639.544677738449536, 5246943.809545701369643 ], [ 468640.804492594848853, 5246943.649026145227253 ], [ 468632.916238815756515, 5246881.739190114662051 ], [ 468631.656423959298991, 5246881.899709668941796 ], [ 468639.544677738449536, 5246943.809545701369643 ] ] ] } },
{ "type": "Feature", "properties": { "name": "ABAlterObstgarten 51" }, "geometry": { "type": "Polygon", "coordinates": [ [ [ 468641.249084280978423, 5246943.182436334900558 ], [ 468642.508899137494154, 5246943.021916778758168 ], [ 468634.61644042172702, 5246881.079078900627792 ], [ 468633.356625565327704, 5246881.239598455838859 ], [ 468641.249084280978423, 5246943.182436334900558 ] ] ] } },
{ "type": "Feature", "properties": { "name": "ABAlterObstgarten 52" }, "geometry": { "type": "Polygon", "coordinates": [ [ [ 468642.953490823565517, 5246942.55532696750015 ], [ 468644.213305679906625, 5246942.394807410426438 ], [ 468636.316642027581111, 5246880.418967686593533 ], [ 468635.056827171240002, 5246880.579487240873277 ], [ 468642.953490823565517, 5246942.55532696750015 ] ] ] } },
{ "type": "Feature", "properties": { "name": "ABAlterObstgarten 53" }, "geometry": { "type": "Polygon", "coordinates": [ [ [ 468644.657897366094403, 5246941.92821759916842 ], [ 468645.917712222435512, 5246941.767698045819998 ], [ 468638.016843633318786, 5246879.758856474421918 ], [ 468636.757028777035885, 5246879.919376028701663 ], [ 468644.657897366094403, 5246941.92821759916842 ] ] ] } },
{ "type": "Feature", "properties": { "name": "ABAlterObstgarten 54" }, "geometry": { "type": "Polygon", "coordinates": [ [ [ 468646.362303908565082, 5246941.301108233630657 ], [ 468647.622118765022606, 5246941.14058867841959 ], [ 468639.717045239231084, 5246879.098745261318982 ], [ 468638.457230382831767, 5246879.259264816530049 ], [ 468646.362303908565082, 5246941.301108233630657 ] ] ] } },
{ "type": "Feature", "properties": { "name": "ABAlterObstgarten 55" }, "geometry": { "type": "Polygon", "coordinates": [ [ [ 468648.06671045080293, 5246940.673998866230249 ], [ 468649.326525307260454, 5246940.513479311019182 ], [ 468641.417246844852343, 5246878.438634047284722 ], [ 468640.157431988394819, 5246878.599153603427112 ], [ 468648.06671045080293, 5246940.673998866230249 ] ] ] } },
{ "type": "Feature", "properties": { "name": "ABAlterObstgarten 56" }, "geometry": { "type": "Polygon", "coordinates": [ [ [ 468649.77111699373927, 5246940.046889499761164 ], [ 468651.030931850080378, 5246939.886369943618774 ], [ 468643.117448450939264, 5246877.778522833250463 ], [ 468641.85763359448174, 5246877.939042387530208 ], [ 468649.77111699373927, 5246940.046889499761164 ] ] ] } },
{ "type": "Feature", "properties": { "name": "ABAlterObstgarten 57" }, "geometry": { "type": "Polygon", "coordinates": [ [ [ 468651.475523536093533, 5246939.419780131429434 ], [ 468652.735338392551057, 5246939.259260576218367 ], [ 468644.814408220641781, 5246877.09296853095293 ], [ 468643.554593364067841, 5246877.253488086163998 ], [ 468651.475523536093533, 5246939.419780131429434 ] ] ] } },
{ "type": "Feature", "properties": { "name": "ABAlterObstgarten 58" }, "geometry": { "type": "Polygon", "coordinates": [ [ [ 468653.179930078738835, 5246938.792670765891671 ], [ 468654.439744935021736, 5246938.632151210680604 ], [ 468646.500594520941377, 5246876.322860188782215 ], [ 468645.240779664483853, 5246876.483379744924605 ], [ 468653.179930078738835, 5246938.792670765891671 ] ] ] } },
{ "type": "Feature", "properties": { "name": "ABAlterObstgarten 59" }, "geometry": { "type": "Polygon", "coordinates": [ [ [ 468654.576258989342023, 5246937.749029772356153 ], [ 468655.836073845741339, 5246937.588510218076408 ], [ 468647.35503867623629, 5246871.026313887909055 ], [ 468646.095223819662351, 5246871.186833444051445 ], [ 468654.576258989342023, 5246937.749029772356153 ] ] ] } },
{ "type": "Feature", "properties": { "name": "ABAlterObstgarten 60" }, "geometry": { "type": "Polygon", "coordinates": [ [ [ 468656.175973045174032, 5246937.123680641874671 ], [ 468657.435787901689764, 5246936.963161086663604 ], [ 468648.206273241899908, 5246864.526630107313395 ], [ 468646.946458385500591, 5246864.687149664387107 ], [ 468656.175973045174032, 5246937.123680641874671 ] ] ] } },
{ "type": "Feature", "properties": { "name": "ABAlterObstgarten 61" }, "geometry": { "type": "Polygon", "coordinates": [ [ [ 468660.222311184741557, 5246953.087781652808189 ], [ 468661.482126041024458, 5246952.927262098528445 ], [ 468651.504131891240831, 5246874.616396468132734 ], [ 468650.244317034666892, 5246874.776916024275124 ], [ 468660.222311184741557, 5246953.087781652808189 ] ] ] } },
{ "type": "Feature", "properties": { "name": "ABAlterObstgarten 62" }, "geometry": { "type": "Polygon", "coordinates": [ [ [ 468662.489151489106007, 5246956.874853543937206 ], [ 468663.748966345563531, 5246956.714333989657462 ], [ 468653.190318191773258, 5246873.846288129687309 ], [ 468651.930503335315734, 5246874.006807683035731 ], [ 468662.489151489106007, 5246956.874853543937206 ] ] ] } },
{ "type": "Feature", "properties": { "name": "ABAlterObstgarten 63" }, "geometry": { "type": "Polygon", "coordinates": [ [ [ 468664.400349295814522, 5246957.870715954340994 ], [ 468665.660164152272046, 5246957.710196398198605 ], [ 468654.876504492247477, 5246873.076179787516594 ], [ 468653.616689635848161, 5246873.236699341796339 ], [ 468664.400349295814522, 5246957.870715954340994 ] ] ] } },
{ "type": "Feature", "properties": { "name": "ABAlterObstgarten 64" }, "geometry": { "type": "Polygon", "coordinates": [ [ [ 468666.311547102406621, 5246958.866578362882137 ], [ 468667.57136195874773, 5246958.706058808602393 ], [ 468656.562690792547073, 5246872.306071445345879 ], [ 468655.302875936147757, 5246872.466591001488268 ], [ 468666.311547102406621, 5246958.866578362882137 ] ] ] } },
{ "type": "Feature", "properties": { "name": "ABAlterObstgarten 65" }, "geometry": { "type": "Polygon", "coordinates": [ [ [ 468668.965535579132847, 5246968.234883760102093 ], [ 468670.225350435590371, 5246968.074364205822349 ], [ 468658.99166776338825, 5246879.908406090922654 ], [ 468657.731852906814311, 5246880.068925646133721 ], [ 468668.965535579132847, 5246968.234883760102093 ] ] ] } },
{ "type": "Feature", "properties": { "name": "ABAlterObstgarten 66" }, "geometry": { "type": "Polygon", "coordinates": [ [ [ 468670.876733385724947, 5246969.230746170505881 ], [ 468672.136548242357094, 5246969.070226615294814 ], [ 468660.677854063920677, 5246879.138297750614583 ], [ 468659.418039207404945, 5246879.298817305825651 ], [ 468670.876733385724947, 5246969.230746170505881 ] ] ] } },
{ "type": "Feature", "properties": { "name": "ABAlterObstgarten 67" }, "geometry": { "type": "Polygon", "coordinates": [ [ [ 468672.787931192433462, 5246967.967057701200247 ], [ 468674.04774604877457, 5246967.806538146920502 ], [ 468662.36404036427848, 5246876.108638532459736 ], [ 468661.104225507762749, 5246876.269158087670803 ], [ 468672.787931192433462, 5246967.967057701200247 ] ] ] } },
{ "type": "Feature", "properties": { "name": "ABAlterObstgarten 68" }, "geometry": { "type": "Polygon", "coordinates": [ [ [ 468673.930294804216828, 5246963.399142884649336 ], [ 468675.190109660674352, 5246963.238623331300914 ], [ 468663.281392470060382, 5246869.774752962402999 ], [ 468662.02157761354465, 5246869.935272518545389 ], [ 468673.930294804216828, 5246963.399142884649336 ] ] ] } },
{ "type": "Feature", "properties": { "name": "ABAlterObstgarten 69" }, "geometry": { "type": "Polygon", "coordinates": [ [ [ 468675.830855114851147, 5246964.836277976632118 ], [ 468677.090669971366879, 5246964.675758420489728 ], [ 468664.956941274402197, 5246869.445917304605246 ], [ 468663.697126418002881, 5246869.60643685888499 ], [ 468675.830855114851147, 5246964.836277976632118 ] ] ] } },
{ "type": "Feature", "properties": { "name": "ABAlterObstgarten 70" }, "geometry": { "type": "Polygon", "coordinates": [ [ [ 468677.691903088649269, 5246964.471647057682276 ], [ 468678.951717945048586, 5246964.311127502471209 ], [ 468666.592977741907816, 5246867.315315634943545 ], [ 468665.333162885566708, 5246867.475835189223289 ], [ 468677.691903088649269, 5246964.471647057682276 ] ] ] } },
{ "type": "Feature", "properties": { "name": "ABAlterObstgarten 71" }, "geometry": { "type": "Polygon", "coordinates": [ [ [ 468680.762851605773903, 5246975.163764759898186 ], [ 468682.022666462289635, 5246975.003245204687119 ], [ 468669.438914753089193, 5246876.241462584584951 ], [ 468668.179099896689877, 5246876.401982140727341 ], [ 468680.762851605773903, 5246975.163764759898186 ] ] ] } },
{ "type": "Feature", "properties": { "name": "ABAlterObstgarten 72" }, "geometry": { "type": "Polygon", "coordinates": [ [ [ 468682.710730433114804, 5246975.022515526972711 ], [ 468683.970545289572328, 5246974.861995971761644 ], [ 468671.161782074254006, 5246874.334242600016296 ], [ 468669.90196721785469, 5246874.494762155227363 ], [ 468682.710730433114804, 5246975.022515526972711 ] ] ] } },
{ "type": "Feature", "properties": { "name": "ABAlterObstgarten 73" }, "geometry": { "type": "Polygon", "coordinates": [ [ [ 468684.621928239939734, 5246976.064229213632643 ], [ 468685.881743096571881, 5246975.903709659352899 ], [ 468672.847968375077471, 5246873.60998553596437 ], [ 468671.588153518678155, 5246873.770505090244114 ], [ 468684.621928239939734, 5246976.064229213632643 ] ] ] } },
{ "type": "Feature", "properties": { "name": "ABAlterObstgarten 74" }, "geometry": { "type": "Polygon", "coordinates": [ [ [ 468686.028762011090294, 5246975.592850793153048 ], [ 468687.28857686748961, 5246975.432331238873303 ], [ 468674.029790639877319, 5246871.372636364772916 ], [ 468672.769975783478003, 5246871.53315591905266 ], [ 468686.028762011090294, 5246975.592850793153048 ] ] ] } },
{ "type": "Feature", "properties": { "name": "ABAlterObstgarten 75" }, "geometry": { "type": "Polygon", "coordinates": [ [ [ 468687.802405990019906, 5246974.754662165418267 ], [ 468689.062220846419223, 5246974.5941426102072 ], [ 468675.578423112747259, 5246868.768476986326277 ], [ 468674.318608256231528, 5246868.928996541537344 ], [ 468687.802405990019906, 5246974.754662165418267 ] ] ] } },
{ "type": "Feature", "properties": { "name": "ABAlterObstgarten 76" }, "geometry": { "type": "Polygon", "coordinates": [ [ [ 468689.805306348425802, 5246975.246160541661084 ], [ 468691.065121204941534, 5246975.085640985518694 ], [ 468677.356311965035275, 5246867.494004609063268 ], [ 468676.096497108519543, 5246867.654524164274335 ], [ 468689.805306348425802, 5246975.246160541661084 ] ] ] } },
{ "type": "Feature", "properties": { "name": "ABAlterObstgarten 77" }, "geometry": { "type": "Polygon", "coordinates": [ [ [ 468691.487247775541618, 5246974.407971912994981 ], [ 468692.747062631824519, 5246974.247452358715236 ], [ 468678.81324188580038, 5246864.889845232479274 ], [ 468677.553427029401064, 5246865.050364785827696 ], [ 468691.487247775541618, 5246974.407971912994981 ] ] ] } },
{ "type": "Feature", "properties": { "name": "ABAlterObstgarten 78" }, "geometry": { "type": "Polygon", "coordinates": [ [ [ 468693.260891754296608, 5246973.615634562447667 ], [ 468694.520706610637717, 5246973.455115006305277 ], [ 468680.36187435843749, 5246862.331537131220102 ], [ 468679.102059501921758, 5246862.492056684568524 ], [ 468693.260891754296608, 5246973.615634562447667 ] ] ] } },
{ "type": "Feature", "properties": { "name": "ABAlterObstgarten 79" }, "geometry": { "type": "Polygon", "coordinates": [ [ [ 468694.758198677969631, 5246973.021798522211611 ], [ 468696.018013534368947, 5246972.861278967931867 ], [ 468681.738106033939403, 5246860.787459253333509 ], [ 468680.478291177423671, 5246860.947978808544576 ], [ 468694.758198677969631, 5246973.021798522211611 ] ] ] } },
{ "type": "Feature", "properties": { "name": "ABAlterObstgarten 80" }, "geometry": { "type": "Polygon", "coordinates": [ [ [ 468696.63611746794777, 5246972.317046483978629 ], [ 468697.895932324405294, 5246972.156526929698884 ], [ 468683.607697438099422, 5246860.017350911162794 ], [ 468682.347882581816521, 5246860.177870467305183 ], [ 468696.63611746794777, 5246972.317046483978629 ] ] ] } },
{ "type": "Feature", "properties": { "name": "ABAlterObstgarten 81" }, "geometry": { "type": "Polygon", "coordinates": [ [ [ 468698.330631154414732, 5246971.612294443883002 ], [ 468699.590446010814048, 5246971.451774888671935 ], [ 468685.293883738748264, 5246859.247242572717369 ], [ 468684.034068882348947, 5246859.407762126997113 ], [ 468698.330631154414732, 5246971.612294443883002 ] ] ] } },
{ "type": "Feature", "properties": { "name": "ABAlterObstgarten 82" }, "geometry": { "type": "Polygon", "coordinates": [ [ [ 468700.025144840590656, 5246970.907542404718697 ], [ 468701.284959697164595, 5246970.747022850438952 ], [ 468686.98007003904786, 5246858.477134230546653 ], [ 468685.720255182648543, 5246858.63765378575772 ], [ 468700.025144840590656, 5246970.907542404718697 ] ] ] } },
{ "type": "Feature", "properties": { "name": "ABAlterObstgarten 83" }, "geometry": { "type": "Polygon", "coordinates": [ [ [ 468701.719658527057618, 5246970.202790365554392 ], [ 468702.979473383456934, 5246970.042270811274648 ], [ 468688.666256339754909, 5246857.707025888375938 ], [ 468687.406441483239178, 5246857.867545444518328 ], [ 468701.719658527057618, 5246970.202790365554392 ] ] ] } },
{ "type": "Feature", "properties": { "name": "ABAlterObstgarten 84" }, "geometry": { "type": "Polygon", "coordinates": [ [ [ 468703.414172213233542, 5246969.498038326390088 ], [ 468704.673987069749273, 5246969.33751877117902 ], [ 468690.352442640112713, 5246856.93691754899919 ], [ 468689.092627783713397, 5246857.097437104210258 ], [ 468703.414172213233542, 5246969.498038326390088 ] ] ] } },
{ "type": "Feature", "properties": { "name": "ABAlterObstgarten 85" }, "geometry": { "type": "Polygon", "coordinates": [ [ [ 468705.108685899700504, 5246968.793286287225783 ], [ 468706.368500756216235, 5246968.632766730152071 ], [ 468692.038628940703347, 5246856.166809207759798 ], [ 468690.778814084187616, 5246856.327328762970865 ], [ 468705.108685899700504, 5246968.793286287225783 ] ] ] } },
{ "type": "Feature", "properties": { "name": "ABAlterObstgarten 86" }, "geometry": { "type": "Polygon", "coordinates": [ [ [ 468706.803199585934635, 5246968.088534247130156 ], [ 468708.063014442275744, 5246967.928014691919088 ], [ 468693.724815241061151, 5246855.396700866520405 ], [ 468692.465000384545419, 5246855.557220420800149 ], [ 468706.803199585934635, 5246968.088534247130156 ] ] ] } },
{ "type": "Feature", "properties": { "name": "ABAlterObstgarten 87" }, "geometry": { "type": "Polygon", "coordinates": [ [ [ 468708.49771327234339, 5246967.383782208897173 ], [ 468709.757528128859121, 5246967.223262651823461 ], [ 468695.411001541593578, 5246854.626592526212335 ], [ 468694.151186685194261, 5246854.787112081423402 ], [ 468708.49771327234339, 5246967.383782208897173 ] ] ] } },
{ "type": "Feature", "properties": { "name": "ABAlterObstgarten 88" }, "geometry": { "type": "Polygon", "coordinates": [ [ [ 468710.192226958926767, 5246966.679030166938901 ], [ 468711.452041815267876, 5246966.518510612659156 ], [ 468697.097187842358835, 5246853.856484184972942 ], [ 468695.837372985726688, 5246854.017003740184009 ], [ 468710.192226958926767, 5246966.679030166938901 ] ] ] } },
{ "type": "Feature", "properties": { "name": "ABAlterObstgarten 89" }, "geometry": { "type": "Polygon", "coordinates": [ [ [ 468711.886740644928068, 5246965.974278127774596 ], [ 468713.146555501385592, 5246965.813758572563529 ], [ 468698.783374142542016, 5246853.086375842802227 ], [ 468697.523559286142699, 5246853.246895398013294 ], [ 468711.886740644928068, 5246965.974278127774596 ] ] ] } },
{ "type": "Feature", "properties": { "name": "ABAlterObstgarten 90" }, "geometry": { "type": "Polygon", "coordinates": [ [ [ 468713.856361987185664, 5246968.249859023839235 ], [ 468715.116176843643188, 5246968.089339469559491 ], [ 468700.744668098923285, 5246855.296600438654423 ], [ 468699.484853242407553, 5246855.457119992934167 ], [ 468713.856361987185664, 5246968.249859023839235 ] ] ] } },
{ "type": "Feature", "properties": { "name": "ABAlterObstgarten 91" }, "geometry": { "type": "Polygon", "coordinates": [ [ [ 468715.550875673419796, 5246967.545106984674931 ], [ 468716.81069052987732, 5246967.384587430395186 ], [ 468702.430854399281088, 5246854.52649209741503 ], [ 468701.171039542881772, 5246854.687011651694775 ], [ 468715.550875673419796, 5246967.545106984674931 ] ] ] } },
{ "type": "Feature", "properties": { "name": "ABAlterObstgarten 92" }, "geometry": { "type": "Polygon", "coordinates": [ [ [ 468717.245389359653927, 5246966.840354944579303 ], [ 468718.505204216111451, 5246966.679835391230881 ], [ 468704.117040699638892, 5246853.756383755244315 ], [ 468702.857225843239576, 5246853.916903311386704 ], [ 468717.245389359653927, 5246966.840354944579303 ] ] ] } },
{ "type": "Feature", "properties": { "name": "ABAlterObstgarten 93" }, "geometry": { "type": "Polygon", "coordinates": [ [ [ 468718.939903045888059, 5246966.135602906346321 ], [ 468720.199717902461998, 5246965.975083351135254 ], [ 468705.803227000287734, 5246852.986275415867567 ], [ 468704.543412143888418, 5246853.146794971078634 ], [ 468718.939903045888059, 5246966.135602906346321 ] ] ] } },
{ "type": "Feature", "properties": { "name": "ABAlterObstgarten 94" }, "geometry": { "type": "Polygon", "coordinates": [ [ [ 468720.634416732355021, 5246965.430850868113339 ], [ 468721.894231588754337, 5246965.270331311970949 ], [ 468707.489413300761953, 5246852.216167073696852 ], [ 468706.229598444246221, 5246852.376686629839242 ], [ 468720.634416732355021, 5246965.430850868113339 ] ] ] } },
{ "type": "Feature", "properties": { "name": "ABAlterObstgarten 95" }, "geometry": { "type": "Polygon", "coordinates": [ [ [ 468722.328930418705568, 5246964.726098828017712 ], [ 468723.588745275104884, 5246964.565579270943999 ], [ 468709.175599601352587, 5246851.446058733388782 ], [ 468707.915784744778648, 5246851.606578287668526 ], [ 468722.328930418705568, 5246964.726098828017712 ] ] ] } },
{ "type": "Feature", "properties": { "name": "ABAlterObstgarten 96" }, "geometry": { "type": "Polygon", "coordinates": [ [ [ 468724.023444105056114, 5246964.021346788853407 ], [ 468725.283258961513638, 5246963.86082723364234 ], [ 468710.861785901768599, 5246850.675950393080711 ], [ 468709.601971045369282, 5246850.836469948291779 ], [ 468724.023444105056114, 5246964.021346788853407 ] ] ] } },
{ "type": "Feature", "properties": { "name": "ABAlterObstgarten 97" }, "geometry": { "type": "Polygon", "coordinates": [ [ [ 468725.717957791348454, 5246963.31659474875778 ], [ 468726.977772647864185, 5246963.156075193546712 ], [ 468712.54797220218461, 5246849.905842050909996 ], [ 468711.288157345785294, 5246850.066361607052386 ], [ 468725.717957791348454, 5246963.31659474875778 ] ] ] } },
{ "type": "Feature", "properties": { "name": "ABAlterObstgarten 98" }, "geometry": { "type": "Polygon", "coordinates": [ [ [ 468727.412471477815416, 5246962.611842709593475 ], [ 468728.672286334214732, 5246962.451323153451085 ], [ 468714.234158502775244, 5246849.135733710601926 ], [ 468712.974343646375928, 5246849.296253265812993 ], [ 468727.412471477815416, 5246962.611842709593475 ] ] ] } },
{ "type": "Feature", "properties": { "name": "ABAlterObstgarten 99" }, "geometry": { "type": "Polygon", "coordinates": [ [ [ 468729.152836440014653, 5246961.265172806568444 ], [ 468730.412651296413969, 5246961.104653251357377 ], [ 468715.966196079214569, 5246847.723707506433129 ], [ 468714.70638122264063, 5246847.884227061644197 ], [ 468729.152836440014653, 5246961.265172806568444 ] ] ] } },
{ "type": "Feature", "properties": { "name": "ABAlterObstgarten 100" }, "geometry": { "type": "Polygon", "coordinates": [ [ [ 468730.801498850341886, 5246960.97308225184679 ], [ 468732.061313706857618, 5246960.812562695704401 ], [ 468717.606531103607267, 5246847.366260649636388 ], [ 468716.346716247207951, 5246847.526780205778778 ], [ 468730.801498850341886, 5246960.97308225184679 ] ] ] } },
{ "type": "Feature", "properties": { "name": "ABAlterObstgarten 101" }, "geometry": { "type": "Polygon", "coordinates": [ [ [ 468732.358458708855323, 5246959.672263622283936 ], [ 468733.61827356525464, 5246959.511744068004191 ], [ 468719.155163576302584, 5246846.000085721723735 ], [ 468717.895348719903268, 5246846.16060527600348 ], [ 468732.358458708855323, 5246959.672263622283936 ] ] ] } },
{ "type": "Feature", "properties": { "name": "ABAlterObstgarten 102" }, "geometry": { "type": "Polygon", "coordinates": [ [ [ 468734.098823671229184, 5246958.463147548027337 ], [ 468735.358638527744915, 5246958.302627993747592 ], [ 468720.88720115297474, 5246844.725613345392048 ], [ 468719.627386296517216, 5246844.886132899671793 ], [ 468734.098823671229184, 5246958.463147548027337 ] ] ] } },
{ "type": "Feature", "properties": { "name": "ABAlterObstgarten 103" }, "geometry": { "type": "Polygon", "coordinates": [ [ [ 468735.96527964231791, 5246957.643767319619656 ], [ 468737.225094498717226, 5246957.483247766271234 ], [ 468722.745329738070723, 5246843.840876814909279 ], [ 468721.485514881496783, 5246844.001396369189024 ], [ 468735.96527964231791, 5246957.643767319619656 ] ] ] } },
{ "type": "Feature", "properties": { "name": "ABAlterObstgarten 104" }, "geometry": { "type": "Polygon", "coordinates": [ [ [ 468737.602479233639315, 5246957.225585755892098 ], [ 468738.862294090096839, 5246957.065066200681031 ], [ 468724.374201943632215, 5246843.357338948175311 ], [ 468723.114387087174691, 5246843.517858503386378 ], [ 468737.602479233639315, 5246957.225585755892098 ] ] ] } },
{ "type": "Feature", "properties": { "name": "ABAlterObstgarten 105" }, "geometry": { "type": "Polygon", "coordinates": [ [ [ 468739.182364730280824, 5246956.635461904108524 ], [ 468740.442179586738348, 5246956.474942348897457 ], [ 468725.945760054339189, 5246842.701858797110617 ], [ 468724.685945197881665, 5246842.862378352321684 ], [ 468739.182364730280824, 5246956.635461904108524 ] ] ] } },
{ "type": "Feature", "properties": { "name": "ABAlterObstgarten 106" }, "geometry": { "type": "Polygon", "coordinates": [ [ [ 468740.991506606340408, 5246956.15996624622494 ], [ 468742.251321462797932, 5246955.99944669008255 ], [ 468727.746574544638861, 5246842.161006837151945 ], [ 468726.486759688123129, 5246842.321526391431689 ], [ 468740.991506606340408, 5246956.15996624622494 ] ] ] } },
{ "type": "Feature", "properties": { "name": "ABAlterObstgarten 107" }, "geometry": { "type": "Polygon", "coordinates": [ [ [ 468742.704360803181771, 5246955.916019530035555 ], [ 468743.96417565952288, 5246955.755499973893166 ], [ 468729.451101355545688, 5246841.85170381795615 ], [ 468728.191286499088164, 5246842.012223373167217 ], [ 468742.704360803181771, 5246955.916019530035555 ] ] ] } },
{ "type": "Feature", "properties": { "name": "ABAlterObstgarten 108" }, "geometry": { "type": "Polygon", "coordinates": [ [ [ 468744.456188584328629, 5246955.669780250638723 ], [ 468745.716003440669738, 5246955.509260694496334 ], [ 468731.194601750932634, 5246841.54010823648423 ], [ 468729.934786894416902, 5246841.700627792626619 ], [ 468744.456188584328629, 5246955.669780250638723 ] ] ] } },
{ "type": "Feature", "properties": { "name": "ABAlterObstgarten 109" }, "geometry": { "type": "Polygon", "coordinates": [ [ [ 468746.036074080795515, 5246955.308912779204547 ], [ 468747.295888937078416, 5246955.148393224924803 ], [ 468732.766159861464985, 5246841.113884464837611 ], [ 468731.506345005123876, 5246841.274404021911323 ], [ 468746.036074080795515, 5246955.308912779204547 ] ] ] } },
{ "type": "Feature", "properties": { "name": "ABAlterObstgarten 110" }, "geometry": { "type": "Polygon", "coordinates": [ [ [ 468747.615959577378817, 5246953.687135220505297 ], [ 468748.875774434010964, 5246953.526615666225553 ], [ 468734.337717972288374, 5246839.426750604994595 ], [ 468733.077903115772642, 5246839.58727015927434 ], [ 468747.615959577378817, 5246953.687135220505297 ] ] ] } },
{ "type": "Feature", "properties": { "name": "ABAlterObstgarten 111" }, "geometry": { "type": "Polygon", "coordinates": [ [ [ 468749.367787358467467, 5246953.555524130351841 ], [ 468750.627602215041406, 5246953.395004575140774 ], [ 468736.081218367558904, 5246839.229783212766051 ], [ 468734.821403511217795, 5246839.390302768908441 ], [ 468749.367787358467467, 5246953.555524130351841 ] ] ] } },
{ "type": "Feature", "properties": { "name": "ABAlterObstgarten 112" }, "geometry": { "type": "Polygon", "coordinates": [ [ [ 468751.252153984562028, 5246952.61435145046562 ], [ 468752.511968840844929, 5246952.453831895254552 ], [ 468738.194840963755269, 5246840.087893356569111 ], [ 468736.935026107355952, 5246840.248412911780179 ], [ 468751.252153984562028, 5246952.61435145046562 ] ] ] } },
{ "type": "Feature", "properties": { "name": "ABAlterObstgarten 113" }, "geometry": { "type": "Polygon", "coordinates": [ [ [ 468752.946667670679744, 5246951.461833043023944 ], [ 468754.206482527195476, 5246951.301313487812877 ], [ 468740.653725304931868, 5246844.934429141692817 ], [ 468739.393910448474344, 5246845.094948697835207 ], [ 468752.946667670679744, 5246951.461833043023944 ] ] ] } },
{ "type": "Feature", "properties": { "name": "ABAlterObstgarten 114" }, "geometry": { "type": "Polygon", "coordinates": [ [ [ 468754.690758049138822, 5246950.184799766167998 ], [ 468755.950572905538138, 5246950.024280210025609 ], [ 468743.162186338216998, 5246849.656450059264898 ], [ 468741.902371481759474, 5246849.816969613544643 ], [ 468754.690758049138822, 5246950.184799766167998 ] ] ] } },
{ "type": "Feature", "properties": { "name": "ABAlterObstgarten 115" }, "geometry": { "type": "Polygon", "coordinates": [ [ [ 468756.425248316721991, 5246949.544096228666604 ], [ 468757.685063173237722, 5246949.383576672524214 ], [ 468745.661047260800842, 5246855.014800714328885 ], [ 468744.401232404285111, 5246855.175320270471275 ], [ 468756.425248316721991, 5246949.544096228666604 ] ] ] } },
{ "type": "Feature", "properties": { "name": "ABAlterObstgarten 116" }, "geometry": { "type": "Polygon", "coordinates": [ [ [ 468757.940655456215609, 5246949.258023652248085 ], [ 468759.200470312731341, 5246949.097504095174372 ], [ 468747.940825055236928, 5246860.727782332338393 ], [ 468746.681010198721197, 5246860.888301886618137 ], [ 468757.940655456215609, 5246949.258023652248085 ] ] ] } },
{ "type": "Feature", "properties": { "name": "ABAlterObstgarten 117" }, "geometry": { "type": "Polygon", "coordinates": [ [ [ 468759.642333404626697, 5246948.388493589125574 ], [ 468760.902148261142429, 5246948.227974033914506 ], [ 468750.406873658474069, 5246865.857306463643909 ], [ 468749.147058802016545, 5246866.017826017923653 ], [ 468759.642333404626697, 5246948.388493589125574 ] ] ] } },
{ "type": "Feature", "properties": { "name": "ABAlterObstgarten 118" }, "geometry": { "type": "Polygon", "coordinates": [ [ [ 468761.469385935633909, 5246947.282542888075113 ], [ 468762.729200792033225, 5246947.122023331932724 ], [ 468752.998296844365541, 5246870.75040995515883 ], [ 468751.738481987966225, 5246870.910929509438574 ], [ 468761.469385935633909, 5246947.282542888075113 ] ] ] } },
{ "type": "Feature", "properties": { "name": "ABAlterObstgarten 119" }, "geometry": { "type": "Polygon", "coordinates": [ [ [ 468763.251303616329096, 5246946.703881856054068 ], [ 468764.511118472844828, 5246946.543362299911678 ], [ 468755.544585180119611, 5246876.170803116634488 ], [ 468754.284770323778503, 5246876.33132266998291 ], [ 468763.251303616329096, 5246946.703881856054068 ] ] ] } },
{ "type": "Feature", "properties": { "name": "ABAlterObstgarten 120" }, "geometry": { "type": "Polygon", "coordinates": [ [ [ 468764.893518191005569, 5246945.997696964070201 ], [ 468766.153333047521301, 5246945.837177407927811 ], [ 468757.951170409738552, 5246881.463672418147326 ], [ 468756.691355553397443, 5246881.62419197242707 ], [ 468764.893518191005569, 5246945.997696964070201 ] ] ] } },
{ "type": "Feature", "properties": { "name": "ABAlterObstgarten 121" }, "geometry": { "type": "Polygon", "coordinates": [ [ [ 468766.359297056042124, 5246944.892944124527276 ], [ 468767.619111912499648, 5246944.732424570247531 ], [ 468760.181319929775782, 5246886.357973772101104 ], [ 468758.921505073201843, 5246886.518493326380849 ], [ 468766.359297056042124, 5246944.892944124527276 ] ] ] } },
{ "type": "Feature", "properties": { "name": "ABAlterObstgarten 122" }, "geometry": { "type": "Polygon", "coordinates": [ [ [ 468768.160351913422346, 5246944.153981300070882 ], [ 468769.420166769938078, 5246943.993461744859815 ], [ 468762.746745441982057, 5246891.618065142072737 ], [ 468761.486930585640948, 5246891.778584696352482 ], [ 468768.160351913422346, 5246944.153981300070882 ] ] ] } },
{ "type": "Feature", "properties": { "name": "ABAlterObstgarten 123" }, "geometry": { "type": "Polygon", "coordinates": [ [ [ 468769.616668221249711, 5246943.75093065854162 ], [ 468770.876483077765442, 5246943.590411103330553 ], [ 468764.967432404751889, 5246897.214068693108857 ], [ 468763.707617548294365, 5246897.374588249251246 ], [ 468769.616668221249711, 5246943.75093065854162 ] ] ] } },
{ "type": "Feature", "properties": { "name": "ABAlterObstgarten 124" }, "geometry": { "type": "Polygon", "coordinates": [ [ [ 468771.393255691567902, 5246942.709171739406884 ], [ 468772.653070548025426, 5246942.548652184195817 ], [ 468767.508390530070756, 5246902.171363968402147 ], [ 468766.248575673671439, 5246902.331883524544537 ], [ 468771.393255691567902, 5246942.709171739406884 ] ] ] } },
{ "type": "Feature", "properties": { "name": "ABAlterObstgarten 125" }, "geometry": { "type": "Polygon", "coordinates": [ [ [ 468773.259711662714835, 5246942.263479409739375 ], [ 468774.519526519114152, 5246942.102959854528308 ], [ 468770.139217155985534, 5246907.724725833162665 ], [ 468768.87940229952801, 5246907.885245388373733 ], [ 468773.259711662714835, 5246942.263479409739375 ] ] ] } },
{ "type": "Feature", "properties": { "name": "ABAlterObstgarten 126" }, "geometry": { "type": "Polygon", "coordinates": [ [ [ 468775.106451585364994, 5246941.842546769417822 ], [ 468776.366266441822518, 5246941.682027214206755 ], [ 468772.750327733694576, 5246913.302847386337817 ], [ 468771.490512877411675, 5246913.463366941548884 ], [ 468775.106451585364994, 5246941.842546769417822 ] ] ] } },
{ "type": "Feature", "properties": { "name": "ABAlterObstgarten 127" }, "geometry": { "type": "Polygon", "coordinates": [ [ [ 468776.638049956760369, 5246941.002390180714428 ], [ 468777.897864813217893, 5246940.841870623640716 ], [ 468775.046296759974211, 5246918.461744991131127 ], [ 468773.78648190345848, 5246918.622264545410872 ], [ 468776.638049956760369, 5246941.002390180714428 ] ] ] } },
{ "type": "Feature", "properties": { "name": "ABAlterObstgarten 128" }, "geometry": { "type": "Polygon", "coordinates": [ [ [ 468778.181397717678919, 5246939.947019165381789 ], [ 468779.441212574194651, 5246939.786499609239399 ], [ 468777.354015175835229, 5246923.405428169295192 ], [ 468776.094200319435913, 5246923.565947723574936 ], [ 468778.181397717678919, 5246939.947019165381789 ] ] ] } },
{ "type": "Feature", "properties": { "name": "ABAlterObstgarten 129" }, "geometry": { "type": "Polygon", "coordinates": [ [ [ 468779.685628608858678, 5246938.921308194287121 ], [ 468780.94544346537441, 5246938.760788638144732 ], [ 468779.622616721841041, 5246928.378771391697228 ], [ 468778.362801865499932, 5246928.539290946908295 ], [ 468779.685628608858678, 5246938.921308194287121 ] ] ] } },
{ "type": "Feature", "properties": { "name": "ABAlterObstgarten 130" }, "geometry": { "type": "Polygon", "coordinates": [ [ [ 468781.150885915732943, 5246938.216556154191494 ], [ 468782.410700772190467, 5246938.056036598980427 ], [ 468781.852244683832396, 5246933.67307354696095 ], [ 468780.592429827258456, 5246933.833593102172017 ], [ 468781.150885915732943, 5246938.216556154191494 ] ] ] } }
]
}
