{
"type": "FeatureCollection",
"name": "AO 2.0",
"crs": { "type": "name", "properties": { "name": "urn:ogc:def:crs:EPSG::32632" } },
"features": [
{ "type": "Feature", "properties": { "name": "ABAlterObstgarten 01" }, "geometry": { "type": "Polygon", "coordinates": [ [ [ 468555.728327129909303, 5246974.093559071421623 ], [ 468556.98869462904986, 5246973.937438067980111 ], [ 468550.849085810885299, 5246924.372271854430437 ], [ 468549.588718311919365, 5246924.528392858803272 ], [ 468555.728327129909303, 5246974.093559071421623 ] ] ] } },
{ "type": "Feature", "properties": { "name": "ABAlterObstgarten 02" }, "geometry": { "type": "Polygon", "coordinates": [ [ [ 468557.422673205612227, 5246973.386842950247228 ], [ 468558.683040704636369, 5246973.230721949599683 ], [ 468552.549206075666007, 5246923.712170862592757 ], [ 468551.28883857675828, 5246923.868291863240302 ], [ 468557.422673205612227, 5246973.386842950247228 ] ] ] } },
{ "type": "Feature", "properties": { "name": "ABAlterObstgarten 03" }, "geometry": { "type": "Polygon", "coordinates": [ [ [ 468559.117019281431567, 5246972.680126830004156 ], [ 468560.377386780513916, 5246972.524005828425288 ], [ 468554.249326340621337, 5246923.052069867029786 ], [ 468552.988958841538988, 5246923.208190869539976 ], [ 468559.117019281431567, 5246972.680126830004156 ] ] ] } },
{ "type": "Feature", "properties": { "name": "ABAlterObstgarten 04" }, "geometry": { "type": "Polygon", "coordinates": [ [ [ 468560.811365357250907, 5246971.973410711623728 ], [ 468562.07173285621684, 5246971.817289710044861 ], [ 468555.94944660551846, 5246922.391968873329461 ], [ 468554.689079106552526, 5246922.548089877702296 ], [ 468560.811365357250907, 5246971.973410711623728 ] ] ] } },
{ "type": "Feature", "properties": { "name": "ABAlterObstgarten 05" }, "geometry": { "type": "Polygon", "coordinates": [ [ [ 468562.505711433070246, 5246971.266694588586688 ], [ 468563.766078932152595, 5246971.110573587939143 ], [ 468557.649566870415583, 5246921.731867878697813 ], [ 468556.389199371275026, 5246921.887988882139325 ], [ 468562.505711433070246, 5246971.266694588586688 ] ] ] } },
{ "type": "Feature", "properties": { "name": "ABAlterObstgarten 06" }, "geometry": { "type": "Polygon", "coordinates": [ [ [ 468564.200057508889586, 5246970.559978473000228 ], [ 468565.46042500785552, 5246970.403857468627393 ], [ 468559.349687135138083, 5246921.071766886860132 ], [ 468558.089319636113942, 5246921.227887890301645 ], [ 468564.200057508889586, 5246970.559978473000228 ] ] ] } },
{ "type": "Feature", "properties": { "name": "ABAlterObstgarten 07" }, "geometry": { "type": "Polygon", "coordinates": [ [ [ 468565.894403584650718, 5246969.853262351825833 ], [ 468567.154771083674859, 5246969.697141348384321 ], [ 468561.049807400151622, 5246920.411665894091129 ], [ 468559.789439901011065, 5246920.567786895669997 ], [ 468565.894403584650718, 5246969.853262351825833 ] ] ] } },
{ "type": "Feature", "properties": { "name": "ABAlterObstgarten 08" }, "geometry": { "type": "Polygon", "coordinates": [ [ [ 468567.588749660470057, 5246969.146546230651438 ], [ 468568.849117159435991, 5246968.990425226278603 ], [ 468562.749927664874122, 5246919.751564897596836 ], [ 468561.489560166024603, 5246919.907685900107026 ], [ 468567.588749660470057, 5246969.146546230651438 ] ] ] } },
{ "type": "Feature", "properties": { "name": "ABAlterObstgarten 09" }, "geometry": { "type": "Polygon", "coordinates": [ [ [ 468569.283095736231189, 5246968.439830112271011 ], [ 468570.543463235371746, 5246968.283709110692143 ], [ 468564.450047929713037, 5246919.091463906690478 ], [ 468563.189680430630688, 5246919.247584909200668 ], [ 468569.283095736231189, 5246968.439830112271011 ] ] ] } },
{ "type": "Feature", "properties": { "name": "ABAlterObstgarten 10" }, "geometry": { "type": "Polygon", "coordinates": [ [ [ 468570.977441812050529, 5246967.733113992027938 ], [ 468572.237809310958255, 5246967.576992988586426 ], [ 468566.150168194493745, 5246918.43136291205883 ], [ 468564.889800695411395, 5246918.587483915500343 ], [ 468570.977441812050529, 5246967.733113992027938 ] ] ] } },
{ "type": "Feature", "properties": { "name": "ABAlterObstgarten 11" }, "geometry": { "type": "Polygon", "coordinates": [ [ [ 468572.671787887928076, 5246967.026397869922221 ], [ 468573.932155386777595, 5246966.870276868343353 ], [ 468567.850288459449075, 5246917.771261918358505 ], [ 468566.589920960424934, 5246917.927382919937372 ], [ 468572.671787887928076, 5246967.026397869922221 ] ] ] } },
{ "type": "Feature", "properties": { "name": "ABAlterObstgarten 12" }, "geometry": { "type": "Polygon", "coordinates": [ [ [ 468574.366133963631, 5246966.319681752473116 ], [ 468575.626501462655142, 5246966.163560750894248 ], [ 468569.550408724346198, 5246917.111160924658179 ], [ 468568.290041225205641, 5246917.267281927168369 ], [ 468574.366133963631, 5246966.319681752473116 ] ] ] } },
{ "type": "Feature", "properties": { "name": "ABAlterObstgarten 13" }, "geometry": { "type": "Polygon", "coordinates": [ [ [ 468576.060480039333925, 5246965.612965630367398 ], [ 468577.320847538358066, 5246965.456844626925886 ], [ 468571.25052898901049, 5246916.451059929095209 ], [ 468569.990161490102764, 5246916.607180933468044 ], [ 468576.060480039333925, 5246965.612965630367398 ] ] ] } },
{ "type": "Feature", "properties": { "name": "ABAlterObstgarten 14" }, "geometry": { "type": "Polygon", "coordinates": [ [ [ 468577.754826115211472, 5246964.906249511055648 ], [ 468579.015193614352029, 5246964.750128509476781 ], [ 468572.950649254082236, 5246915.790958935394883 ], [ 468571.690281755058095, 5246915.947079938836396 ], [ 468577.754826115211472, 5246964.906249511055648 ] ] ] } },
{ "type": "Feature", "properties": { "name": "ABAlterObstgarten 15" }, "geometry": { "type": "Polygon", "coordinates": [ [ [ 468579.449172190856189, 5246964.199533394537866 ], [ 468580.709539690054953, 5246964.043412390165031 ], [ 468574.650769518746529, 5246915.130857943557203 ], [ 468573.390402019780595, 5246915.286978946067393 ], [ 468579.449172190856189, 5246964.199533394537866 ] ] ] } },
{ "type": "Feature", "properties": { "name": "ABAlterObstgarten 16" }, "geometry": { "type": "Polygon", "coordinates": [ [ [ 468581.143518266850151, 5246963.492817268706858 ], [ 468582.4038857659325, 5246963.336696268059313 ], [ 468576.350889783585444, 5246914.47075694706291 ], [ 468575.09052228461951, 5246914.626877951435745 ], [ 468581.143518266850151, 5246963.492817268706858 ] ] ] } },
{ "type": "Feature", "properties": { "name": "ABAlterObstgarten 17" }, "geometry": { "type": "Polygon", "coordinates": [ [ [ 468581.769506346841808, 5246954.161228894256055 ], [ 468583.029873845924158, 5246954.005107890814543 ], [ 468578.051010048482567, 5246913.810655955225229 ], [ 468576.790642549516633, 5246913.966776956804097 ], [ 468581.769506346841808, 5246954.161228894256055 ] ] ] } },
{ "type": "Feature", "properties": { "name": "ABAlterObstgarten 18" }, "geometry": { "type": "Polygon", "coordinates": [ [ [ 468583.463852422428317, 5246953.454512774012983 ], [ 468584.724219921568874, 5246953.298391772434115 ], [ 468579.751130313321482, 5246913.150554961524904 ], [ 468578.490762814355548, 5246913.306675964966416 ], [ 468583.463852422428317, 5246953.454512774012983 ] ] ] } },
{ "type": "Feature", "properties": { "name": "ABAlterObstgarten 19" }, "geometry": { "type": "Polygon", "coordinates": [ [ [ 468586.226556494017132, 5246961.372668911702931 ], [ 468587.486923993157689, 5246961.216547909192741 ], [ 468581.45125057810219, 5246912.490453967824578 ], [ 468580.190883079136256, 5246912.646574971266091 ], [ 468586.226556494017132, 5246961.372668911702931 ] ] ] } },
{ "type": "Feature", "properties": { "name": "ABAlterObstgarten 20" }, "geometry": { "type": "Polygon", "coordinates": [ [ [ 468587.920902570069302, 5246960.665952791459858 ], [ 468589.181270069093443, 5246960.509831788018346 ], [ 468583.151370843173936, 5246911.830352975986898 ], [ 468581.891003344033379, 5246911.986473976634443 ], [ 468587.920902570069302, 5246960.665952791459858 ] ] ] } },
{ "type": "Feature", "properties": { "name": "ABAlterObstgarten 21" }, "geometry": { "type": "Polygon", "coordinates": [ [ [ 468589.615848393994384, 5246959.964010143652558 ], [ 468590.87621589313494, 5246959.807889142073691 ], [ 468584.851499439333566, 5246911.170250936411321 ], [ 468583.591131940251216, 5246911.326371937058866 ], [ 468589.615848393994384, 5246959.964010143652558 ] ] ] } },
{ "type": "Feature", "properties": { "name": "ABAlterObstgarten 22" }, "geometry": { "type": "Polygon", "coordinates": [ [ [ 468591.320197324792389, 5246959.336908016353846 ], [ 468592.580564823700115, 5246959.180787012912333 ], [ 468586.551758656860329, 5246910.510132481344044 ], [ 468585.291391157952603, 5246910.666253482922912 ], [ 468591.320197324792389, 5246959.336908016353846 ] ] ] } },
{ "type": "Feature", "properties": { "name": "ABAlterObstgarten 23" }, "geometry": { "type": "Polygon", "coordinates": [ [ [ 468593.024546255473979, 5246958.70980588812381 ], [ 468594.28491375449812, 5246958.55368488561362 ], [ 468588.252017874445301, 5246909.85001403093338 ], [ 468586.991650375304744, 5246910.006135032512248 ], [ 468593.024546255473979, 5246958.70980588812381 ] ] ] } },
{ "type": "Feature", "properties": { "name": "ABAlterObstgarten 24" }, "geometry": { "type": "Polygon", "coordinates": [ [ [ 468594.728895186271984, 5246958.082703757099807 ], [ 468595.989262685412541, 5246957.926582754589617 ], [ 468589.952277092030272, 5246909.189895575866103 ], [ 468588.691909593180753, 5246909.346016580238938 ], [ 468594.728895186271984, 5246958.082703757099807 ] ] ] } },
{ "type": "Feature", "properties": { "name": "ABAlterObstgarten 25" }, "geometry": { "type": "Polygon", "coordinates": [ [ [ 468596.433244116953574, 5246957.455601629801095 ], [ 468597.693611616035923, 5246957.299480628222227 ], [ 468591.652536309673451, 5246908.529777124524117 ], [ 468590.392168810649309, 5246908.685898127965629 ], [ 468596.433244116953574, 5246957.455601629801095 ] ] ] } },
{ "type": "Feature", "properties": { "name": "ABAlterObstgarten 26" }, "geometry": { "type": "Polygon", "coordinates": [ [ [ 468598.137593047867995, 5246956.828499500639737 ], [ 468599.397960547008552, 5246956.672378498129547 ], [ 468593.352795527549461, 5246907.86965867318213 ], [ 468592.092428028525319, 5246908.025779673829675 ], [ 468598.137593047867995, 5246956.828499500639737 ] ] ] } },
{ "type": "Feature", "properties": { "name": "ABAlterObstgarten 27" }, "geometry": { "type": "Polygon", "coordinates": [ [ [ 468599.841941978666, 5246956.201397373341024 ], [ 468601.102309477573726, 5246956.045276368036866 ], [ 468595.053054744959809, 5246907.209540219977498 ], [ 468593.792687246052083, 5246907.365661223419011 ], [ 468599.841941978666, 5246956.201397373341024 ] ] ] } },
{ "type": "Feature", "properties": { "name": "ABAlterObstgarten 28" }, "geometry": { "type": "Polygon", "coordinates": [ [ [ 468601.546290909172967, 5246955.574295245110989 ], [ 468602.806658408197109, 5246955.418174242600799 ], [ 468596.753313962370157, 5246906.549421770498157 ], [ 468595.492946463404223, 5246906.705542773939669 ], [ 468601.546290909172967, 5246955.574295245110989 ] ] ] } },
{ "type": "Feature", "properties": { "name": "ABAlterObstgarten 29" }, "geometry": { "type": "Polygon", "coordinates": [ [ [ 468602.920639839547221, 5246954.947193116880953 ], [ 468604.181007338571362, 5246954.791072113439441 ], [ 468598.12357317993883, 5246905.889303317293525 ], [ 468596.863205680740066, 5246906.045424318872392 ], [ 468602.920639839547221, 5246954.947193116880953 ] ] ] } },
{ "type": "Feature", "properties": { "name": "ABAlterObstgarten 30" }, "geometry": { "type": "Polygon", "coordinates": [ [ [ 468604.624988770403434, 5246954.320090988650918 ], [ 468605.885356269427575, 5246954.163969984278083 ], [ 468599.823832397407386, 5246905.229184866882861 ], [ 468598.563464898325037, 5246905.385305869393051 ], [ 468604.624988770403434, 5246954.320090988650918 ] ] ] } },
{ "type": "Feature", "properties": { "name": "ABAlterObstgarten 31" }, "geometry": { "type": "Polygon", "coordinates": [ [ [ 468606.479337701457553, 5246953.69298885948956 ], [ 468607.739705200248864, 5246953.53686785697937 ], [ 468601.674091615306679, 5246904.569066413678229 ], [ 468600.413724116282538, 5246904.725187417119741 ], [ 468606.479337701457553, 5246953.69298885948956 ] ] ] } },
{ "type": "Feature", "properties": { "name": "ABAlterObstgarten 32" }, "geometry": { "type": "Polygon", "coordinates": [ [ [ 468608.033686631999444, 5246953.065886732190847 ], [ 468609.294054130848963, 5246952.909765728749335 ], [ 468603.22435083281016, 5246903.90894796140492 ], [ 468601.963983333669603, 5246904.065068965777755 ], [ 468608.033686631999444, 5246953.065886732190847 ] ] ] } },
{ "type": "Feature", "properties": { "name": "ABAlterObstgarten 33" }, "geometry": { "type": "Polygon", "coordinates": [ [ [ 468609.738035562506411, 5246952.438784603960812 ], [ 468610.998403061530553, 5246952.282663602381945 ], [ 468604.924610050278716, 5246903.248829510994256 ], [ 468603.664242551196367, 5246903.4049505116418 ], [ 468609.738035562506411, 5246952.438784603960812 ] ] ] } },
{ "type": "Feature", "properties": { "name": "ABAlterObstgarten 34" }, "geometry": { "type": "Polygon", "coordinates": [ [ [ 468611.442384493420832, 5246951.811682472936809 ], [ 468612.702751992444973, 5246951.655561468563974 ], [ 468606.62486926803831, 5246902.588711054995656 ], [ 468605.364501768897753, 5246902.744832059368491 ], [ 468611.442384493420832, 5246951.811682472936809 ] ] ] } },
{ "type": "Feature", "properties": { "name": "ABAlterObstgarten 35" }, "geometry": { "type": "Polygon", "coordinates": [ [ [ 468613.05673342384398, 5246951.184580344706774 ], [ 468614.317100922809914, 5246951.028459344059229 ], [ 468608.235128485190216, 5246901.928592606447637 ], [ 468606.974760986166075, 5246902.084713608957827 ], [ 468613.05673342384398, 5246951.184580344706774 ] ] ] } },
{ "type": "Feature", "properties": { "name": "ABAlterObstgarten 36" }, "geometry": { "type": "Polygon", "coordinates": [ [ [ 468614.761082354700193, 5246950.557478216476738 ], [ 468616.021449853782542, 5246950.401357213035226 ], [ 468609.935387702949811, 5246901.268474152311683 ], [ 468608.675020203983877, 5246901.424595154821873 ], [ 468614.761082354700193, 5246950.557478216476738 ] ] ] } },
{ "type": "Feature", "properties": { "name": "ABAlterObstgarten 37" }, "geometry": { "type": "Polygon", "coordinates": [ [ [ 468616.465431285381783, 5246949.930376089178026 ], [ 468617.725798784405924, 5246949.774255085736513 ], [ 468611.635646920534782, 5246900.608355702832341 ], [ 468610.375279421510641, 5246900.764476705342531 ], [ 468616.465431285381783, 5246949.930376089178026 ] ] ] } },
{ "type": "Feature", "properties": { "name": "ABAlterObstgarten 38" }, "geometry": { "type": "Polygon", "coordinates": [ [ [ 468618.169780216063373, 5246949.303273958154023 ], [ 468619.430147715262137, 5246949.147152955643833 ], [ 468613.335906138236169, 5246899.948237247765064 ], [ 468612.075538638979197, 5246900.104358252137899 ], [ 468618.169780216063373, 5246949.303273958154023 ] ] ] } },
{ "type": "Feature", "properties": { "name": "ABAlterObstgarten 39" }, "geometry": { "type": "Polygon", "coordinates": [ [ [ 468619.874129147327039, 5246948.676171832717955 ], [ 468621.13449664611835, 5246948.520050829276443 ], [ 468615.036165356112178, 5246899.288118798285723 ], [ 468613.775797857088037, 5246899.444239798933268 ], [ 468619.874129147327039, 5246948.676171832717955 ] ] ] } },
{ "type": "Feature", "properties": { "name": "ABAlterObstgarten 40" }, "geometry": { "type": "Polygon", "coordinates": [ [ [ 468621.578478077775799, 5246948.049069702625275 ], [ 468622.838845576858148, 5246947.892948701046407 ], [ 468616.736424573522527, 5246898.628000347875059 ], [ 468615.476057074498385, 5246898.784121350385249 ], [ 468621.578478077775799, 5246948.049069702625275 ] ] ] } },
{ "type": "Feature", "properties": { "name": "ABAlterObstgarten 41" }, "geometry": { "type": "Polygon", "coordinates": [ [ [ 468623.282827008573804, 5246947.421967573463917 ], [ 468624.543194507539738, 5246947.265846569091082 ], [ 468618.436683791223913, 5246897.967881890945137 ], [ 468617.176316292199772, 5246898.124002895317972 ], [ 468623.282827008573804, 5246947.421967573463917 ] ] ] } },
{ "type": "Feature", "properties": { "name": "ABAlterObstgarten 42" }, "geometry": { "type": "Polygon", "coordinates": [ [ [ 468624.987175939197186, 5246946.794865447096527 ], [ 468626.247543438279536, 5246946.638744443655014 ], [ 468620.136943008750677, 5246897.307763442397118 ], [ 468618.876575509668328, 5246897.463884444907308 ], [ 468624.987175939197186, 5246946.794865447096527 ] ] ] } },
{ "type": "Feature", "properties": { "name": "ABAlterObstgarten 43" }, "geometry": { "type": "Polygon", "coordinates": [ [ [ 468627.02152487024432, 5246946.167763314209878 ], [ 468628.281892369268462, 5246946.011642313562334 ], [ 468622.167202226817608, 5246896.647644987329841 ], [ 468620.906834727851674, 5246896.803765990771353 ], [ 468627.02152487024432, 5246946.167763314209878 ] ] ] } },
{ "type": "Feature", "properties": { "name": "ABAlterObstgarten 44" }, "geometry": { "type": "Polygon", "coordinates": [ [ [ 468628.725873800984118, 5246945.540661189705133 ], [ 468629.986241300182883, 5246945.384540185332298 ], [ 468623.867461444460787, 5246895.987526539713144 ], [ 468622.607093945262022, 5246896.143647541292012 ], [ 468628.725873800984118, 5246945.540661189705133 ] ] ] } },
{ "type": "Feature", "properties": { "name": "ABAlterObstgarten 45" }, "geometry": { "type": "Polygon", "coordinates": [ [ [ 468630.430222731898539, 5246944.91355905868113 ], [ 468631.690590230748057, 5246944.757438057102263 ], [ 468625.567720661871135, 5246895.327408083714545 ], [ 468624.307353162730578, 5246895.483529086224735 ], [ 468630.430222731898539, 5246944.91355905868113 ] ] ] } },
{ "type": "Feature", "properties": { "name": "ABAlterObstgarten 46" }, "geometry": { "type": "Polygon", "coordinates": [ [ [ 468632.134571662405506, 5246944.28645693231374 ], [ 468633.394939161546063, 5246944.130335928872228 ], [ 468627.267979879397899, 5246894.667289634235203 ], [ 468626.007612380431965, 5246894.823410634882748 ], [ 468632.134571662405506, 5246944.28645693231374 ] ] ] } },
{ "type": "Feature", "properties": { "name": "ABAlterObstgarten 47" }, "geometry": { "type": "Polygon", "coordinates": [ [ [ 468633.838920593087096, 5246943.65935480222106 ], [ 468635.099288092227653, 5246943.503233801573515 ], [ 468628.968239097041078, 5246894.007171181030571 ], [ 468627.707871598075144, 5246894.163292185403407 ], [ 468633.838920593087096, 5246943.65935480222106 ] ] ] } },
{ "type": "Feature", "properties": { "name": "ABAlterObstgarten 48" }, "geometry": { "type": "Polygon", "coordinates": [ [ [ 468635.543269524059724, 5246943.032252674922347 ], [ 468636.803637023200281, 5246942.876131672412157 ], [ 468630.668498314800672, 5246893.347052730619907 ], [ 468629.408130815892946, 5246893.503173732198775 ], [ 468635.543269524059724, 5246943.032252674922347 ] ] ] } },
{ "type": "Feature", "properties": { "name": "ABAlterObstgarten 49" }, "geometry": { "type": "Polygon", "coordinates": [ [ [ 468637.247618454857729, 5246942.405150545760989 ], [ 468638.507985953940079, 5246942.249029542319477 ], [ 468632.368757532443851, 5246892.686934277415276 ], [ 468631.108390033536125, 5246892.843055279925466 ], [ 468637.247618454857729, 5246942.405150545760989 ] ] ] } },
{ "type": "Feature", "properties": { "name": "ABAlterObstgarten 50" }, "geometry": { "type": "Polygon", "coordinates": [ [ [ 468638.951967385539319, 5246941.778048415668309 ], [ 468640.212334884563461, 5246941.621927412226796 ], [ 468634.069016749912407, 5246892.026815823279321 ], [ 468632.808649250946473, 5246892.182936826720834 ], [ 468638.951967385539319, 5246941.778048415668309 ] ] ] } },
{ "type": "Feature", "properties": { "name": "ABAlterObstgarten 51" }, "geometry": { "type": "Polygon", "coordinates": [ [ [ 468640.506316316139419, 5246941.150946289300919 ], [ 468641.766683815279976, 5246940.994825284928083 ], [ 468635.619275967590511, 5246891.366697374731302 ], [ 468634.358908468566369, 5246891.52281837631017 ], [ 468640.506316316139419, 5246941.150946289300919 ] ] ] } },
{ "type": "Feature", "properties": { "name": "ABAlterObstgarten 52" }, "geometry": { "type": "Polygon", "coordinates": [ [ [ 468642.210665246937424, 5246940.523844160139561 ], [ 468643.47103274584515, 5246940.367723155766726 ], [ 468637.31953518523369, 5246890.706578920595348 ], [ 468636.059167686267756, 5246890.862699923105538 ], [ 468642.210665246937424, 5246940.523844160139561 ] ] ] } },
{ "type": "Feature", "properties": { "name": "ABAlterObstgarten 53" }, "geometry": { "type": "Polygon", "coordinates": [ [ [ 468643.915014177677222, 5246939.89674203004688 ], [ 468645.175381676643156, 5246939.740621029399335 ], [ 468639.019794402702246, 5246890.046460470184684 ], [ 468637.759426903852727, 5246890.202581471763551 ], [ 468643.915014177677222, 5246939.89674203004688 ] ] ] } },
{ "type": "Feature", "properties": { "name": "ABAlterObstgarten 54" }, "geometry": { "type": "Polygon", "coordinates": [ [ [ 468645.619363108358812, 5246939.269639902748168 ], [ 468646.879730607441161, 5246939.113518900237978 ], [ 468640.720053620345425, 5246889.386342018842697 ], [ 468639.459686121379491, 5246889.542463021352887 ], [ 468645.619363108358812, 5246939.269639902748168 ] ] ] } },
{ "type": "Feature", "properties": { "name": "ABAlterObstgarten 55" }, "geometry": { "type": "Polygon", "coordinates": [ [ [ 468647.323712038807571, 5246938.642537774518132 ], [ 468648.584079537831713, 5246938.486416772007942 ], [ 468642.420312837755773, 5246888.726223566569388 ], [ 468641.159945338673424, 5246888.8823445700109 ], [ 468647.323712038807571, 5246938.642537774518132 ] ] ] } },
{ "type": "Feature", "properties": { "name": "ABAlterObstgarten 56" }, "geometry": { "type": "Polygon", "coordinates": [ [ [ 468649.028060969896615, 5246938.015435646288097 ], [ 468650.288428468862548, 5246937.859314641915262 ], [ 468644.120572055631783, 5246888.066105112433434 ], [ 468642.860204556549434, 5246888.222226115874946 ], [ 468649.028060969896615, 5246938.015435646288097 ] ] ] } },
{ "type": "Feature", "properties": { "name": "ABAlterObstgarten 57" }, "geometry": { "type": "Polygon", "coordinates": [ [ [ 468650.732365484116599, 5246937.388339096680284 ], [ 468651.992732983198948, 5246937.232218095101416 ], [ 468645.817633853410371, 5246887.380537992343307 ], [ 468644.557266354211606, 5246887.536658995784819 ], [ 468650.732365484116599, 5246937.388339096680284 ] ] ] } },
{ "type": "Feature", "properties": { "name": "ABAlterObstgarten 58" }, "geometry": { "type": "Polygon", "coordinates": [ [ [ 468652.436522391566541, 5246936.761261096224189 ], [ 468653.69688989041606, 5246936.605140090920031 ], [ 468647.504069789021742, 5246886.610398284159601 ], [ 468646.2437022899976, 5246886.766519287601113 ], [ 468652.436522391566541, 5246936.761261096224189 ] ] ] } },
{ "type": "Feature", "properties": { "name": "ABAlterObstgarten 59" }, "geometry": { "type": "Polygon", "coordinates": [ [ [ 468654.657169091922697, 5246940.244990872219205 ], [ 468655.917536590946838, 5246940.088869869709015 ], [ 468649.197680445446167, 5246885.839357133023441 ], [ 468647.937312946247403, 5246885.995478136464953 ], [ 468654.657169091922697, 5246940.244990872219205 ] ] ] } },
{ "type": "Feature", "properties": { "name": "ABAlterObstgarten 60" }, "geometry": { "type": "Polygon", "coordinates": [ [ [ 468657.081579975027125, 5246945.350505627691746 ], [ 468658.341947474167682, 5246945.194384625181556 ], [ 468650.894121652876493, 5246885.067960347048938 ], [ 468649.633754153910559, 5246885.224081350490451 ], [ 468657.081579975027125, 5246945.350505627691746 ] ] ] } },
{ "type": "Feature", "properties": { "name": "ABAlterObstgarten 61" }, "geometry": { "type": "Polygon", "coordinates": [ [ [ 468659.505990858597215, 5246950.456020382232964 ], [ 468660.766358357446734, 5246950.299899381585419 ], [ 468652.590562860772479, 5246884.296563557349145 ], [ 468651.33019536169013, 5246884.452684561721981 ], [ 468659.505990858597215, 5246950.456020382232964 ] ] ] } },
{ "type": "Feature", "properties": { "name": "ABAlterObstgarten 62" }, "geometry": { "type": "Polygon", "coordinates": [ [ [ 468661.764875630382448, 5246954.24409182369709 ], [ 468663.025243129464798, 5246954.087970820255578 ], [ 468654.284704693942331, 5246883.525455672293901 ], [ 468653.024337194859982, 5246883.681576672941446 ], [ 468661.764875630382448, 5246954.24409182369709 ] ] ] } },
{ "type": "Feature", "properties": { "name": "ABAlterObstgarten 63" }, "geometry": { "type": "Polygon", "coordinates": [ [ [ 468663.672990557621233, 5246955.240341573022306 ], [ 468664.933358056703582, 5246955.084220570512116 ], [ 468655.973973874060903, 5246882.754959992133081 ], [ 468654.713606375094969, 5246882.911080994643271 ], [ 468663.672990557621233, 5246955.240341573022306 ] ] ] } },
{ "type": "Feature", "properties": { "name": "ABAlterObstgarten 64" }, "geometry": { "type": "Polygon", "coordinates": [ [ [ 468665.581105484627187, 5246956.236591320484877 ], [ 468666.841472983534914, 5246956.080470319837332 ], [ 468657.663243053888436, 5246881.98446431197226 ], [ 468656.402875554864295, 5246882.14058531448245 ], [ 468665.581105484627187, 5246956.236591320484877 ] ] ] } },
{ "type": "Feature", "properties": { "name": "ABAlterObstgarten 65" }, "geometry": { "type": "Polygon", "coordinates": [ [ [ 468667.36922041157959, 5246957.232841069810092 ], [ 468668.62958791066194, 5246957.076720067299902 ], [ 468659.23251223412808, 5246881.213968630880117 ], [ 468657.972144735045731, 5246881.370089633390307 ], [ 468667.36922041157959, 5246957.232841069810092 ] ] ] } },
{ "type": "Feature", "properties": { "name": "ABAlterObstgarten 66" }, "geometry": { "type": "Polygon", "coordinates": [ [ [ 468669.42733533878345, 5246958.229090820997953 ], [ 468670.687702837924007, 5246958.072969818487763 ], [ 468661.071781414386351, 5246880.443472953513265 ], [ 468659.811413915245794, 5246880.599593956954777 ], [ 468669.42733533878345, 5246958.229090820997953 ] ] ] } },
{ "type": "Feature", "properties": { "name": "ABAlterObstgarten 67" }, "geometry": { "type": "Polygon", "coordinates": [ [ [ 468671.335450265731197, 5246959.225340566597879 ], [ 468672.595817764697131, 5246959.069219565019011 ], [ 468662.761050594213884, 5246879.672977271489799 ], [ 468661.500683095073327, 5246879.829098273999989 ], [ 468671.335450265731197, 5246959.225340566597879 ] ] ] } },
{ "type": "Feature", "properties": { "name": "ABAlterObstgarten 68" }, "geometry": { "type": "Polygon", "coordinates": [ [ [ 468673.243565192795359, 5246960.221590314991772 ], [ 468674.503932691935915, 5246960.065469314344227 ], [ 468664.450319774390664, 5246878.902481590397656 ], [ 468663.189952275250107, 5246879.058602593839169 ], [ 468673.243565192795359, 5246960.221590314991772 ] ] ] } },
{ "type": "Feature", "properties": { "name": "ABAlterObstgarten 69" }, "geometry": { "type": "Polygon", "coordinates": [ [ [ 468675.151680119917728, 5246961.217840067110956 ], [ 468676.41204761894187, 5246961.061719064600766 ], [ 468666.139588954334613, 5246878.131985914893448 ], [ 468664.879221455310471, 5246878.288106916472316 ], [ 468675.151680119917728, 5246961.217840067110956 ] ] ] } },
{ "type": "Feature", "properties": { "name": "ABAlterObstgarten 70" }, "geometry": { "type": "Polygon", "coordinates": [ [ [ 468677.059795047156513, 5246962.214089813642204 ], [ 468678.320162546180654, 5246962.057968811132014 ], [ 468667.828858134394977, 5246877.361490232869983 ], [ 468666.568490635545459, 5246877.51761123444885 ], [ 468677.059795047156513, 5246962.214089813642204 ] ] ] } },
{ "type": "Feature", "properties": { "name": "ABAlterObstgarten 71" }, "geometry": { "type": "Polygon", "coordinates": [ [ [ 468678.967909974162467, 5246963.210339564830065 ], [ 468680.228277473303024, 5246963.054218562319875 ], [ 468669.518127314688172, 5246876.590994553640485 ], [ 468668.257759815664031, 5246876.747115557081997 ], [ 468678.967909974162467, 5246963.210339564830065 ] ] ] } },
{ "type": "Feature", "properties": { "name": "ABAlterObstgarten 72" }, "geometry": { "type": "Polygon", "coordinates": [ [ [ 468680.876024901110213, 5246964.206589312292635 ], [ 468682.136392400192562, 5246964.050468309782445 ], [ 468671.207396494573914, 5246875.820498870685697 ], [ 468669.94702899560798, 5246875.976619873195887 ], [ 468680.876024901110213, 5246964.206589312292635 ] ] ] } },
{ "type": "Feature", "properties": { "name": "ABAlterObstgarten 73" }, "geometry": { "type": "Polygon", "coordinates": [ [ [ 468682.784139828232583, 5246965.202839063480496 ], [ 468684.044507327489555, 5246965.046718061901629 ], [ 468672.896665674925316, 5246875.050003194250166 ], [ 468671.636298175901175, 5246875.206124195829034 ], [ 468682.784139828232583, 5246965.202839063480496 ] ] ] } },
{ "type": "Feature", "properties": { "name": "ABAlterObstgarten 74" }, "geometry": { "type": "Polygon", "coordinates": [ [ [ 468684.692254755354952, 5246966.19908881187439 ], [ 468685.952622254262678, 5246966.042967811226845 ], [ 468674.585934854811057, 5246874.279507514089346 ], [ 468673.325567355728708, 5246874.435628514736891 ], [ 468684.692254755354952, 5246966.19908881187439 ] ] ] } },
{ "type": "Feature", "properties": { "name": "ABAlterObstgarten 75" }, "geometry": { "type": "Polygon", "coordinates": [ [ [ 468686.600369682535529, 5246967.195338558405638 ], [ 468687.860737181443255, 5246967.03921755682677 ], [ 468676.275204034987837, 5246873.50901183206588 ], [ 468675.014836535905488, 5246873.66513283457607 ], [ 468686.600369682535529, 5246967.195338558405638 ] ] ] } },
{ "type": "Feature", "properties": { "name": "ABAlterObstgarten 76" }, "geometry": { "type": "Polygon", "coordinates": [ [ [ 468688.508484609425068, 5246968.191588311456144 ], [ 468689.768852108507417, 5246968.035467308014631 ], [ 468677.964473214989994, 5246872.738516152836382 ], [ 468676.704105715791229, 5246872.894637156277895 ], [ 468688.508484609425068, 5246968.191588311456144 ] ] ] } },
{ "type": "Feature", "properties": { "name": "ABAlterObstgarten 77" }, "geometry": { "type": "Polygon", "coordinates": [ [ [ 468690.41659953672206, 5246969.187838056124747 ], [ 468691.676967035629787, 5246969.031717055477202 ], [ 468679.653742395050358, 5246871.968020472675562 ], [ 468678.393374896084424, 5246872.124141474254429 ], [ 468690.41659953672206, 5246969.187838056124747 ] ] ] } },
{ "type": "Feature", "properties": { "name": "ABAlterObstgarten 78" }, "geometry": { "type": "Polygon", "coordinates": [ [ [ 468692.324714463669807, 5246970.184087807312608 ], [ 468693.585081962635741, 5246970.027966804802418 ], [ 468681.343011575110722, 5246871.197524796240032 ], [ 468680.082644075911958, 5246871.353645796887577 ], [ 468692.324714463669807, 5246970.184087807312608 ] ] ] } },
{ "type": "Feature", "properties": { "name": "ABAlterObstgarten 79" }, "geometry": { "type": "Polygon", "coordinates": [ [ [ 468694.130317162082065, 5246970.364429725334048 ], [ 468695.390684661047999, 5246970.208308723755181 ], [ 468683.03085672587622, 5246870.427208032459021 ], [ 468681.77048922679387, 5246870.583329034969211 ], [ 468694.130317162082065, 5246970.364429725334048 ] ] ] } },
{ "type": "Feature", "properties": { "name": "ABAlterObstgarten 80" }, "geometry": { "type": "Polygon", "coordinates": [ [ [ 468695.824716754839756, 5246969.659692021086812 ], [ 468697.085084253863897, 5246969.503571020439267 ], [ 468684.717157119710464, 5246869.657085356302559 ], [ 468683.456789620802738, 5246869.813206358812749 ], [ 468695.824716754839756, 5246969.659692021086812 ] ] ] } },
{ "type": "Feature", "properties": { "name": "ABAlterObstgarten 81" }, "geometry": { "type": "Polygon", "coordinates": [ [ [ 468697.519116347830277, 5246968.954954316839576 ], [ 468698.779483846854419, 5246968.798833315260708 ], [ 468686.403457513719331, 5246868.886962682008743 ], [ 468685.14309001469519, 5246869.043083683587611 ], [ 468697.519116347830277, 5246968.954954316839576 ] ] ] } },
{ "type": "Feature", "properties": { "name": "ABAlterObstgarten 82" }, "geometry": { "type": "Polygon", "coordinates": [ [ [ 468699.213515940704383, 5246968.25021661259234 ], [ 468700.473883439903148, 5246968.094095611013472 ], [ 468688.089757907495368, 5246868.116840004920959 ], [ 468686.829390408471227, 5246868.272961008362472 ], [ 468699.213515940704383, 5246968.25021661259234 ] ] ] } },
{ "type": "Feature", "properties": { "name": "ABAlterObstgarten 83" }, "geometry": { "type": "Polygon", "coordinates": [ [ [ 468700.907915533753112, 5246967.545478908345103 ], [ 468702.168283032719046, 5246967.389357907697558 ], [ 468689.776058301562443, 5246867.346717327833176 ], [ 468688.515690802421886, 5246867.502838332206011 ], [ 468700.907915533753112, 5246967.545478908345103 ] ] ] } },
{ "type": "Feature", "properties": { "name": "ABAlterObstgarten 84" }, "geometry": { "type": "Polygon", "coordinates": [ [ [ 468702.362315126345493, 5246966.840741203166544 ], [ 468703.62268262548605, 5246966.684620199725032 ], [ 468691.222358695114963, 5246866.57659465353936 ], [ 468689.961991196207236, 5246866.73271565604955 ], [ 468702.362315126345493, 5246966.840741203166544 ] ] ] } },
{ "type": "Feature", "properties": { "name": "ABAlterObstgarten 85" }, "geometry": { "type": "Polygon", "coordinates": [ [ [ 468704.056714719394222, 5246966.136003498919308 ], [ 468705.317082218476571, 5246965.979882495477796 ], [ 468692.908659089065623, 5246865.806471977382898 ], [ 468691.648291589983273, 5246865.962592979893088 ], [ 468704.056714719394222, 5246966.136003498919308 ] ] ] } },
{ "type": "Feature", "properties": { "name": "ABAlterObstgarten 86" }, "geometry": { "type": "Polygon", "coordinates": [ [ [ 468705.751114312268328, 5246965.431265793740749 ], [ 468707.011481811176054, 5246965.275144791230559 ], [ 468694.594959482783452, 5246865.036349300295115 ], [ 468693.33459198375931, 5246865.192470303736627 ], [ 468705.751114312268328, 5246965.431265793740749 ] ] ] } },
{ "type": "Feature", "properties": { "name": "ABAlterObstgarten 87" }, "geometry": { "type": "Polygon", "coordinates": [ [ [ 468707.445513905200642, 5246964.726528090424836 ], [ 468708.705881404341199, 5246964.570407086983323 ], [ 468696.281259876675904, 5246864.266226626001298 ], [ 468695.02089237770997, 5246864.422347628511488 ], [ 468707.445513905200642, 5246964.726528090424836 ] ] ] } },
{ "type": "Feature", "properties": { "name": "ABAlterObstgarten 88" }, "geometry": { "type": "Polygon", "coordinates": [ [ [ 468709.46991349873133, 5246964.021790384314954 ], [ 468710.730280997697264, 5246963.865669381804764 ], [ 468698.297560271283146, 5246863.496103949844837 ], [ 468697.037192772084381, 5246863.652224951423705 ], [ 468709.46991349873133, 5246964.021790384314954 ] ] ] } },
{ "type": "Feature", "properties": { "name": "ABAlterObstgarten 89" }, "geometry": { "type": "Polygon", "coordinates": [ [ [ 468711.164313091372605, 5246963.317052679136395 ], [ 468712.424680590396747, 5246963.160931677557528 ], [ 468699.983860664768144, 5246862.725981272757053 ], [ 468698.723493165802211, 5246862.882102275267243 ], [ 468711.164313091372605, 5246963.317052679136395 ] ] ] } },
{ "type": "Feature", "properties": { "name": "ABAlterObstgarten 90" }, "geometry": { "type": "Polygon", "coordinates": [ [ [ 468712.858712684479542, 5246962.612314975820482 ], [ 468714.119080183561891, 5246962.456193974241614 ], [ 468701.670161058893427, 5246861.955858598463237 ], [ 468700.409793559811078, 5246862.111979600042105 ], [ 468712.858712684479542, 5246962.612314975820482 ] ] ] } },
{ "type": "Feature", "properties": { "name": "ABAlterObstgarten 91" }, "geometry": { "type": "Polygon", "coordinates": [ [ [ 468714.553112277353648, 5246961.907577271573246 ], [ 468715.813479776435997, 5246961.751456269994378 ], [ 468703.356461452669464, 5246861.185735922306776 ], [ 468702.096093953761738, 5246861.341856925748289 ], [ 468714.553112277353648, 5246961.907577271573246 ] ] ] } },
{ "type": "Feature", "properties": { "name": "ABAlterObstgarten 92" }, "geometry": { "type": "Polygon", "coordinates": [ [ [ 468716.247511870227754, 5246961.202839566394687 ], [ 468717.507879369251896, 5246961.046718566678464 ], [ 468705.042761846445501, 5246860.415613245218992 ], [ 468703.782394347479567, 5246860.571734249591827 ], [ 468716.247511870227754, 5246961.202839566394687 ] ] ] } },
{ "type": "Feature", "properties": { "name": "ABAlterObstgarten 93" }, "geometry": { "type": "Polygon", "coordinates": [ [ [ 468717.941911463160068, 5246960.498101863078773 ], [ 468719.202278962184209, 5246960.341980860568583 ], [ 468706.729062240512576, 5246859.645490572787821 ], [ 468705.46869474160485, 5246859.801611575298011 ], [ 468717.941911463160068, 5246960.498101863078773 ] ] ] } },
{ "type": "Feature", "properties": { "name": "ABAlterObstgarten 94" }, "geometry": { "type": "Polygon", "coordinates": [ [ [ 468719.636311056034174, 5246959.793364157900214 ], [ 468720.896678555058315, 5246959.637243155390024 ], [ 468708.415362634288613, 5246858.875367893837392 ], [ 468707.154995135206264, 5246859.031488896347582 ], [ 468719.636311056034174, 5246959.793364157900214 ] ] ] } },
{ "type": "Feature", "properties": { "name": "ABAlterObstgarten 95" }, "geometry": { "type": "Polygon", "coordinates": [ [ [ 468721.330710648966487, 5246959.088626453652978 ], [ 468722.591078147990629, 5246958.93250544834882 ], [ 468710.101663028239273, 5246858.105245217680931 ], [ 468708.841295529098716, 5246858.261366221122444 ], [ 468721.330710648966487, 5246959.088626453652978 ] ] ] } },
{ "type": "Feature", "properties": { "name": "ABAlterObstgarten 96" }, "geometry": { "type": "Polygon", "coordinates": [ [ [ 468723.025110242015216, 5246958.383888749405742 ], [ 468724.28547774098115, 5246958.227767746895552 ], [ 468711.787963422131725, 5246857.335122542455792 ], [ 468710.527595923107583, 5246857.491243545897305 ], [ 468723.025110242015216, 5246958.383888749405742 ] ] ] } },
{ "type": "Feature", "properties": { "name": "ABAlterObstgarten 97" }, "geometry": { "type": "Polygon", "coordinates": [ [ [ 468724.719509834831115, 5246957.679151044227183 ], [ 468725.979877333971672, 5246957.523030041716993 ], [ 468713.474263815965969, 5246856.564999865368009 ], [ 468712.21389631688362, 5246856.721120868809521 ], [ 468724.719509834831115, 5246957.679151044227183 ] ] ] } },
{ "type": "Feature", "properties": { "name": "ABAlterObstgarten 98" }, "geometry": { "type": "Polygon", "coordinates": [ [ [ 468726.413909427938052, 5246956.974413339979947 ], [ 468727.674276927020401, 5246956.818292337469757 ], [ 468715.160564209974837, 5246855.794877191074193 ], [ 468713.900196711008903, 5246855.950998193584383 ], [ 468726.413909427938052, 5246956.974413339979947 ] ] ] } },
{ "type": "Feature", "properties": { "name": "ABAlterObstgarten 99" }, "geometry": { "type": "Polygon", "coordinates": [ [ [ 468728.108309020870365, 5246956.26967563573271 ], [ 468729.368676519836299, 5246956.113554632291198 ], [ 468716.846864603925496, 5246855.024754514917731 ], [ 468715.586497104726732, 5246855.180875516496599 ], [ 468728.108309020870365, 5246956.26967563573271 ] ] ] } },
{ "type": "Feature", "properties": { "name": "ABAlterObstgarten 100" }, "geometry": { "type": "Polygon", "coordinates": [ [ [ 468729.802708613802679, 5246955.564937932416797 ], [ 468731.063076112943236, 5246955.408816928975284 ], [ 468718.533164997701533, 5246854.254631839692593 ], [ 468717.272797498793807, 5246854.410752844065428 ], [ 468729.802708613802679, 5246955.564937932416797 ] ] ] } },
{ "type": "Feature", "properties": { "name": "ABAlterObstgarten 101" }, "geometry": { "type": "Polygon", "coordinates": [ [ [ 468731.49710820656037, 5246954.860200225375593 ], [ 468732.757475705584511, 5246954.704079224728048 ], [ 468720.219465391535778, 5246853.484509164467454 ], [ 468718.959097892511636, 5246853.640630166046321 ], [ 468731.49710820656037, 5246954.860200225375593 ] ] ] } },
{ "type": "Feature", "properties": { "name": "ABAlterObstgarten 102" }, "geometry": { "type": "Polygon", "coordinates": [ [ [ 468733.401507799804676, 5246954.155462521128356 ], [ 468734.661875298887026, 5246953.999341519549489 ], [ 468722.115765785740223, 5246852.714386489242315 ], [ 468720.855398286774289, 5246852.870507491752505 ], [ 468733.401507799804676, 5246954.155462521128356 ] ] ] } },
{ "type": "Feature", "properties": { "name": "ABAlterObstgarten 103" }, "geometry": { "type": "Polygon", "coordinates": [ [ [ 468735.065907392825466, 5246953.45072481688112 ], [ 468736.326274891733192, 5246953.294603817164898 ], [ 468723.772066179546528, 5246851.944263814017177 ], [ 468722.511698680347763, 5246852.100384814664721 ], [ 468735.065907392825466, 5246953.45072481688112 ] ] ] } },
{ "type": "Feature", "properties": { "name": "ABAlterObstgarten 104" }, "geometry": { "type": "Polygon", "coordinates": [ [ [ 468736.760306985524949, 5246952.745987111702561 ], [ 468738.020674484607298, 5246952.589866109192371 ], [ 468725.458366573380772, 5246851.174141135066748 ], [ 468724.19799907435663, 5246851.330262137576938 ], [ 468736.760306985524949, 5246952.745987111702561 ] ] ] } },
{ "type": "Feature", "properties": { "name": "ABAlterObstgarten 105" }, "geometry": { "type": "Polygon", "coordinates": [ [ [ 468738.454706578748301, 5246952.041249406524003 ], [ 468739.71507407783065, 5246951.885128404013813 ], [ 468727.144666967506055, 5246850.404018459841609 ], [ 468725.884299468423706, 5246850.560139463283122 ], [ 468738.454706578748301, 5246952.041249406524003 ] ] ] } },
{ "type": "Feature", "properties": { "name": "ABAlterObstgarten 106" }, "geometry": { "type": "Polygon", "coordinates": [ [ [ 468740.149106171505991, 5246951.336511703208089 ], [ 468741.409473670530133, 5246951.180390698835254 ], [ 468728.830967361282092, 5246849.63389578461647 ], [ 468727.570599862141535, 5246849.790016786195338 ], [ 468740.149106171505991, 5246951.336511703208089 ] ] ] } },
{ "type": "Feature", "properties": { "name": "ABAlterObstgarten 107" }, "geometry": { "type": "Polygon", "coordinates": [ [ [ 468741.843505764671136, 5246950.631773998960853 ], [ 468743.10387326363707, 5246950.475652996450663 ], [ 468730.517267755349167, 5246848.863773107528687 ], [ 468729.256900256325025, 5246849.019894110970199 ], [ 468741.843505764671136, 5246950.631773998960853 ] ] ] } },
{ "type": "Feature", "properties": { "name": "ABAlterObstgarten 108" }, "geometry": { "type": "Polygon", "coordinates": [ [ [ 468743.537905357428826, 5246949.927036294713616 ], [ 468744.79827285639476, 5246949.770915291272104 ], [ 468732.203568149183411, 5246848.093650432303548 ], [ 468730.943200649984647, 5246848.249771434813738 ], [ 468743.537905357428826, 5246949.927036294713616 ] ] ] } },
{ "type": "Feature", "properties": { "name": "ABAlterObstgarten 109" }, "geometry": { "type": "Polygon", "coordinates": [ [ [ 468745.232304950244725, 5246949.222298588603735 ], [ 468746.492672449152451, 5246949.06617758795619 ], [ 468733.889868542843033, 5246847.323527756147087 ], [ 468732.629501043935306, 5246847.479648760519922 ], [ 468745.232304950244725, 5246949.222298588603735 ] ] ] } },
{ "type": "Feature", "properties": { "name": "ABAlterObstgarten 110" }, "geometry": { "type": "Polygon", "coordinates": [ [ [ 468746.926704543351661, 5246948.517560884356499 ], [ 468748.187072042492218, 5246948.361439883708954 ], [ 468735.576168936910108, 5246846.553405080921948 ], [ 468734.315801437769551, 5246846.709526082500815 ], [ 468746.926704543351661, 5246948.517560884356499 ] ] ] } },
{ "type": "Feature", "properties": { "name": "ABAlterObstgarten 111" }, "geometry": { "type": "Polygon", "coordinates": [ [ [ 468748.621104136109352, 5246947.812823181040585 ], [ 468749.881471635308117, 5246947.656702177599072 ], [ 468737.262469330686145, 5246845.783282404765487 ], [ 468736.002101831720211, 5246845.939403409138322 ], [ 468748.621104136109352, 5246947.812823181040585 ] ] ] } },
{ "type": "Feature", "properties": { "name": "ABAlterObstgarten 112" }, "geometry": { "type": "Polygon", "coordinates": [ [ [ 468750.329560743819457, 5246947.106319325976074 ], [ 468751.589928242668975, 5246946.950198323465884 ], [ 468739.960698290728033, 5246853.067227521911263 ], [ 468738.700330791703891, 5246853.223348524421453 ], [ 468750.329560743819457, 5246947.106319325976074 ] ] ] } },
{ "type": "Feature", "properties": { "name": "ABAlterObstgarten 113" }, "geometry": { "type": "Polygon", "coordinates": [ [ [ 468752.034547061834019, 5246946.400251483544707 ], [ 468753.29491456085816, 5246946.244130480103195 ], [ 468742.409109999949578, 5246858.362845472991467 ], [ 468741.148742500925437, 5246858.518966478295624 ], [ 468752.034547061834019, 5246946.400251483544707 ] ] ] } },
{ "type": "Feature", "properties": { "name": "ABAlterObstgarten 114" }, "geometry": { "type": "Polygon", "coordinates": [ [ [ 468753.739533380081411, 5246945.694183642975986 ], [ 468754.999900879163761, 5246945.538062639534473 ], [ 468744.857521709345747, 5246863.65846343152225 ], [ 468743.597154210263398, 5246863.81458443403244 ], [ 468753.739533380081411, 5246945.694183642975986 ] ] ] } },
{ "type": "Feature", "properties": { "name": "ABAlterObstgarten 115" }, "geometry": { "type": "Polygon", "coordinates": [ [ [ 468755.444519698270597, 5246944.988115802407265 ], [ 468756.704887197411153, 5246944.83199479803443 ], [ 468747.3059334186255, 5246868.954081387259066 ], [ 468746.045565919543151, 5246869.110202390700579 ], [ 468755.444519698270597, 5246944.988115802407265 ] ] ] } },
{ "type": "Feature", "properties": { "name": "ABAlterObstgarten 116" }, "geometry": { "type": "Polygon", "coordinates": [ [ [ 468756.999506016261876, 5246944.282047960907221 ], [ 468758.259873515344225, 5246944.125926956534386 ], [ 468749.604345127707347, 5246874.249699342995882 ], [ 468748.343977628624998, 5246874.405820344574749 ], [ 468756.999506016261876, 5246944.282047960907221 ] ] ] } },
{ "type": "Feature", "properties": { "name": "ABAlterObstgarten 117" }, "geometry": { "type": "Polygon", "coordinates": [ [ [ 468759.00449233490508, 5246943.575980118475854 ], [ 468760.26485983398743, 5246943.419859115965664 ], [ 468752.35275683744112, 5246879.545317298732698 ], [ 468751.092389338358771, 5246879.701438301242888 ], [ 468759.00449233490508, 5246943.575980118475854 ] ] ] } },
{ "type": "Feature", "properties": { "name": "ABAlterObstgarten 118" }, "geometry": { "type": "Polygon", "coordinates": [ [ [ 468760.709478653443512, 5246942.869912277907133 ], [ 468761.969846152409445, 5246942.713791275396943 ], [ 468754.801168547011912, 5246884.840935254469514 ], [ 468753.540801047929563, 5246884.997056256048381 ], [ 468760.709478653443512, 5246942.869912277907133 ] ] ] } },
{ "type": "Feature", "properties": { "name": "ABAlterObstgarten 119" }, "geometry": { "type": "Polygon", "coordinates": [ [ [ 468762.343663083156571, 5246942.165201609022915 ], [ 468763.60403058223892, 5246942.009080606512725 ], [ 468756.411979919823352, 5246883.947533525526524 ], [ 468755.151612420915626, 5246884.103654526174068 ], [ 468762.343663083156571, 5246942.165201609022915 ] ] ] } },
{ "type": "Feature", "properties": { "name": "ABAlterObstgarten 120" }, "geometry": { "type": "Polygon", "coordinates": [ [ [ 468764.048649401403964, 5246941.459133767522871 ], [ 468765.30901690054452, 5246941.303012763150036 ], [ 468758.860391629277728, 5246889.243151479400694 ], [ 468757.600024130370002, 5246889.399272480979562 ], [ 468764.048649401403964, 5246941.459133767522871 ] ] ] } },
{ "type": "Feature", "properties": { "name": "ABAlterObstgarten 121" }, "geometry": { "type": "Polygon", "coordinates": [ [ [ 468765.753635719651356, 5246940.753065924160182 ], [ 468767.014003218733706, 5246940.596944923512638 ], [ 468761.308803338732105, 5246894.538769433274865 ], [ 468760.048435839475133, 5246894.694890435785055 ], [ 468765.753635719651356, 5246940.753065924160182 ] ] ] } },
{ "type": "Feature", "properties": { "name": "ABAlterObstgarten 122" }, "geometry": { "type": "Polygon", "coordinates": [ [ [ 468767.458622038015164, 5246940.046998084522784 ], [ 468768.718989537213929, 5246939.890877082012594 ], [ 468763.757215048011858, 5246899.834387390874326 ], [ 468762.496847549045924, 5246899.990508392453194 ], [ 468767.458622038015164, 5246940.046998084522784 ] ] ] } },
{ "type": "Feature", "properties": { "name": "ABAlterObstgarten 123" }, "geometry": { "type": "Polygon", "coordinates": [ [ [ 468769.163608356146142, 5246939.34093024302274 ], [ 468770.423975855228491, 5246939.184809241443872 ], [ 468766.205626757233404, 5246905.130005346611142 ], [ 468764.945259258151054, 5246905.286126349121332 ], [ 468769.163608356146142, 5246939.34093024302274 ] ] ] } },
{ "type": "Feature", "properties": { "name": "ABAlterObstgarten 124" }, "geometry": { "type": "Polygon", "coordinates": [ [ [ 468770.86859467450995, 5246938.634862403385341 ], [ 468772.128962173534092, 5246938.478741399012506 ], [ 468768.654038466745988, 5246910.425623303279281 ], [ 468767.393670967838261, 5246910.581744307652116 ], [ 468770.86859467450995, 5246938.634862403385341 ] ] ] } },
{ "type": "Feature", "properties": { "name": "ABAlterObstgarten 125" }, "geometry": { "type": "Polygon", "coordinates": [ [ [ 468772.573580992699135, 5246937.928794560953975 ], [ 468773.833948491665069, 5246937.772673558443785 ], [ 468771.102450175967533, 5246915.721241259947419 ], [ 468769.842082676943392, 5246915.877362261526287 ], [ 468772.573580992699135, 5246937.928794560953975 ] ] ] } },
{ "type": "Feature", "properties": { "name": "ABAlterObstgarten 126" }, "geometry": { "type": "Polygon", "coordinates": [ [ [ 468774.278567311121151, 5246937.222726722247899 ], [ 468775.538934810145292, 5246937.066605718806386 ], [ 468773.550861885538325, 5246921.01685921754688 ], [ 468772.290494386688806, 5246921.172980219125748 ], [ 468774.278567311121151, 5246937.222726722247899 ] ] ] } },
{ "type": "Feature", "properties": { "name": "ABAlterObstgarten 127" }, "geometry": { "type": "Polygon", "coordinates": [ [ [ 468775.923553629196249, 5246936.516658879816532 ], [ 468777.183921128162183, 5246936.360537875443697 ], [ 468775.939273594645783, 5246926.312477171421051 ], [ 468774.678906095563434, 5246926.468598173931241 ], [ 468775.923553629196249, 5246936.516658879816532 ] ] ] } },
{ "type": "Feature", "properties": { "name": "ABAlterObstgarten 128" }, "geometry": { "type": "Polygon", "coordinates": [ [ [ 468777.388539947103709, 5246935.810591037385166 ], [ 468778.648907446244266, 5246935.654470033943653 ], [ 468778.147685303818434, 5246931.608095125295222 ], [ 468776.887317804794293, 5246931.764216127805412 ], [ 468777.388539947103709, 5246935.810591037385166 ] ] ] } },
{ "type": "Feature", "properties": { "name": "ABAlterObstgarten 129" }, "geometry": { "type": "Polygon", "coordinates": [ [ [ 468779.093526265467517, 5246935.104523197747767 ], [ 468780.353893764491659, 5246934.948402193374932 ], [ 468780.596097013098188, 5246936.90371308196336 ], [ 468779.335729514132254, 5246937.05983408447355 ], [ 468779.093526265467517, 5246935.104523197747767 ] ] ] } },
{ "type": "Feature", "properties": { "name": "ABAlterObstgarten 130" }, "geometry": { "type": "Polygon", "coordinates": [ [ [ 468780.798512583773118, 5246934.398455354385078 ], [ 468782.058880082913674, 5246934.242334351874888 ], [ 468783.044508722843602, 5246942.199331036768854 ], [ 468781.784141223703045, 5246942.355452040210366 ], [ 468780.798512583773118, 5246934.398455354385078 ] ] ] } }
]
}
