{
"type": "FeatureCollection",
"name": "MarketGarden 2.0",
"crs": { "type": "name", "properties": { "name": "urn:ogc:def:crs:EPSG::32632" } },
"features": [
{ "type": "Feature", "properties": { "name": "MarketGarden 5" }, "geometry": { "type": "Polygon", "coordinates": [ [ [ 480094.666900913871359, 5239901.689372071996331 ], [ 480095.470359003578778, 5239900.705829954706132 ], [ 480080.75523916532984, 5239888.685010652057827 ], [ 480079.951781075622421, 5239889.668552769348025 ], [ 480094.666900913871359, 5239901.689372071996331 ] ] ] } },
{ "type": "Feature", "properties": { "name": "MarketGarden 6" }, "geometry": { "type": "Polygon", "coordinates": [ [ [ 480095.813097786973231, 5239900.348501061089337 ], [ 480096.61655587668065, 5239899.364958944730461 ], [ 480081.245289236365352, 5239886.808131626807153 ], [ 480080.441831146599725, 5239887.791673744097352 ], [ 480095.813097786973231, 5239900.348501061089337 ] ] ] } },
{ "type": "Feature", "properties": { "name": "MarketGarden 7" }, "geometry": { "type": "Polygon", "coordinates": [ [ [ 480096.959294659434818, 5239899.007630051113665 ], [ 480097.762752749258652, 5239898.024087933823466 ], [ 480081.735339307109825, 5239884.931252602487803 ], [ 480080.931881217285991, 5239885.914794721640646 ], [ 480096.959294659434818, 5239899.007630051113665 ] ] ] } },
{ "type": "Feature", "properties": { "name": "MarketGarden 8" }, "geometry": { "type": "Polygon", "coordinates": [ [ [ 480098.105491532362066, 5239897.666759041137993 ], [ 480098.908949622127693, 5239896.683216922916472 ], [ 480082.225389378028922, 5239883.054373581893742 ], [ 480081.421931288321503, 5239884.037915699183941 ], [ 480098.105491532362066, 5239897.666759041137993 ] ] ] } },
{ "type": "Feature", "properties": { "name": "MarketGarden 9" }, "geometry": { "type": "Polygon", "coordinates": [ [ [ 480099.251688404881861, 5239896.325888032093644 ], [ 480100.055146494705696, 5239895.342345913872123 ], [ 480082.715439448831603, 5239881.177494561299682 ], [ 480081.911981358949561, 5239882.161036677658558 ], [ 480099.251688404881861, 5239896.325888032093644 ] ] ] } },
{ "type": "Feature", "properties": { "name": "MarketGarden 10" }, "geometry": { "type": "Polygon", "coordinates": [ [ [ 480100.397885277983733, 5239894.985017019324005 ], [ 480101.201343367923982, 5239894.001474902033806 ], [ 480083.205489519808907, 5239879.300615533255041 ], [ 480082.402031430101488, 5239880.284157652407885 ], [ 480100.397885277983733, 5239894.985017019324005 ] ] ] } },
{ "type": "Feature", "properties": { "name": "MarketGarden 11" }, "geometry": { "type": "Polygon", "coordinates": [ [ [ 480101.080066442780662, 5239894.180165105499327 ], [ 480101.900567338860128, 5239893.210795063525438 ], [ 480075.532204293704126, 5239870.866452477872372 ], [ 480074.711703397566453, 5239871.835822519846261 ], [ 480101.080066442780662, 5239894.180165105499327 ] ] ] } },
{ "type": "Feature", "properties": { "name": "MarketGarden 12" }, "geometry": { "type": "Polygon", "coordinates": [ [ [ 480103.337859664869029, 5239893.084141271188855 ], [ 480104.141317754925694, 5239892.100599152967334 ], [ 480067.689365102269221, 5239862.322905130684376 ], [ 480066.885907012678217, 5239863.306447247974575 ], [ 480103.337859664869029, 5239893.084141271188855 ] ] ] } },
{ "type": "Feature", "properties": { "name": "MarketGarden 13" }, "geometry": { "type": "Polygon", "coordinates": [ [ [ 480104.485290567739867, 5239891.741732443682849 ], [ 480105.288748657796532, 5239890.758190324530005 ], [ 480068.355631629703566, 5239860.587431886233389 ], [ 480067.552173539763317, 5239861.570974002592266 ], [ 480104.485290567739867, 5239891.741732443682849 ] ] ] } },
{ "type": "Feature", "properties": { "name": "MarketGarden 14" }, "geometry": { "type": "Polygon", "coordinates": [ [ [ 480105.632721469912212, 5239890.399323615245521 ], [ 480106.436179559619632, 5239889.41578150074929 ], [ 480069.021898156323005, 5239858.85195864085108 ], [ 480068.21844006649917, 5239859.835500758141279 ], [ 480105.632721469912212, 5239890.399323615245521 ] ] ] } },
{ "type": "Feature", "properties": { "name": "MarketGarden 15" }, "geometry": { "type": "Polygon", "coordinates": [ [ [ 480106.780152372084558, 5239889.05691478587687 ], [ 480107.583610461908393, 5239888.073372665792704 ], [ 480069.688164683408104, 5239857.116485394537449 ], [ 480068.884706593700685, 5239858.100027510896325 ], [ 480106.780152372084558, 5239889.05691478587687 ] ] ] } },
{ "type": "Feature", "properties": { "name": "MarketGarden 16" }, "geometry": { "type": "Polygon", "coordinates": [ [ [ 480107.927583274547942, 5239887.714505959302187 ], [ 480108.731041364371777, 5239886.730963842943311 ], [ 480070.354431210434996, 5239855.381012148223817 ], [ 480069.550973120611161, 5239856.364554265514016 ], [ 480107.927583274547942, 5239887.714505959302187 ] ] ] } },
{ "type": "Feature", "properties": { "name": "MarketGarden 17" }, "geometry": { "type": "Polygon", "coordinates": [ [ [ 480109.075014177185949, 5239886.372097133658826 ], [ 480109.878472266776953, 5239885.388555014505982 ], [ 480071.02069773763651, 5239853.645538903772831 ], [ 480070.217239647812676, 5239854.629081022925675 ], [ 480109.075014177185949, 5239886.372097133658826 ] ] ] } },
{ "type": "Feature", "properties": { "name": "MarketGarden 18" }, "geometry": { "type": "Polygon", "coordinates": [ [ [ 480110.170481705863494, 5239885.078867924399674 ], [ 480110.973939795570914, 5239884.095325806178153 ], [ 480071.635000891226809, 5239851.959245278500021 ], [ 480070.831542801402975, 5239852.942787394858897 ], [ 480110.170481705863494, 5239885.078867924399674 ] ] ] } },
{ "type": "Feature", "properties": { "name": "MarketGarden 19" }, "geometry": { "type": "Polygon", "coordinates": [ [ [ 480112.510449201392476, 5239884.662459386512637 ], [ 480113.31390729121631, 5239883.678917269222438 ], [ 480072.035035169974435, 5239849.958100302144885 ], [ 480071.231577080092393, 5239850.941642419435084 ], [ 480112.510449201392476, 5239884.662459386512637 ] ] ] } },
{ "type": "Feature", "properties": { "name": "MarketGarden 20" }, "geometry": { "type": "Polygon", "coordinates": [ [ [ 480113.657880103506614, 5239883.320050558075309 ], [ 480114.461338193155825, 5239882.336508439853787 ], [ 480072.701301696768496, 5239848.222627056762576 ], [ 480071.897843607293908, 5239849.206169174052775 ], [ 480113.657880103506614, 5239883.320050558075309 ] ] ] } },
{ "type": "Feature", "properties": { "name": "MarketGarden 21" }, "geometry": { "type": "Polygon", "coordinates": [ [ [ 480114.805311005446129, 5239881.977641730569303 ], [ 480115.608769095269963, 5239880.994099613279104 ], [ 480073.36756822350435, 5239846.487153810448945 ], [ 480072.564110133855138, 5239847.470695928670466 ], [ 480114.805311005446129, 5239881.977641730569303 ] ] ] } },
{ "type": "Feature", "properties": { "name": "MarketGarden 22" }, "geometry": { "type": "Polygon", "coordinates": [ [ [ 480115.952741907793097, 5239880.635232902131975 ], [ 480116.756199997558724, 5239879.651690787635744 ], [ 480074.033834750589449, 5239844.751680566929281 ], [ 480073.230376660707407, 5239845.735222683288157 ], [ 480115.952741907793097, 5239880.635232902131975 ] ] ] } },
{ "type": "Feature", "properties": { "name": "MarketGarden 23" }, "geometry": { "type": "Polygon", "coordinates": [ [ [ 480117.100172810081858, 5239879.292824075557292 ], [ 480117.903630899847485, 5239878.30928195733577 ], [ 480074.700101277616341, 5239843.016207321546972 ], [ 480073.896643187967129, 5239843.999749437905848 ], [ 480117.100172810081858, 5239879.292824075557292 ] ] ] } },
{ "type": "Feature", "properties": { "name": "MarketGarden 24" }, "geometry": { "type": "Polygon", "coordinates": [ [ [ 480118.247603712487034, 5239877.950415246188641 ], [ 480119.051061802369077, 5239876.966873128898442 ], [ 480075.366367804468609, 5239841.28073407523334 ], [ 480074.562909714819398, 5239842.264276190660894 ], [ 480118.247603712487034, 5239877.950415246188641 ] ] ] } },
{ "type": "Feature", "properties": { "name": "MarketGarden 25" }, "geometry": { "type": "Polygon", "coordinates": [ [ [ 480119.395034615299664, 5239876.60800641681999 ], [ 480120.198492704890668, 5239875.624464302323759 ], [ 480076.032634331728332, 5239839.545260828919709 ], [ 480075.229176242020912, 5239840.528802946209908 ], [ 480119.395034615299664, 5239876.60800641681999 ] ] ] } },
{ "type": "Feature", "properties": { "name": "MarketGarden 26" }, "geometry": { "type": "Polygon", "coordinates": [ [ [ 480120.542465517995879, 5239875.531219139695168 ], [ 480121.345923607761506, 5239874.547677023336291 ], [ 480076.698900858929846, 5239838.075409132987261 ], [ 480075.895442769222427, 5239839.058951249346137 ], [ 480120.542465517995879, 5239875.531219139695168 ] ] ] } },
{ "type": "Feature", "properties": { "name": "MarketGarden 27" }, "geometry": { "type": "Polygon", "coordinates": [ [ [ 480121.690440026461147, 5239874.188132884912193 ], [ 480122.493898116401397, 5239873.204590767621994 ], [ 480077.442793051945046, 5239836.402226991951466 ], [ 480076.639334962121211, 5239837.385769109241664 ], [ 480121.690440026461147, 5239874.188132884912193 ] ] ] } },
{ "type": "Feature", "properties": { "name": "MarketGarden 28" }, "geometry": { "type": "Polygon", "coordinates": [ [ [ 480122.839622211758979, 5239872.843541648238897 ], [ 480123.643080301466398, 5239871.859999531880021 ], [ 480078.359138599480502, 5239834.867430905811489 ], [ 480077.555680509773083, 5239835.850973024964333 ], [ 480122.839622211758979, 5239872.843541648238897 ] ] ] } },
{ "type": "Feature", "properties": { "name": "MarketGarden 29" }, "geometry": { "type": "Polygon", "coordinates": [ [ [ 480123.988804397289641, 5239871.498950416222215 ], [ 480124.792262486880645, 5239870.515408298000693 ], [ 480079.275484147306997, 5239833.332634822465479 ], [ 480078.472026057483163, 5239834.316176939755678 ], [ 480123.988804397289641, 5239871.498950416222215 ] ] ] } },
{ "type": "Feature", "properties": { "name": "MarketGarden 30" }, "geometry": { "type": "Polygon", "coordinates": [ [ [ 480125.137986582529265, 5239870.154359178617597 ], [ 480125.941444672178477, 5239869.170817063190043 ], [ 480080.191829694842454, 5239831.79783873911947 ], [ 480079.388371605135035, 5239832.781380858272314 ], [ 480125.137986582529265, 5239870.154359178617597 ] ] ] } },
{ "type": "Feature", "properties": { "name": "MarketGarden 31" }, "geometry": { "type": "Polygon", "coordinates": [ [ [ 480126.287168767710682, 5239868.809767944738269 ], [ 480127.090626857476309, 5239867.826225826516747 ], [ 480081.108175242552534, 5239830.263042657636106 ], [ 480080.304717152845114, 5239831.246584773994982 ], [ 480126.287168767710682, 5239868.809767944738269 ] ] ] } },
{ "type": "Feature", "properties": { "name": "MarketGarden 32" }, "geometry": { "type": "Polygon", "coordinates": [ [ [ 480127.436350953124929, 5239867.465176711790264 ], [ 480128.239809042948764, 5239866.481634594500065 ], [ 480082.024520790320821, 5239828.728246573358774 ], [ 480081.221062700496987, 5239829.711788690648973 ], [ 480127.436350953124929, 5239867.465176711790264 ] ] ] } },
{ "type": "Feature", "properties": { "name": "MarketGarden 33" }, "geometry": { "type": "Polygon", "coordinates": [ [ [ 480128.585533138888422, 5239866.120585476048291 ], [ 480129.388991228828672, 5239865.137043358758092 ], [ 480082.940866338438354, 5239827.193450489081442 ], [ 480082.137408248556312, 5239828.176992605440319 ], [ 480128.585533138888422, 5239866.120585476048291 ] ] ] } },
{ "type": "Feature", "properties": { "name": "MarketGarden 34" }, "geometry": { "type": "Polygon", "coordinates": [ [ [ 480129.505518893245608, 5239864.758081727661192 ], [ 480130.308976982894819, 5239863.774539608508348 ], [ 480083.628015455033164, 5239825.640741893090308 ], [ 480082.824557365325745, 5239826.624284008517861 ], [ 480129.505518893245608, 5239864.758081727661192 ] ] ] } },
{ "type": "Feature", "properties": { "name": "MarketGarden 35" }, "geometry": { "type": "Polygon", "coordinates": [ [ [ 480130.883897509658709, 5239863.497808395884931 ], [ 480131.687355599249713, 5239862.514266276732087 ], [ 480084.773557433858514, 5239824.190263707190752 ], [ 480083.970099344034679, 5239825.173805827274919 ], [ 480130.883897509658709, 5239863.497808395884931 ] ] ] } },
{ "type": "Feature", "properties": { "name": "MarketGarden 36" }, "geometry": { "type": "Polygon", "coordinates": [ [ [ 480131.568947158521041, 5239861.797578892670572 ], [ 480132.372405248519499, 5239860.814036773517728 ], [ 480086.22472847381141, 5239823.115880745463073 ], [ 480085.421270383987576, 5239824.099422860890627 ], [ 480131.568947158521041, 5239861.797578892670572 ] ] ] } },
{ "type": "Feature", "properties": { "name": "MarketGarden 37" }, "geometry": { "type": "Polygon", "coordinates": [ [ [ 480132.71812934364425, 5239860.452987658791244 ], [ 480133.521587433235254, 5239859.469445540569723 ], [ 480087.141074021230452, 5239821.581084663979709 ], [ 480086.337615931464825, 5239822.564626781269908 ], [ 480132.71812934364425, 5239860.452987658791244 ] ] ] } },
{ "type": "Feature", "properties": { "name": "MarketGarden 38" }, "geometry": { "type": "Polygon", "coordinates": [ [ [ 480133.867311528592836, 5239859.108396423980594 ], [ 480134.670769618358463, 5239858.124854306690395 ], [ 480088.057419568416663, 5239820.046288578771055 ], [ 480087.253961478825659, 5239821.029830696992576 ], [ 480133.867311528592836, 5239859.108396423980594 ] ] ] } },
{ "type": "Feature", "properties": { "name": "MarketGarden 39" }, "geometry": { "type": "Polygon", "coordinates": [ [ [ 480135.016493714705575, 5239857.664441235363483 ], [ 480135.819951804471202, 5239856.680899118073285 ], [ 480088.973765116999857, 5239818.412128542549908 ], [ 480088.17030702723423, 5239819.395670657977462 ], [ 480135.016493714705575, 5239857.664441235363483 ] ] ] } },
{ "type": "Feature", "properties": { "name": "MarketGarden 40" }, "geometry": { "type": "Polygon", "coordinates": [ [ [ 480136.165675900003407, 5239856.352808566763997 ], [ 480136.969133989710826, 5239855.369266449473798 ], [ 480089.890110664651729, 5239816.91029102448374 ], [ 480089.08665257494431, 5239817.893833141773939 ], [ 480136.165675900003407, 5239856.352808566763997 ] ] ] } },
{ "type": "Feature", "properties": { "name": "MarketGarden 41" }, "geometry": { "type": "Polygon", "coordinates": [ [ [ 480137.314858084835578, 5239855.008217332884669 ], [ 480138.118316174659412, 5239854.024675214663148 ], [ 480090.806456212070771, 5239815.375494940206409 ], [ 480090.002998122246936, 5239816.359037057496607 ], [ 480137.314858084835578, 5239855.008217332884669 ] ] ] } },
{ "type": "Feature", "properties": { "name": "MarketGarden 42" }, "geometry": { "type": "Polygon", "coordinates": [ [ [ 480138.464040270599071, 5239853.663626099005342 ], [ 480139.26749836030649, 5239852.68008398078382 ], [ 480091.722801759955473, 5239813.840698855929077 ], [ 480090.919343670015223, 5239814.824240975081921 ], [ 480138.464040270599071, 5239853.663626099005342 ] ] ] } },
{ "type": "Feature", "properties": { "name": "MarketGarden 43" }, "geometry": { "type": "Polygon", "coordinates": [ [ [ 480139.613222456013318, 5239852.319034862332046 ], [ 480140.416680545720737, 5239851.335492744110525 ], [ 480092.639147308014799, 5239812.305902774445713 ], [ 480091.835689218132757, 5239813.289444889873266 ], [ 480139.613222456013318, 5239852.319034862332046 ] ] ] } },
{ "type": "Feature", "properties": { "name": "MarketGarden 44" }, "geometry": { "type": "Polygon", "coordinates": [ [ [ 480140.76240464131115, 5239850.974443629384041 ], [ 480141.565862731076777, 5239849.990901512093842 ], [ 480093.555492855375633, 5239810.771106692031026 ], [ 480092.752034765726421, 5239811.754648809321225 ], [ 480140.76240464131115, 5239850.974443629384041 ] ] ] } },
{ "type": "Feature", "properties": { "name": "MarketGarden 45" }, "geometry": { "type": "Polygon", "coordinates": [ [ [ 480141.911586826725397, 5239849.629852392710745 ], [ 480142.715044916432817, 5239848.646310276351869 ], [ 480094.47183840314392, 5239809.236310604959726 ], [ 480093.668380313436501, 5239810.21985272411257 ], [ 480141.911586826725397, 5239849.629852392710745 ] ] ] } },
{ "type": "Feature", "properties": { "name": "MarketGarden 46" }, "geometry": { "type": "Polygon", "coordinates": [ [ [ 480143.060769012314267, 5239848.28526115976274 ], [ 480143.864227101963479, 5239847.301719043403864 ], [ 480095.38818395108683, 5239807.70151452254504 ], [ 480094.584725861379411, 5239808.685056639835238 ], [ 480143.060769012314267, 5239848.28526115976274 ] ] ] } },
{ "type": "Feature", "properties": { "name": "MarketGarden 47" }, "geometry": { "type": "Polygon", "coordinates": [ [ [ 480144.209951197553892, 5239846.940669925883412 ], [ 480145.013409287203103, 5239845.957127806730568 ], [ 480096.304529498738702, 5239806.16671843919903 ], [ 480095.501071409031283, 5239807.150260555557907 ], [ 480144.209951197553892, 5239846.940669925883412 ] ] ] } },
{ "type": "Feature", "properties": { "name": "MarketGarden 48" }, "geometry": { "type": "Polygon", "coordinates": [ [ [ 480145.359133382909931, 5239845.596078687347472 ], [ 480146.162591472733766, 5239844.612536570988595 ], [ 480097.220875046448782, 5239804.631922353990376 ], [ 480096.417416956741363, 5239805.615464470349252 ], [ 480145.359133382909931, 5239845.596078687347472 ] ] ] } },
{ "type": "Feature", "properties": { "name": "MarketGarden 49" }, "geometry": { "type": "Polygon", "coordinates": [ [ [ 480146.542426203959621, 5239844.085258942097425 ], [ 480147.345884293667041, 5239843.101716825738549 ], [ 480098.334691871306859, 5239803.064347486943007 ], [ 480097.531233781541232, 5239804.047889604233205 ], [ 480146.542426203959621, 5239844.085258942097425 ] ] ] } },
{ "type": "Feature", "properties": { "name": "MarketGarden 50" }, "geometry": { "type": "Polygon", "coordinates": [ [ [ 480147.528189010568894, 5239842.721561833284795 ], [ 480148.331647100392729, 5239841.738019714131951 ], [ 480099.282370609580539, 5239801.66953940410167 ], [ 480098.478912519814912, 5239802.653081519529223 ], [ 480147.528189010568894, 5239842.721561833284795 ] ] ] } },
{ "type": "Feature", "properties": { "name": "MarketGarden 51" }, "geometry": { "type": "Polygon", "coordinates": [ [ [ 480148.67874465091154, 5239841.375259032472968 ], [ 480149.48220274085179, 5239840.391716914251447 ], [ 480100.394842181063723, 5239800.292125628329813 ], [ 480099.591384091239888, 5239801.275667747482657 ], [ 480148.67874465091154, 5239841.375259032472968 ] ] ] } },
{ "type": "Feature", "properties": { "name": "MarketGarden 52" }, "geometry": { "type": "Polygon", "coordinates": [ [ [ 480149.829300290963147, 5239840.028956229798496 ], [ 480150.632758380728774, 5239839.045414112508297 ], [ 480101.507313752488699, 5239798.91471185348928 ], [ 480100.70385566278128, 5239799.898253971710801 ], [ 480149.829300290963147, 5239840.028956229798496 ] ] ] } },
{ "type": "Feature", "properties": { "name": "MarketGarden 53" }, "geometry": { "type": "Polygon", "coordinates": [ [ [ 480150.94689736381406, 5239838.814487696625292 ], [ 480151.750355453463271, 5239837.830945578403771 ], [ 480102.586826756712981, 5239797.669132345356047 ], [ 480101.783368667005561, 5239798.652674461714923 ], [ 480150.94689736381406, 5239838.814487696625292 ] ] ] } },
{ "type": "Feature", "properties": { "name": "MarketGarden 54" }, "geometry": { "type": "Polygon", "coordinates": [ [ [ 480152.097453003691044, 5239837.46818489767611 ], [ 480152.900911093398463, 5239836.484642777591944 ], [ 480103.699298328196164, 5239796.291718574240804 ], [ 480102.895840238488745, 5239797.27526069059968 ], [ 480152.097453003691044, 5239837.46818489767611 ] ] ] } },
{ "type": "Feature", "properties": { "name": "MarketGarden 55" }, "geometry": { "type": "Polygon", "coordinates": [ [ [ 480153.248008644208312, 5239836.12188209220767 ], [ 480154.051466733857524, 5239835.138339974917471 ], [ 480104.811769899970386, 5239794.914304797537625 ], [ 480104.008311810321175, 5239795.897846912965178 ], [ 480153.248008644208312, 5239836.12188209220767 ] ] ] } },
{ "type": "Feature", "properties": { "name": "MarketGarden 56" }, "geometry": { "type": "Polygon", "coordinates": [ [ [ 480154.496951728768181, 5239834.761968059465289 ], [ 480155.300409818592016, 5239833.77842594217509 ], [ 480106.022628916078247, 5239793.523279787041247 ], [ 480105.219170826137997, 5239794.506821907125413 ], [ 480154.496951728768181, 5239834.761968059465289 ] ] ] } },
{ "type": "Feature", "properties": { "name": "MarketGarden 57" }, "geometry": { "type": "Polygon", "coordinates": [ [ [ 480155.647507368645165, 5239833.415665258653462 ], [ 480156.450965458352584, 5239832.432123141363263 ], [ 480107.135100487386808, 5239792.145866015926003 ], [ 480106.331642397679389, 5239793.129408131353557 ], [ 480155.647507368645165, 5239833.415665258653462 ] ] ] } },
{ "type": "Feature", "properties": { "name": "MarketGarden 58" }, "geometry": { "type": "Polygon", "coordinates": [ [ [ 480156.79806300898781, 5239832.069362456910312 ], [ 480157.601521098753437, 5239831.085820339620113 ], [ 480108.247572059044614, 5239790.768452238291502 ], [ 480107.444113969162572, 5239791.751994355581701 ], [ 480156.79806300898781, 5239832.069362456910312 ] ] ] } },
{ "type": "Feature", "properties": { "name": "MarketGarden 59" }, "geometry": { "type": "Polygon", "coordinates": [ [ [ 480157.948618649388663, 5239830.72305965796113 ], [ 480158.752076738979667, 5239829.739517539739609 ], [ 480109.360043630644213, 5239789.391038464382291 ], [ 480108.556585541053209, 5239790.374580582603812 ], [ 480157.948618649388663, 5239830.72305965796113 ] ] ] } },
{ "type": "Feature", "properties": { "name": "MarketGarden 60" }, "geometry": { "type": "Polygon", "coordinates": [ [ [ 480159.099174288567156, 5239829.376756858080626 ], [ 480159.90263237839099, 5239828.393214739859104 ], [ 480110.472515201428905, 5239788.013624692335725 ], [ 480109.669057111605071, 5239788.997166808694601 ], [ 480159.099174288567156, 5239829.376756858080626 ] ] ] } },
{ "type": "Feature", "properties": { "name": "MarketGarden 61" }, "geometry": { "type": "Polygon", "coordinates": [ [ [ 480160.263839676219504, 5239828.01287083234638 ], [ 480161.067297765926924, 5239827.029328715056181 ], [ 480111.959392735618167, 5239786.912954596802592 ], [ 480111.155934645677917, 5239787.896496715955436 ], [ 480160.263839676219504, 5239828.01287083234638 ] ] ] } },
{ "type": "Feature", "properties": { "name": "MarketGarden 62" }, "geometry": { "type": "Polygon", "coordinates": [ [ [ 480161.41439531679498, 5239826.666568028740585 ], [ 480162.217853406560607, 5239825.683025911450386 ], [ 480113.071864307450596, 5239785.535540819168091 ], [ 480112.268406218034215, 5239786.519082935526967 ], [ 480161.41439531679498, 5239826.666568028740585 ] ] ] } },
{ "type": "Feature", "properties": { "name": "MarketGarden 63" }, "geometry": { "type": "Polygon", "coordinates": [ [ [ 480162.56495095678838, 5239825.32026522886008 ], [ 480163.368409046379384, 5239824.336723110638559 ], [ 480114.184335878817365, 5239784.158127046190202 ], [ 480113.380877789284568, 5239785.141669163480401 ], [ 480162.56495095678838, 5239825.32026522886008 ] ] ] } },
{ "type": "Feature", "properties": { "name": "MarketGarden 64" }, "geometry": { "type": "Polygon", "coordinates": [ [ [ 480163.70139684912283, 5239823.991545654833317 ], [ 480164.504854939121287, 5239823.008003538474441 ], [ 480114.922401487885509, 5239782.50396959297359 ], [ 480114.118943397828843, 5239783.487511710263789 ], [ 480163.70139684912283, 5239823.991545654833317 ] ] ] } },
{ "type": "Feature", "properties": { "name": "MarketGarden 65" }, "geometry": { "type": "Polygon", "coordinates": [ [ [ 480164.660653431667015, 5239822.568971357308328 ], [ 480165.464111521549057, 5239821.585429240018129 ], [ 480116.966200858703814, 5239781.967361096292734 ], [ 480116.162742768938188, 5239782.950903214514256 ], [ 480164.660653431667015, 5239822.568971357308328 ] ] ] } },
{ "type": "Feature", "properties": { "name": "MarketGarden 66" }, "geometry": { "type": "Polygon", "coordinates": [ [ [ 480165.81120907177683, 5239821.222668558359146 ], [ 480166.614667161426041, 5239820.23912643827498 ], [ 480118.078672430245206, 5239780.5899473214522 ], [ 480117.275214340479579, 5239781.573489440605044 ], [ 480165.81120907177683, 5239821.222668558359146 ] ] ] } },
{ "type": "Feature", "properties": { "name": "MarketGarden 67" }, "geometry": { "type": "Polygon", "coordinates": [ [ [ 480167.126557544746902, 5239819.67861435841769 ], [ 480167.930015634570736, 5239818.695072242990136 ], [ 480119.35593683476327, 5239779.014782150276005 ], [ 480118.552478745172266, 5239779.998324267566204 ], [ 480167.126557544746902, 5239819.67861435841769 ] ] ] } },
{ "type": "Feature", "properties": { "name": "MarketGarden 68" }, "geometry": { "type": "Polygon", "coordinates": [ [ [ 480168.277113185147755, 5239818.33231156039983 ], [ 480169.080571274855174, 5239817.348769442178309 ], [ 480120.468408406421077, 5239777.637368375435472 ], [ 480119.664950316771865, 5239778.62091049272567 ], [ 480168.277113185147755, 5239818.33231156039983 ] ] ] } },
{ "type": "Feature", "properties": { "name": "MarketGarden 69" }, "geometry": { "type": "Polygon", "coordinates": [ [ [ 480169.4276688254904, 5239816.986008759588003 ], [ 480170.231126915372442, 5239816.002466642297804 ], [ 480121.580879978195298, 5239776.25995460152626 ], [ 480120.777421888429672, 5239777.243496719747782 ], [ 480169.4276688254904, 5239816.986008759588003 ] ] ] } },
{ "type": "Feature", "properties": { "name": "MarketGarden 70" }, "geometry": { "type": "Polygon", "coordinates": [ [ [ 480170.578224465018138, 5239815.639705958776176 ], [ 480171.381682554783765, 5239814.656163841485977 ], [ 480122.693351549212821, 5239774.882540828548372 ], [ 480121.889893459388986, 5239775.866082945838571 ], [ 480170.578224465018138, 5239815.639705958776176 ] ] ] } },
{ "type": "Feature", "properties": { "name": "MarketGarden 71" }, "geometry": { "type": "Polygon", "coordinates": [ [ [ 480171.728780104778707, 5239814.293403157033026 ], [ 480172.532238194311503, 5239813.309861041605473 ], [ 480123.805823120172136, 5239773.505127054639161 ], [ 480123.002365030639339, 5239774.488669170998037 ], [ 480171.728780104778707, 5239814.293403157033026 ] ] ] } },
{ "type": "Feature", "properties": { "name": "MarketGarden 72" }, "geometry": { "type": "Polygon", "coordinates": [ [ [ 480172.879335744655691, 5239812.947100357152522 ], [ 480173.682793834595941, 5239811.963558240793645 ], [ 480124.918294691771735, 5239772.127713278867304 ], [ 480124.1148366019479, 5239773.111255397088826 ], [ 480172.879335744655691, 5239812.947100357152522 ] ] ] } },
{ "type": "Feature", "properties": { "name": "MarketGarden 73" }, "geometry": { "type": "Polygon", "coordinates": [ [ [ 480174.306447825685609, 5239812.046822048723698 ], [ 480175.109905915393028, 5239811.063279930502176 ], [ 480126.051873698364943, 5239770.987647043541074 ], [ 480125.248415608541109, 5239771.971189160831273 ], [ 480174.306447825685609, 5239812.046822048723698 ] ] ] } },
{ "type": "Feature", "properties": { "name": "MarketGarden 74" }, "geometry": { "type": "Polygon", "coordinates": [ [ [ 480175.470830128702801, 5239810.665161371231079 ], [ 480176.27428821841022, 5239809.68161925021559 ], [ 480127.641438042744994, 5239769.894846992567182 ], [ 480126.837979953386821, 5239770.87838910985738 ], [ 480175.470830128702801, 5239810.665161371231079 ] ] ] } },
{ "type": "Feature", "properties": { "name": "MarketGarden 75" }, "geometry": { "type": "Polygon", "coordinates": [ [ [ 480176.849355522950646, 5239809.387238540686667 ], [ 480177.652813612832688, 5239808.4036964206025 ], [ 480128.53916312934598, 5239768.282628830522299 ], [ 480127.735705039463937, 5239769.266170947812498 ], [ 480176.849355522950646, 5239809.387238540686667 ] ] ] } },
{ "type": "Feature", "properties": { "name": "MarketGarden 76" }, "geometry": { "type": "Polygon", "coordinates": [ [ [ 480178.000380742596462, 5239808.040350560098886 ], [ 480178.803838832303882, 5239807.05680844374001 ], [ 480129.718689587607514, 5239766.959023585543036 ], [ 480128.91523149801651, 5239767.942565701901913 ], [ 480178.000380742596462, 5239808.040350560098886 ] ] ] } },
{ "type": "Feature", "properties": { "name": "MarketGarden 77" }, "geometry": { "type": "Polygon", "coordinates": [ [ [ 480179.15140596270794, 5239806.793070659041405 ], [ 480179.95486405241536, 5239805.809528542682528 ], [ 480130.898216046683956, 5239765.735026421025395 ], [ 480130.094757957092952, 5239766.718568538315594 ], [ 480179.15140596270794, 5239806.793070659041405 ] ] ] } },
{ "type": "Feature", "properties": { "name": "MarketGarden 78" }, "geometry": { "type": "Polygon", "coordinates": [ [ [ 480180.302431182470173, 5239805.412979989312589 ], [ 480181.105889272177592, 5239804.42943787202239 ], [ 480132.077742505585775, 5239764.378218485042453 ], [ 480131.274284415820148, 5239765.361760603263974 ], [ 480180.302431182470173, 5239805.412979989312589 ] ] ] } },
{ "type": "Feature", "properties": { "name": "MarketGarden 79" }, "geometry": { "type": "Polygon", "coordinates": [ [ [ 480181.453456402523443, 5239804.132497395388782 ], [ 480182.25691449228907, 5239803.148955279029906 ], [ 480133.25726896483684, 5239763.121018628589809 ], [ 480132.453810875071213, 5239764.104560745880008 ], [ 480181.453456402523443, 5239804.132497395388782 ] ] ] } },
{ "type": "Feature", "properties": { "name": "MarketGarden 80" }, "geometry": { "type": "Polygon", "coordinates": [ [ [ 480182.604481622518506, 5239802.885217497125268 ], [ 480183.40793971234234, 5239801.901675379835069 ], [ 480134.436795423622243, 5239761.897021463140845 ], [ 480133.633337333856616, 5239762.880563581362367 ], [ 480182.604481622518506, 5239802.885217497125268 ] ] ] } },
{ "type": "Feature", "properties": { "name": "MarketGarden 81" }, "geometry": { "type": "Polygon", "coordinates": [ [ [ 480183.755506842571776, 5239801.438721434213221 ], [ 480184.558964932337403, 5239800.455179317854345 ], [ 480135.616321882698685, 5239760.473808137699962 ], [ 480134.812863792758435, 5239761.457350255921483 ], [ 480183.755506842571776, 5239801.438721434213221 ] ] ] } },
{ "type": "Feature", "properties": { "name": "MarketGarden 82" }, "geometry": { "type": "Polygon", "coordinates": [ [ [ 480184.83126833033748, 5239800.110440550372005 ], [ 480185.634726419812068, 5239799.126898433081806 ], [ 480137.129287310352083, 5239759.502680275589228 ], [ 480136.325829220644664, 5239760.486222394742072 ], [ 480184.83126833033748, 5239800.110440550372005 ] ] ] } },
{ "type": "Feature", "properties": { "name": "MarketGarden 83" }, "geometry": { "type": "Polygon", "coordinates": [ [ [ 480185.861986453062855, 5239798.507983890362084 ], [ 480186.665444542828482, 5239797.524441773071885 ], [ 480138.296703916101251, 5239758.01189296040684 ], [ 480137.493245826452039, 5239758.995435077697039 ], [ 480185.861986453062855, 5239798.507983890362084 ] ] ] } },
{ "type": "Feature", "properties": { "name": "MarketGarden 84" }, "geometry": { "type": "Polygon", "coordinates": [ [ [ 480187.013011673174333, 5239797.161095912568271 ], [ 480187.816469762765337, 5239796.177553795278072 ], [ 480139.476230375061277, 5239756.688287717290223 ], [ 480138.672772285586689, 5239757.671829834580421 ], [ 480187.013011673174333, 5239797.161095912568271 ] ] ] } },
{ "type": "Feature", "properties": { "name": "MarketGarden 85" }, "geometry": { "type": "Polygon", "coordinates": [ [ [ 480188.16403689282015, 5239795.947018705308437 ], [ 480188.967494982352946, 5239794.963476588018239 ], [ 480140.655756833904888, 5239755.497493244707584 ], [ 480139.852298744081054, 5239756.481035362929106 ], [ 480188.16403689282015, 5239795.947018705308437 ] ] ] } },
{ "type": "Feature", "properties": { "name": "MarketGarden 86" }, "geometry": { "type": "Polygon", "coordinates": [ [ [ 480189.282103546138387, 5239794.666047858074307 ], [ 480190.085561635845806, 5239793.682505741715431 ], [ 480141.80232472618809, 5239754.239805134944618 ], [ 480140.998866636597086, 5239755.223347252234817 ], [ 480189.282103546138387, 5239794.666047858074307 ] ] ] } },
{ "type": "Feature", "properties": { "name": "MarketGarden 87" }, "geometry": { "type": "Polygon", "coordinates": [ [ [ 480190.466087332810275, 5239793.253242748789489 ], [ 480191.269545422517695, 5239792.26970063149929 ], [ 480143.014809751941357, 5239752.850282759405673 ], [ 480142.211351662001107, 5239753.833824877627194 ], [ 480190.466087332810275, 5239793.253242748789489 ] ] ] } },
{ "type": "Feature", "properties": { "name": "MarketGarden 88" }, "geometry": { "type": "Polygon", "coordinates": [ [ [ 480191.617112552456092, 5239791.906354769133031 ], [ 480192.420570642279927, 5239790.922812649980187 ], [ 480144.194336210319307, 5239751.526677516289055 ], [ 480143.390878120728303, 5239752.510219633579254 ], [ 480191.617112552456092, 5239791.906354769133031 ] ] ] } },
{ "type": "Feature", "properties": { "name": "MarketGarden 89" }, "geometry": { "type": "Polygon", "coordinates": [ [ [ 480192.702220639155712, 5239790.757218184880912 ], [ 480193.505678728863131, 5239789.773676068522036 ], [ 480145.307945536042098, 5239750.400823668576777 ], [ 480144.504487446451094, 5239751.384365784935653 ], [ 480192.702220639155712, 5239790.757218184880912 ] ] ] } },
{ "type": "Feature", "properties": { "name": "MarketGarden 90" }, "geometry": { "type": "Polygon", "coordinates": [ [ [ 480193.958139623748139, 5239788.976128046400845 ], [ 480194.752984205144458, 5239787.985611974261701 ], [ 480146.848373079847079, 5239749.544316979125142 ], [ 480146.053528498567175, 5239750.534833050332963 ], [ 480193.958139623748139, 5239788.976128046400845 ] ] ] } },
{ "type": "Feature", "properties": { "name": "MarketGarden 91" }, "geometry": { "type": "Polygon", "coordinates": [ [ [ 480195.101659146894235, 5239787.738464677706361 ], [ 480195.896503728174139, 5239786.747948603704572 ], [ 480145.964326110552065, 5239746.679622728377581 ], [ 480145.169481529155746, 5239747.670138798654079 ], [ 480195.101659146894235, 5239787.738464677706361 ] ] ] } },
{ "type": "Feature", "properties": { "name": "MarketGarden 92" }, "geometry": { "type": "Polygon", "coordinates": [ [ [ 480196.252583320310805, 5239786.391701498068869 ], [ 480197.047427901648916, 5239785.401185426861048 ], [ 480147.143953615275677, 5239745.355892680585384 ], [ 480146.349109033821151, 5239746.346408753655851 ], [ 480196.252583320310805, 5239786.391701498068869 ] ] ] } },
{ "type": "Feature", "properties": { "name": "MarketGarden 93" }, "geometry": { "type": "Polygon", "coordinates": [ [ [ 480197.403507494891528, 5239785.044938321225345 ], [ 480198.198352076229639, 5239784.054422248154879 ], [ 480148.323581121047027, 5239744.032162636518478 ], [ 480147.528736539592501, 5239745.022678708657622 ], [ 480197.403507494891528, 5239785.044938321225345 ] ] ] } },
{ "type": "Feature", "properties": { "name": "MarketGarden 94" }, "geometry": { "type": "Polygon", "coordinates": [ [ [ 480198.554431667958852, 5239783.698175141587853 ], [ 480199.349276249296963, 5239782.707659070380032 ], [ 480149.503208625596017, 5239742.70843258779496 ], [ 480148.708364044257905, 5239743.698948662728071 ], [ 480198.554431667958852, 5239783.698175141587853 ] ] ] } },
{ "type": "Feature", "properties": { "name": "MarketGarden 95" }, "geometry": { "type": "Polygon", "coordinates": [ [ [ 480199.705355841433629, 5239782.351411965675652 ], [ 480200.500200422829948, 5239781.360895892605186 ], [ 480150.682836130377837, 5239741.384702543728054 ], [ 480149.887991549039725, 5239742.37521861679852 ], [ 480199.705355841433629, 5239782.351411965675652 ] ] ] } },
{ "type": "Feature", "properties": { "name": "MarketGarden 96" }, "geometry": { "type": "Polygon", "coordinates": [ [ [ 480200.856280015606899, 5239781.004648787900805 ], [ 480201.65112459694501, 5239780.014132715761662 ], [ 480151.862463635916356, 5239740.06097249686718 ], [ 480151.067619054578245, 5239741.051488570868969 ], [ 480200.856280015606899, 5239781.004648787900805 ] ] ] } },
{ "type": "Feature", "properties": { "name": "MarketGarden 97" }, "geometry": { "type": "Polygon", "coordinates": [ [ [ 480202.007204189372715, 5239779.657885609194636 ], [ 480202.802048770652618, 5239778.66736953612417 ], [ 480153.04209114110563, 5239738.737242450006306 ], [ 480152.247246559825726, 5239739.727758524008095 ], [ 480202.007204189372715, 5239779.657885609194636 ] ] ] } },
{ "type": "Feature", "properties": { "name": "MarketGarden 98" }, "geometry": { "type": "Polygon", "coordinates": [ [ [ 480203.158128363662399, 5239778.311122432351112 ], [ 480203.952972945058718, 5239777.320606357418001 ], [ 480154.221718646760564, 5239737.413512405008078 ], [ 480153.426874065422453, 5239738.404028477147222 ], [ 480203.158128363662399, 5239778.311122432351112 ] ] ] } },
{ "type": "Feature", "properties": { "name": "MarketGarden 99" }, "geometry": { "type": "Polygon", "coordinates": [ [ [ 480204.309052537486423, 5239776.964359253644943 ], [ 480205.103897118708119, 5239775.973843178711832 ], [ 480155.401346151949838, 5239736.089782358147204 ], [ 480154.606501570611726, 5239737.080298430286348 ], [ 480204.309052537486423, 5239776.964359253644943 ] ] ] } },
{ "type": "Feature", "properties": { "name": "MarketGarden 100" }, "geometry": { "type": "Polygon", "coordinates": [ [ [ 480205.465170375537127, 5239775.611065684817731 ], [ 480206.260014956933446, 5239774.620549611747265 ], [ 480158.07761932478752, 5239735.956345048733056 ], [ 480157.282774743449409, 5239736.946861122734845 ], [ 480205.465170375537127, 5239775.611065684817731 ] ] ] } },
{ "type": "Feature", "properties": { "name": "MarketGarden 101" }, "geometry": { "type": "Polygon", "coordinates": [ [ [ 480206.628514297015499, 5239774.248686213977635 ], [ 480207.423358878411818, 5239773.258170141838491 ], [ 480162.836215141462162, 5239737.478993457742035 ], [ 480162.041370560182258, 5239738.469509530812502 ], [ 480206.628514297015499, 5239774.248686213977635 ] ] ] } },
{ "type": "Feature", "properties": { "name": "MarketGarden 102" }, "geometry": { "type": "Polygon", "coordinates": [ [ [ 480207.825060912815388, 5239772.819901353679597 ], [ 480208.6199054941535, 5239771.829385280609131 ], [ 480167.62801365298219, 5239738.935236479155719 ], [ 480166.833169071760494, 5239739.925752551294863 ], [ 480207.825060912815388, 5239772.819901353679597 ] ] ] } },
{ "type": "Feature", "properties": { "name": "MarketGarden 103" }, "geometry": { "type": "Polygon", "coordinates": [ [ [ 480209.60177092748927, 5239772.047499804757535 ], [ 480210.396615508769173, 5239771.056983733549714 ], [ 480171.444368607306387, 5239739.799558222293854 ], [ 480170.649524025560822, 5239740.79007429536432 ], [ 480209.60177092748927, 5239772.047499804757535 ] ] ] } },
{ "type": "Feature", "properties": { "name": "MarketGarden 104" }, "geometry": { "type": "Polygon", "coordinates": [ [ [ 480210.754599643929396, 5239770.698341901414096 ], [ 480211.54944422544213, 5239769.707825826480985 ], [ 480173.172823394590523, 5239738.912314339540899 ], [ 480172.377978813427035, 5239739.902830411680043 ], [ 480210.754599643929396, 5239770.698341901414096 ] ] ] } },
{ "type": "Feature", "properties": { "name": "MarketGarden 105" }, "geometry": { "type": "Polygon", "coordinates": [ [ [ 480211.907428359903861, 5239769.349183996208012 ], [ 480212.70227294130018, 5239768.358667923137546 ], [ 480174.901278181991074, 5239738.025070458650589 ], [ 480174.106433601060417, 5239739.015586527995765 ], [ 480211.907428359903861, 5239769.349183996208012 ] ] ] } },
{ "type": "Feature", "properties": { "name": "MarketGarden 106" }, "geometry": { "type": "Polygon", "coordinates": [ [ [ 480213.060257075470872, 5239768.000026093795896 ], [ 480213.855101656634361, 5239767.009510021656752 ], [ 480176.629732969100587, 5239737.137826578691602 ], [ 480175.834888387704268, 5239738.128342652693391 ], [ 480213.060257075470872, 5239768.000026093795896 ] ] ] } },
{ "type": "Feature", "properties": { "name": "MarketGarden 107" }, "geometry": { "type": "Polygon", "coordinates": [ [ [ 480214.069896221102681, 5239766.682805558666587 ], [ 480215.010129541682545, 5239765.658002774231136 ], [ 480178.429444028472062, 5239736.303648572415113 ], [ 480177.634599447774235, 5239737.294164644554257 ], [ 480214.069896221102681, 5239766.682805558666587 ] ] ] } },
{ "type": "Feature", "properties": { "name": "MarketGarden 108" }, "geometry": { "type": "Polygon", "coordinates": [ [ [ 480215.368258341914043, 5239765.298763204365969 ], [ 480216.163102923193946, 5239764.308247132226825 ], [ 480180.762059380649589, 5239735.900502533651888 ], [ 480179.967214799718931, 5239736.891018606722355 ], [ 480215.368258341914043, 5239765.298763204365969 ] ] ] } }
]
}
