{
"type": "FeatureCollection",
"name": "MG 1.0",
"crs": { "type": "name", "properties": { "name": "urn:ogc:def:crs:EPSG::32632" } },
"features": [
{ "type": "Feature", "properties": { "name": "MarketGarden 5" }, "geometry": { "type": "Polygon", "coordinates": [ [ [ 480095.260155114054214, 5239901.194993578828871 ], [ 480096.063613203761633, 5239900.211451461538672 ], [ 480081.348493365512695, 5239888.190632158890367 ], [ 480080.545035275805276, 5239889.174174276180565 ], [ 480095.260155114054214, 5239901.194993578828871 ] ] ] } },
{ "type": "Feature", "properties": { "name": "MarketGarden 6" }, "geometry": { "type": "Polygon", "coordinates": [ [ [ 480096.406351987156086, 5239899.854122567921877 ], [ 480097.209810076863505, 5239898.870580451563001 ], [ 480081.838543436548207, 5239886.313753133639693 ], [ 480081.03508534678258, 5239887.297295250929892 ], [ 480096.406351987156086, 5239899.854122567921877 ] ] ] } },
{ "type": "Feature", "properties": { "name": "MarketGarden 7" }, "geometry": { "type": "Polygon", "coordinates": [ [ [ 480097.552548859617673, 5239898.513251557946205 ], [ 480098.356006949441507, 5239897.529709440656006 ], [ 480082.32859350729268, 5239884.436874109320343 ], [ 480081.525135417468846, 5239885.420416228473186 ], [ 480097.552548859617673, 5239898.513251557946205 ] ] ] } },
{ "type": "Feature", "properties": { "name": "MarketGarden 8" }, "geometry": { "type": "Polygon", "coordinates": [ [ [ 480098.698745732544921, 5239897.172380547970533 ], [ 480099.502203822310548, 5239896.188838429749012 ], [ 480082.818643578211777, 5239882.559995088726282 ], [ 480082.015185488504358, 5239883.543537206016481 ], [ 480098.698745732544921, 5239897.172380547970533 ] ] ] } },
{ "type": "Feature", "properties": { "name": "MarketGarden 9" }, "geometry": { "type": "Polygon", "coordinates": [ [ [ 480099.844942605064716, 5239895.831509538926184 ], [ 480100.648400694888551, 5239894.847967420704663 ], [ 480083.308693649014458, 5239880.683116068132222 ], [ 480082.505235559132416, 5239881.666658184491098 ], [ 480099.844942605064716, 5239895.831509538926184 ] ] ] } },
{ "type": "Feature", "properties": { "name": "MarketGarden 10" }, "geometry": { "type": "Polygon", "coordinates": [ [ [ 480100.991139478166588, 5239894.490638526156545 ], [ 480101.794597568106838, 5239893.507096408866346 ], [ 480083.798743719991762, 5239878.806237040087581 ], [ 480082.995285630284343, 5239879.789779159240425 ], [ 480100.991139478166588, 5239894.490638526156545 ] ] ] } },
{ "type": "Feature", "properties": { "name": "MarketGarden 11" }, "geometry": { "type": "Polygon", "coordinates": [ [ [ 480101.673320642963517, 5239893.685786612331867 ], [ 480102.493821539042983, 5239892.716416570357978 ], [ 480076.125458493886981, 5239870.372073984704912 ], [ 480075.304957597749308, 5239871.341444026678801 ], [ 480101.673320642963517, 5239893.685786612331867 ] ] ] } },
{ "type": "Feature", "properties": { "name": "MarketGarden 12" }, "geometry": { "type": "Polygon", "coordinates": [ [ [ 480103.931113865051884, 5239892.589762778021395 ], [ 480104.734571955108549, 5239891.606220659799874 ], [ 480068.282619302452076, 5239861.828526637516916 ], [ 480067.479161212861072, 5239862.812068754807115 ], [ 480103.931113865051884, 5239892.589762778021395 ] ] ] } },
{ "type": "Feature", "properties": { "name": "MarketGarden 13" }, "geometry": { "type": "Polygon", "coordinates": [ [ [ 480105.078544767922722, 5239891.247353950515389 ], [ 480105.882002857979387, 5239890.263811831362545 ], [ 480068.948885829886422, 5239860.093053393065929 ], [ 480068.145427739946172, 5239861.076595509424806 ], [ 480105.078544767922722, 5239891.247353950515389 ] ] ] } },
{ "type": "Feature", "properties": { "name": "MarketGarden 14" }, "geometry": { "type": "Polygon", "coordinates": [ [ [ 480106.225975670095067, 5239889.904945122078061 ], [ 480107.029433759802487, 5239888.92140300758183 ], [ 480069.61515235650586, 5239858.35758014768362 ], [ 480068.811694266682025, 5239859.341122264973819 ], [ 480106.225975670095067, 5239889.904945122078061 ] ] ] } },
{ "type": "Feature", "properties": { "name": "MarketGarden 15" }, "geometry": { "type": "Polygon", "coordinates": [ [ [ 480107.373406572267413, 5239888.56253629270941 ], [ 480108.176864662091248, 5239887.578994172625244 ], [ 480070.281418883590959, 5239856.622106901369989 ], [ 480069.47796079388354, 5239857.605649017728865 ], [ 480107.373406572267413, 5239888.56253629270941 ] ] ] } },
{ "type": "Feature", "properties": { "name": "MarketGarden 16" }, "geometry": { "type": "Polygon", "coordinates": [ [ [ 480108.520837474730797, 5239887.220127466134727 ], [ 480109.324295564554632, 5239886.236585349775851 ], [ 480070.947685410617851, 5239854.886633655056357 ], [ 480070.144227320794016, 5239855.870175772346556 ], [ 480108.520837474730797, 5239887.220127466134727 ] ] ] } },
{ "type": "Feature", "properties": { "name": "MarketGarden 17" }, "geometry": { "type": "Polygon", "coordinates": [ [ [ 480109.668268377368804, 5239885.877718640491366 ], [ 480110.471726466959808, 5239884.894176521338522 ], [ 480071.613951937819365, 5239853.151160410605371 ], [ 480070.810493847995531, 5239854.134702529758215 ], [ 480109.668268377368804, 5239885.877718640491366 ] ] ] } },
{ "type": "Feature", "properties": { "name": "MarketGarden 18" }, "geometry": { "type": "Polygon", "coordinates": [ [ [ 480110.76373590604635, 5239884.584489431232214 ], [ 480111.567193995753769, 5239883.600947313010693 ], [ 480072.228255091409665, 5239851.464866785332561 ], [ 480071.42479700158583, 5239852.448408901691437 ], [ 480110.76373590604635, 5239884.584489431232214 ] ] ] } },
{ "type": "Feature", "properties": { "name": "MarketGarden 19" }, "geometry": { "type": "Polygon", "coordinates": [ [ [ 480113.103703401575331, 5239884.168080893345177 ], [ 480113.907161491399165, 5239883.184538776054978 ], [ 480072.62828937015729, 5239849.463721808977425 ], [ 480071.824831280275248, 5239850.447263926267624 ], [ 480113.103703401575331, 5239884.168080893345177 ] ] ] } },
{ "type": "Feature", "properties": { "name": "MarketGarden 20" }, "geometry": { "type": "Polygon", "coordinates": [ [ [ 480114.251134303689469, 5239882.825672064907849 ], [ 480115.05459239333868, 5239881.842129946686327 ], [ 480073.294555896951351, 5239847.728248563595116 ], [ 480072.491097807476763, 5239848.711790680885315 ], [ 480114.251134303689469, 5239882.825672064907849 ] ] ] } },
{ "type": "Feature", "properties": { "name": "MarketGarden 21" }, "geometry": { "type": "Polygon", "coordinates": [ [ [ 480115.398565205628984, 5239881.483263237401843 ], [ 480116.202023295452818, 5239880.499721120111644 ], [ 480073.960822423687205, 5239845.992775317281485 ], [ 480073.157364334037993, 5239846.976317435503006 ], [ 480115.398565205628984, 5239881.483263237401843 ] ] ] } },
{ "type": "Feature", "properties": { "name": "MarketGarden 22" }, "geometry": { "type": "Polygon", "coordinates": [ [ [ 480116.545996107975952, 5239880.140854408964515 ], [ 480117.349454197741579, 5239879.157312294468284 ], [ 480074.627088950772304, 5239844.257302073761821 ], [ 480073.823630860890262, 5239845.240844190120697 ], [ 480116.545996107975952, 5239880.140854408964515 ] ] ] } },
{ "type": "Feature", "properties": { "name": "MarketGarden 23" }, "geometry": { "type": "Polygon", "coordinates": [ [ [ 480117.693427010264713, 5239878.798445582389832 ], [ 480118.49688510003034, 5239877.81490346416831 ], [ 480075.293355477799196, 5239842.521828828379512 ], [ 480074.489897388149984, 5239843.505370944738388 ], [ 480117.693427010264713, 5239878.798445582389832 ] ] ] } },
{ "type": "Feature", "properties": { "name": "MarketGarden 24" }, "geometry": { "type": "Polygon", "coordinates": [ [ [ 480118.84085791266989, 5239877.456036753021181 ], [ 480119.644316002551932, 5239876.472494635730982 ], [ 480075.959622004651465, 5239840.78635558206588 ], [ 480075.156163915002253, 5239841.769897697493434 ], [ 480118.84085791266989, 5239877.456036753021181 ] ] ] } },
{ "type": "Feature", "properties": { "name": "MarketGarden 25" }, "geometry": { "type": "Polygon", "coordinates": [ [ [ 480119.98828881548252, 5239876.11362792365253 ], [ 480120.791746905073524, 5239875.130085809156299 ], [ 480076.625888531911187, 5239839.050882335752249 ], [ 480075.822430442203768, 5239840.034424453042448 ], [ 480119.98828881548252, 5239876.11362792365253 ] ] ] } },
{ "type": "Feature", "properties": { "name": "MarketGarden 26" }, "geometry": { "type": "Polygon", "coordinates": [ [ [ 480121.135719718178734, 5239875.036840646527708 ], [ 480121.939177807944361, 5239874.053298530168831 ], [ 480077.292155059112702, 5239837.581030639819801 ], [ 480076.488696969405282, 5239838.564572756178677 ], [ 480121.135719718178734, 5239875.036840646527708 ] ] ] } },
{ "type": "Feature", "properties": { "name": "MarketGarden 27" }, "geometry": { "type": "Polygon", "coordinates": [ [ [ 480122.283694226644002, 5239873.693754391744733 ], [ 480123.087152316584252, 5239872.710212274454534 ], [ 480078.036047252127901, 5239835.907848498784006 ], [ 480077.232589162304066, 5239836.891390616074204 ], [ 480122.283694226644002, 5239873.693754391744733 ] ] ] } },
{ "type": "Feature", "properties": { "name": "MarketGarden 28" }, "geometry": { "type": "Polygon", "coordinates": [ [ [ 480123.432876411941834, 5239872.349163155071437 ], [ 480124.236334501649253, 5239871.365621038712561 ], [ 480078.952392799663357, 5239834.373052412644029 ], [ 480078.148934709955938, 5239835.356594531796873 ], [ 480123.432876411941834, 5239872.349163155071437 ] ] ] } },
{ "type": "Feature", "properties": { "name": "MarketGarden 29" }, "geometry": { "type": "Polygon", "coordinates": [ [ [ 480124.582058597472496, 5239871.004571923054755 ], [ 480125.3855166870635, 5239870.021029804833233 ], [ 480079.868738347489852, 5239832.838256329298019 ], [ 480079.065280257666018, 5239833.821798446588218 ], [ 480124.582058597472496, 5239871.004571923054755 ] ] ] } },
{ "type": "Feature", "properties": { "name": "MarketGarden 30" }, "geometry": { "type": "Polygon", "coordinates": [ [ [ 480125.731240782712121, 5239869.659980685450137 ], [ 480126.534698872361332, 5239868.676438570022583 ], [ 480080.785083895025309, 5239831.30346024595201 ], [ 480079.98162580531789, 5239832.287002365104854 ], [ 480125.731240782712121, 5239869.659980685450137 ] ] ] } },
{ "type": "Feature", "properties": { "name": "MarketGarden 31" }, "geometry": { "type": "Polygon", "coordinates": [ [ [ 480126.880422967893537, 5239868.315389451570809 ], [ 480127.683881057659164, 5239867.331847333349288 ], [ 480081.701429442735389, 5239829.768664164468646 ], [ 480080.89797135302797, 5239830.752206280827522 ], [ 480126.880422967893537, 5239868.315389451570809 ] ] ] } },
{ "type": "Feature", "properties": { "name": "MarketGarden 32" }, "geometry": { "type": "Polygon", "coordinates": [ [ [ 480128.029605153307784, 5239866.970798218622804 ], [ 480128.833063243131619, 5239865.987256101332605 ], [ 480082.617774990503676, 5239828.233868080191314 ], [ 480081.814316900679842, 5239829.217410197481513 ], [ 480128.029605153307784, 5239866.970798218622804 ] ] ] } },
{ "type": "Feature", "properties": { "name": "MarketGarden 33" }, "geometry": { "type": "Polygon", "coordinates": [ [ [ 480129.178787339071278, 5239865.626206982880831 ], [ 480129.982245429011527, 5239864.642664865590632 ], [ 480083.53412053862121, 5239826.699071995913982 ], [ 480082.730662448739167, 5239827.682614112272859 ], [ 480129.178787339071278, 5239865.626206982880831 ] ] ] } },
{ "type": "Feature", "properties": { "name": "MarketGarden 34" }, "geometry": { "type": "Polygon", "coordinates": [ [ [ 480130.098773093428463, 5239864.263703234493732 ], [ 480130.902231183077674, 5239863.280161115340889 ], [ 480084.22126965521602, 5239825.146363399922848 ], [ 480083.4178115655086, 5239826.129905515350401 ], [ 480130.098773093428463, 5239864.263703234493732 ] ] ] } },
{ "type": "Feature", "properties": { "name": "MarketGarden 35" }, "geometry": { "type": "Polygon", "coordinates": [ [ [ 480131.477151709841564, 5239863.003429902717471 ], [ 480132.280609799432568, 5239862.019887783564627 ], [ 480085.366811634041369, 5239823.695885214023292 ], [ 480084.563353544217534, 5239824.679427334107459 ], [ 480131.477151709841564, 5239863.003429902717471 ] ] ] } },
{ "type": "Feature", "properties": { "name": "MarketGarden 36" }, "geometry": { "type": "Polygon", "coordinates": [ [ [ 480132.162201358703896, 5239861.303200399503112 ], [ 480132.965659448702354, 5239860.319658280350268 ], [ 480086.817982673994265, 5239822.621502252295613 ], [ 480086.014524584170431, 5239823.605044367723167 ], [ 480132.162201358703896, 5239861.303200399503112 ] ] ] } },
{ "type": "Feature", "properties": { "name": "MarketGarden 37" }, "geometry": { "type": "Polygon", "coordinates": [ [ [ 480133.311383543827105, 5239859.958609165623784 ], [ 480134.114841633418109, 5239858.975067047402263 ], [ 480087.734328221413307, 5239821.086706170812249 ], [ 480086.93087013164768, 5239822.070248288102448 ], [ 480133.311383543827105, 5239859.958609165623784 ] ] ] } },
{ "type": "Feature", "properties": { "name": "MarketGarden 38" }, "geometry": { "type": "Polygon", "coordinates": [ [ [ 480134.460565728775691, 5239858.614017930813134 ], [ 480135.264023818541318, 5239857.630475813522935 ], [ 480088.650673768599518, 5239819.551910085603595 ], [ 480087.847215679008514, 5239820.535452203825116 ], [ 480134.460565728775691, 5239858.614017930813134 ] ] ] } },
{ "type": "Feature", "properties": { "name": "MarketGarden 39" }, "geometry": { "type": "Polygon", "coordinates": [ [ [ 480135.60974791488843, 5239857.203021308407187 ], [ 480136.413206004654057, 5239856.219479191116989 ], [ 480089.567019317182712, 5239817.950708615593612 ], [ 480088.763561227417085, 5239818.934250731021166 ], [ 480135.60974791488843, 5239857.203021308407187 ] ] ] } },
{ "type": "Feature", "properties": { "name": "MarketGarden 40" }, "geometry": { "type": "Polygon", "coordinates": [ [ [ 480136.758930100186262, 5239855.858430073596537 ], [ 480137.562388189893682, 5239854.874887956306338 ], [ 480090.483364864834584, 5239816.41591253131628 ], [ 480089.679906775127165, 5239817.399454648606479 ], [ 480136.758930100186262, 5239855.858430073596537 ] ] ] } },
{ "type": "Feature", "properties": { "name": "MarketGarden 41" }, "geometry": { "type": "Polygon", "coordinates": [ [ [ 480137.908112285018433, 5239854.513838839717209 ], [ 480138.711570374842267, 5239853.530296721495688 ], [ 480091.399710412253626, 5239814.881116447038949 ], [ 480090.596252322429791, 5239815.864658564329147 ], [ 480137.908112285018433, 5239854.513838839717209 ] ] ] } },
{ "type": "Feature", "properties": { "name": "MarketGarden 42" }, "geometry": { "type": "Polygon", "coordinates": [ [ [ 480139.057294470781926, 5239853.169247605837882 ], [ 480139.860752560489345, 5239852.18570548761636 ], [ 480092.316055960138328, 5239813.346320362761617 ], [ 480091.512597870198078, 5239814.329862481914461 ], [ 480139.057294470781926, 5239853.169247605837882 ] ] ] } },
{ "type": "Feature", "properties": { "name": "MarketGarden 43" }, "geometry": { "type": "Polygon", "coordinates": [ [ [ 480140.206476656196173, 5239851.824656369164586 ], [ 480141.009934745903593, 5239850.841114250943065 ], [ 480093.232401508197654, 5239811.811524281278253 ], [ 480092.428943418315612, 5239812.795066396705806 ], [ 480140.206476656196173, 5239851.824656369164586 ] ] ] } },
{ "type": "Feature", "properties": { "name": "MarketGarden 44" }, "geometry": { "type": "Polygon", "coordinates": [ [ [ 480141.355658841494005, 5239850.480065136216581 ], [ 480142.159116931259632, 5239849.496523018926382 ], [ 480094.148747055558488, 5239810.276728198863566 ], [ 480093.345288965909276, 5239811.260270316153765 ], [ 480141.355658841494005, 5239850.480065136216581 ] ] ] } },
{ "type": "Feature", "properties": { "name": "MarketGarden 45" }, "geometry": { "type": "Polygon", "coordinates": [ [ [ 480142.504841026908252, 5239849.135473899543285 ], [ 480143.308299116615672, 5239848.151931783184409 ], [ 480095.065092603326775, 5239808.741932111792266 ], [ 480094.261634513619356, 5239809.72547423094511 ], [ 480142.504841026908252, 5239849.135473899543285 ] ] ] } },
{ "type": "Feature", "properties": { "name": "MarketGarden 46" }, "geometry": { "type": "Polygon", "coordinates": [ [ [ 480143.654023212497123, 5239847.79088266659528 ], [ 480144.457481302146334, 5239846.807340550236404 ], [ 480095.981438151269685, 5239807.20713602937758 ], [ 480095.177980061562266, 5239808.190678146667778 ], [ 480143.654023212497123, 5239847.79088266659528 ] ] ] } },
{ "type": "Feature", "properties": { "name": "MarketGarden 47" }, "geometry": { "type": "Polygon", "coordinates": [ [ [ 480144.803205397736747, 5239846.446291432715952 ], [ 480145.606663487385958, 5239845.462749313563108 ], [ 480096.897783698921558, 5239805.67233994603157 ], [ 480096.094325609214138, 5239806.655882062390447 ], [ 480144.803205397736747, 5239846.446291432715952 ] ] ] } },
{ "type": "Feature", "properties": { "name": "MarketGarden 48" }, "geometry": { "type": "Polygon", "coordinates": [ [ [ 480145.952387583092786, 5239845.101700194180012 ], [ 480146.755845672916621, 5239844.118158077821136 ], [ 480097.814129246631637, 5239804.137543860822916 ], [ 480097.010671156924218, 5239805.121085977181792 ], [ 480145.952387583092786, 5239845.101700194180012 ] ] ] } },
{ "type": "Feature", "properties": { "name": "MarketGarden 49" }, "geometry": { "type": "Polygon", "coordinates": [ [ [ 480147.102721837465651, 5239843.755673279985785 ], [ 480147.906179927173071, 5239842.772131163626909 ], [ 480098.894987504812889, 5239802.734761824831367 ], [ 480098.091529415047262, 5239803.718303942121565 ], [ 480147.102721837465651, 5239843.755673279985785 ] ] ] } },
{ "type": "Feature", "properties": { "name": "MarketGarden 50" }, "geometry": { "type": "Polygon", "coordinates": [ [ [ 480148.253277477459051, 5239842.409370481967926 ], [ 480149.056735567282885, 5239841.425828362815082 ], [ 480100.007459076470695, 5239801.357348052784801 ], [ 480099.204000986705068, 5239802.340890168212354 ], [ 480148.253277477459051, 5239842.409370481967926 ] ] ] } },
{ "type": "Feature", "properties": { "name": "MarketGarden 51" }, "geometry": { "type": "Polygon", "coordinates": [ [ [ 480149.403833117801696, 5239841.063067681156099 ], [ 480150.207291207741946, 5239840.079525562934577 ], [ 480101.119930647953879, 5239799.979934277012944 ], [ 480100.316472558130044, 5239800.963476396165788 ], [ 480149.403833117801696, 5239841.063067681156099 ] ] ] } },
{ "type": "Feature", "properties": { "name": "MarketGarden 52" }, "geometry": { "type": "Polygon", "coordinates": [ [ [ 480150.554388757853303, 5239839.716764878481627 ], [ 480151.35784684761893, 5239838.733222761191428 ], [ 480102.232402219378855, 5239798.60252050217241 ], [ 480101.428944129671436, 5239799.586062620393932 ], [ 480150.554388757853303, 5239839.716764878481627 ] ] ] } },
{ "type": "Feature", "properties": { "name": "MarketGarden 53" }, "geometry": { "type": "Polygon", "coordinates": [ [ [ 480151.704944397381041, 5239838.370462080463767 ], [ 480152.508402487030253, 5239837.386919962242246 ], [ 480103.344873790279962, 5239797.225106729194522 ], [ 480102.541415700572543, 5239798.208648845553398 ], [ 480151.704944397381041, 5239838.370462080463767 ] ] ] } },
{ "type": "Feature", "properties": { "name": "MarketGarden 54" }, "geometry": { "type": "Polygon", "coordinates": [ [ [ 480152.855500037258025, 5239837.024159281514585 ], [ 480153.658958126965445, 5239836.040617161430418 ], [ 480104.457345361763146, 5239795.847692958079278 ], [ 480103.653887272055726, 5239796.831235074438155 ], [ 480152.855500037258025, 5239837.024159281514585 ] ] ] } },
{ "type": "Feature", "properties": { "name": "MarketGarden 55" }, "geometry": { "type": "Polygon", "coordinates": [ [ [ 480154.006055677775294, 5239835.677856476046145 ], [ 480154.809513767424505, 5239834.694314358755946 ], [ 480105.569816933537368, 5239794.4702791813761 ], [ 480104.766358843888156, 5239795.453821296803653 ], [ 480154.006055677775294, 5239835.677856476046145 ] ] ] } },
{ "type": "Feature", "properties": { "name": "MarketGarden 56" }, "geometry": { "type": "Polygon", "coordinates": [ [ [ 480155.090205928951036, 5239834.597175228409469 ], [ 480155.893664018774871, 5239833.61363311111927 ], [ 480106.615883116261102, 5239793.358486955985427 ], [ 480105.812425026320852, 5239794.342029076069593 ], [ 480155.090205928951036, 5239834.597175228409469 ] ] ] } },
{ "type": "Feature", "properties": { "name": "MarketGarden 57" }, "geometry": { "type": "Polygon", "coordinates": [ [ [ 480156.24076156882802, 5239833.250872427597642 ], [ 480157.04421965853544, 5239832.267330310307443 ], [ 480107.728354687569663, 5239791.981073184870183 ], [ 480106.924896597862244, 5239792.964615300297737 ], [ 480156.24076156882802, 5239833.250872427597642 ] ] ] } },
{ "type": "Feature", "properties": { "name": "MarketGarden 58" }, "geometry": { "type": "Polygon", "coordinates": [ [ [ 480157.391317209170666, 5239831.904569625854492 ], [ 480158.194775298936293, 5239830.921027508564293 ], [ 480108.84082625922747, 5239790.603659407235682 ], [ 480108.037368169345427, 5239791.587201524525881 ], [ 480157.391317209170666, 5239831.904569625854492 ] ] ] } },
{ "type": "Feature", "properties": { "name": "MarketGarden 59" }, "geometry": { "type": "Polygon", "coordinates": [ [ [ 480158.541872849571519, 5239830.55826682690531 ], [ 480159.345330939162523, 5239829.574724708683789 ], [ 480109.953297830827069, 5239789.226245633326471 ], [ 480109.149839741236065, 5239790.209787751547992 ], [ 480158.541872849571519, 5239830.55826682690531 ] ] ] } },
{ "type": "Feature", "properties": { "name": "MarketGarden 60" }, "geometry": { "type": "Polygon", "coordinates": [ [ [ 480159.692428488750011, 5239829.211964027024806 ], [ 480160.495886578573845, 5239828.228421908803284 ], [ 480111.06576940161176, 5239787.848831861279905 ], [ 480110.262311311787926, 5239788.832373977638781 ], [ 480159.692428488750011, 5239829.211964027024806 ] ] ] } },
{ "type": "Feature", "properties": { "name": "MarketGarden 61" }, "geometry": { "type": "Polygon", "coordinates": [ [ [ 480160.857093876402359, 5239827.84807800129056 ], [ 480161.660551966109779, 5239826.864535884000361 ], [ 480112.552646935801022, 5239786.748161765746772 ], [ 480111.749188845860772, 5239787.731703884899616 ], [ 480160.857093876402359, 5239827.84807800129056 ] ] ] } },
{ "type": "Feature", "properties": { "name": "MarketGarden 62" }, "geometry": { "type": "Polygon", "coordinates": [ [ [ 480162.007649516977835, 5239826.501775197684765 ], [ 480162.811107606743462, 5239825.518233080394566 ], [ 480113.665118507633451, 5239785.370747988112271 ], [ 480112.86166041821707, 5239786.354290104471147 ], [ 480162.007649516977835, 5239826.501775197684765 ] ] ] } },
{ "type": "Feature", "properties": { "name": "MarketGarden 63" }, "geometry": { "type": "Polygon", "coordinates": [ [ [ 480163.158205156971235, 5239825.15547239780426 ], [ 480163.961663246562239, 5239824.171930279582739 ], [ 480114.77759007900022, 5239783.993334215134382 ], [ 480113.974131989467423, 5239784.976876332424581 ], [ 480163.158205156971235, 5239825.15547239780426 ] ] ] } },
{ "type": "Feature", "properties": { "name": "MarketGarden 64" }, "geometry": { "type": "Polygon", "coordinates": [ [ [ 480164.294651049305685, 5239823.826752823777497 ], [ 480165.098109139304142, 5239822.843210707418621 ], [ 480115.515655688068364, 5239782.33917676191777 ], [ 480114.712197598011699, 5239783.322718879207969 ], [ 480164.294651049305685, 5239823.826752823777497 ] ] ] } },
{ "type": "Feature", "properties": { "name": "MarketGarden 65" }, "geometry": { "type": "Polygon", "coordinates": [ [ [ 480165.25390763184987, 5239822.404178526252508 ], [ 480166.057365721731912, 5239821.420636408962309 ], [ 480117.55945505888667, 5239781.802568265236914 ], [ 480116.755996969121043, 5239782.786110383458436 ], [ 480165.25390763184987, 5239822.404178526252508 ] ] ] } },
{ "type": "Feature", "properties": { "name": "MarketGarden 66" }, "geometry": { "type": "Polygon", "coordinates": [ [ [ 480166.404463271959685, 5239821.057875727303326 ], [ 480167.207921361608896, 5239820.07433360721916 ], [ 480118.671926630428061, 5239780.42515449039638 ], [ 480117.868468540662434, 5239781.408696609549224 ], [ 480166.404463271959685, 5239821.057875727303326 ] ] ] } },
{ "type": "Feature", "properties": { "name": "MarketGarden 67" }, "geometry": { "type": "Polygon", "coordinates": [ [ [ 480167.555018911545631, 5239819.711572924628854 ], [ 480168.358477001369465, 5239818.7280308092013 ], [ 480119.784398201561999, 5239779.047740716487169 ], [ 480118.980940111970995, 5239780.031282833777368 ], [ 480167.555018911545631, 5239819.711572924628854 ] ] ] } },
{ "type": "Feature", "properties": { "name": "MarketGarden 68" }, "geometry": { "type": "Polygon", "coordinates": [ [ [ 480168.705574551946484, 5239818.365270126610994 ], [ 480169.509032641653903, 5239817.381728008389473 ], [ 480120.896869773219805, 5239777.670326941646636 ], [ 480120.093411683570594, 5239778.653869058936834 ], [ 480168.705574551946484, 5239818.365270126610994 ] ] ] } },
{ "type": "Feature", "properties": { "name": "MarketGarden 69" }, "geometry": { "type": "Polygon", "coordinates": [ [ [ 480169.856130192289129, 5239817.018967325799167 ], [ 480170.659588282171171, 5239816.035425208508968 ], [ 480122.009341344994027, 5239776.292913167737424 ], [ 480121.2058832552284, 5239777.276455285958946 ], [ 480169.856130192289129, 5239817.018967325799167 ] ] ] } },
{ "type": "Feature", "properties": { "name": "MarketGarden 70" }, "geometry": { "type": "Polygon", "coordinates": [ [ [ 480171.006685831816867, 5239815.67266452498734 ], [ 480171.810143921582494, 5239814.689122407697141 ], [ 480123.12181291601155, 5239774.915499394759536 ], [ 480122.318354826187715, 5239775.899041512049735 ], [ 480171.006685831816867, 5239815.67266452498734 ] ] ] } },
{ "type": "Feature", "properties": { "name": "MarketGarden 71" }, "geometry": { "type": "Polygon", "coordinates": [ [ [ 480172.157241471577436, 5239814.32636172324419 ], [ 480172.960699561110232, 5239813.342819607816637 ], [ 480124.234284486970864, 5239773.538085620850325 ], [ 480123.430826397438068, 5239774.521627737209201 ], [ 480172.157241471577436, 5239814.32636172324419 ] ] ] } },
{ "type": "Feature", "properties": { "name": "MarketGarden 72" }, "geometry": { "type": "Polygon", "coordinates": [ [ [ 480173.30779711145442, 5239812.980058923363686 ], [ 480174.11125520139467, 5239811.996516807004809 ], [ 480125.346756058570463, 5239772.160671845078468 ], [ 480124.543297968746629, 5239773.14421396329999 ], [ 480173.30779711145442, 5239812.980058923363686 ] ] ] } },
{ "type": "Feature", "properties": { "name": "MarketGarden 73" }, "geometry": { "type": "Polygon", "coordinates": [ [ [ 480174.734909192484338, 5239812.079780614934862 ], [ 480175.538367282191757, 5239811.09623849671334 ], [ 480126.480335065163672, 5239771.020605609752238 ], [ 480125.676876975339837, 5239772.004147727042437 ], [ 480174.734909192484338, 5239812.079780614934862 ] ] ] } },
{ "type": "Feature", "properties": { "name": "MarketGarden 74" }, "geometry": { "type": "Polygon", "coordinates": [ [ [ 480175.899291495501529, 5239810.698119937442243 ], [ 480176.702749585208949, 5239809.714577816426754 ], [ 480128.069899409543723, 5239769.927805558778346 ], [ 480127.26644132018555, 5239770.911347676068544 ], [ 480175.899291495501529, 5239810.698119937442243 ] ] ] } },
{ "type": "Feature", "properties": { "name": "MarketGarden 75" }, "geometry": { "type": "Polygon", "coordinates": [ [ [ 480177.277816889749374, 5239809.420197106897831 ], [ 480178.081274979631416, 5239808.436654986813664 ], [ 480128.967624496144708, 5239768.315587396733463 ], [ 480128.164166406262666, 5239769.299129514023662 ], [ 480177.277816889749374, 5239809.420197106897831 ] ] ] } },
{ "type": "Feature", "properties": { "name": "MarketGarden 76" }, "geometry": { "type": "Polygon", "coordinates": [ [ [ 480178.428842109395191, 5239808.07330912631005 ], [ 480179.23230019910261, 5239807.089767009951174 ], [ 480130.147150954406243, 5239766.9919821517542 ], [ 480129.343692864815239, 5239767.975524268113077 ], [ 480178.428842109395191, 5239808.07330912631005 ] ] ] } },
{ "type": "Feature", "properties": { "name": "MarketGarden 77" }, "geometry": { "type": "Polygon", "coordinates": [ [ [ 480179.579867329506669, 5239806.826029225252569 ], [ 480180.383325419214088, 5239805.842487108893692 ], [ 480131.326677413482685, 5239765.767984987236559 ], [ 480130.523219323891681, 5239766.751527104526758 ], [ 480179.579867329506669, 5239806.826029225252569 ] ] ] } },
{ "type": "Feature", "properties": { "name": "MarketGarden 78" }, "geometry": { "type": "Polygon", "coordinates": [ [ [ 480180.730892549268901, 5239805.445938555523753 ], [ 480181.534350638976321, 5239804.462396438233554 ], [ 480132.506203872384503, 5239764.411177051253617 ], [ 480131.702745782618877, 5239765.394719169475138 ], [ 480180.730892549268901, 5239805.445938555523753 ] ] ] } },
{ "type": "Feature", "properties": { "name": "MarketGarden 79" }, "geometry": { "type": "Polygon", "coordinates": [ [ [ 480181.881917769322172, 5239804.165455961599946 ], [ 480182.685375859087799, 5239803.18191384524107 ], [ 480133.685730331635568, 5239763.153977194800973 ], [ 480132.882272241869941, 5239764.137519312091172 ], [ 480181.881917769322172, 5239804.165455961599946 ] ] ] } },
{ "type": "Feature", "properties": { "name": "MarketGarden 80" }, "geometry": { "type": "Polygon", "coordinates": [ [ [ 480183.032942989317235, 5239802.918176063336432 ], [ 480183.836401079141069, 5239801.934633946046233 ], [ 480134.865256790420972, 5239761.929980029352009 ], [ 480134.061798700655345, 5239762.913522147573531 ], [ 480183.032942989317235, 5239802.918176063336432 ] ] ] } },
{ "type": "Feature", "properties": { "name": "MarketGarden 81" }, "geometry": { "type": "Polygon", "coordinates": [ [ [ 480184.183968209370505, 5239801.471680000424385 ], [ 480184.987426299136132, 5239800.488137884065509 ], [ 480136.044783249497414, 5239760.506766703911126 ], [ 480135.241325159557164, 5239761.490308822132647 ], [ 480184.183968209370505, 5239801.471680000424385 ] ] ] } },
{ "type": "Feature", "properties": { "name": "MarketGarden 82" }, "geometry": { "type": "Polygon", "coordinates": [ [ [ 480185.259729697136208, 5239800.143399116583169 ], [ 480186.063187786610797, 5239799.15985699929297 ], [ 480137.557748677150812, 5239759.535638841800392 ], [ 480136.754290587443393, 5239760.519180960953236 ], [ 480185.259729697136208, 5239800.143399116583169 ] ] ] } },
{ "type": "Feature", "properties": { "name": "MarketGarden 83" }, "geometry": { "type": "Polygon", "coordinates": [ [ [ 480186.290447819861583, 5239798.540942456573248 ], [ 480187.09390590962721, 5239797.557400339283049 ], [ 480138.72516528289998, 5239758.044851526618004 ], [ 480137.921707193250768, 5239759.028393643908203 ], [ 480186.290447819861583, 5239798.540942456573248 ] ] ] } },
{ "type": "Feature", "properties": { "name": "MarketGarden 84" }, "geometry": { "type": "Polygon", "coordinates": [ [ [ 480187.441473039973062, 5239797.194054478779435 ], [ 480188.244931129564065, 5239796.210512361489236 ], [ 480139.904691741860006, 5239756.721246283501387 ], [ 480139.101233652385417, 5239757.704788400791585 ], [ 480187.441473039973062, 5239797.194054478779435 ] ] ] } },
{ "type": "Feature", "properties": { "name": "MarketGarden 85" }, "geometry": { "type": "Polygon", "coordinates": [ [ [ 480188.592498259618878, 5239795.979977271519601 ], [ 480189.395956349151675, 5239794.996435154229403 ], [ 480141.084218200703617, 5239755.530451810918748 ], [ 480140.280760110879783, 5239756.51399392914027 ], [ 480188.592498259618878, 5239795.979977271519601 ] ] ] } },
{ "type": "Feature", "properties": { "name": "MarketGarden 86" }, "geometry": { "type": "Polygon", "coordinates": [ [ [ 480189.743523479613941, 5239794.633089291863143 ], [ 480190.54698156932136, 5239793.649547175504267 ], [ 480142.263744659663644, 5239754.206846568733454 ], [ 480141.46028657007264, 5239755.190388686023653 ], [ 480189.743523479613941, 5239794.633089291863143 ] ] ] } },
{ "type": "Feature", "properties": { "name": "MarketGarden 87" }, "geometry": { "type": "Polygon", "coordinates": [ [ [ 480190.894548699609004, 5239793.286201315000653 ], [ 480191.698006789316423, 5239792.302659197710454 ], [ 480143.443271118740086, 5239752.883241325616837 ], [ 480142.639813028799836, 5239753.866783443838358 ], [ 480190.894548699609004, 5239793.286201315000653 ] ] ] } },
{ "type": "Feature", "properties": { "name": "MarketGarden 88" }, "geometry": { "type": "Polygon", "coordinates": [ [ [ 480192.045573919254821, 5239791.939313335344195 ], [ 480192.849032009078655, 5239790.955771216191351 ], [ 480144.622797577118035, 5239751.559636082500219 ], [ 480143.819339487527031, 5239752.543178199790418 ], [ 480192.045573919254821, 5239791.939313335344195 ] ] ] } },
{ "type": "Feature", "properties": { "name": "MarketGarden 89" }, "geometry": { "type": "Polygon", "coordinates": [ [ [ 480193.196599139308091, 5239790.592425353825092 ], [ 480194.000057229015511, 5239789.608883237466216 ], [ 480145.802324036194477, 5239750.236030837520957 ], [ 480144.998865946603473, 5239751.219572953879833 ], [ 480193.196599139308091, 5239790.592425353825092 ] ] ] } },
{ "type": "Feature", "properties": { "name": "MarketGarden 90" }, "geometry": { "type": "Polygon", "coordinates": [ [ [ 480194.452518123900518, 5239788.811335215345025 ], [ 480195.247362705296837, 5239787.820819143205881 ], [ 480147.342751579999458, 5239749.379524148069322 ], [ 480146.547906998719554, 5239750.370040219277143 ], [ 480194.452518123900518, 5239788.811335215345025 ] ] ] } },
{ "type": "Feature", "properties": { "name": "MarketGarden 91" }, "geometry": { "type": "Polygon", "coordinates": [ [ [ 480195.563079080369789, 5239787.639588979072869 ], [ 480196.357923661649693, 5239786.64907290507108 ], [ 480146.425746044027619, 5239746.580747029744089 ], [ 480145.6309014626313, 5239747.571263100020587 ], [ 480195.563079080369789, 5239787.639588979072869 ] ] ] } },
{ "type": "Feature", "properties": { "name": "MarketGarden 92" }, "geometry": { "type": "Polygon", "coordinates": [ [ [ 480196.714003253786359, 5239786.292825799435377 ], [ 480197.50884783512447, 5239785.302309728227556 ], [ 480147.605373548751231, 5239745.257016981951892 ], [ 480146.810528967296705, 5239746.247533055022359 ], [ 480196.714003253786359, 5239786.292825799435377 ] ] ] } },
{ "type": "Feature", "properties": { "name": "MarketGarden 93" }, "geometry": { "type": "Polygon", "coordinates": [ [ [ 480197.864927428367082, 5239784.946062622591853 ], [ 480198.659772009705193, 5239783.955546549521387 ], [ 480148.785001054522581, 5239743.933286937884986 ], [ 480147.990156473068055, 5239744.92380301002413 ], [ 480197.864927428367082, 5239784.946062622591853 ] ] ] } },
{ "type": "Feature", "properties": { "name": "MarketGarden 94" }, "geometry": { "type": "Polygon", "coordinates": [ [ [ 480199.015851601434406, 5239783.599299442954361 ], [ 480199.810696182772517, 5239782.60878337174654 ], [ 480149.964628559071571, 5239742.609556889161468 ], [ 480149.169783977733459, 5239743.600072964094579 ], [ 480199.015851601434406, 5239783.599299442954361 ] ] ] } },
{ "type": "Feature", "properties": { "name": "MarketGarden 95" }, "geometry": { "type": "Polygon", "coordinates": [ [ [ 480200.166775774909183, 5239782.25253626704216 ], [ 480200.961620356305502, 5239781.262020193971694 ], [ 480151.144256063853391, 5239741.285826845094562 ], [ 480150.349411482515279, 5239742.276342918165028 ], [ 480200.166775774909183, 5239782.25253626704216 ] ] ] } },
{ "type": "Feature", "properties": { "name": "MarketGarden 96" }, "geometry": { "type": "Polygon", "coordinates": [ [ [ 480201.317699949082453, 5239780.905773089267313 ], [ 480202.112544530420564, 5239779.91525701712817 ], [ 480152.32388356939191, 5239739.962096798233688 ], [ 480151.529038988053799, 5239740.952612872235477 ], [ 480201.317699949082453, 5239780.905773089267313 ] ] ] } },
{ "type": "Feature", "properties": { "name": "MarketGarden 97" }, "geometry": { "type": "Polygon", "coordinates": [ [ [ 480202.468624122848269, 5239779.559009910561144 ], [ 480203.263468704128172, 5239778.568493837490678 ], [ 480153.503511074581183, 5239738.638366751372814 ], [ 480152.70866649330128, 5239739.628882825374603 ], [ 480202.468624122848269, 5239779.559009910561144 ] ] ] } },
{ "type": "Feature", "properties": { "name": "MarketGarden 98" }, "geometry": { "type": "Polygon", "coordinates": [ [ [ 480203.619548297137953, 5239778.21224673371762 ], [ 480204.414392878534272, 5239777.221730658784509 ], [ 480154.683138580236118, 5239737.314636706374586 ], [ 480153.888293998898007, 5239738.30515277851373 ], [ 480203.619548297137953, 5239778.21224673371762 ] ] ] } },
{ "type": "Feature", "properties": { "name": "MarketGarden 99" }, "geometry": { "type": "Polygon", "coordinates": [ [ [ 480204.770472470961977, 5239776.865483555011451 ], [ 480205.565317052183673, 5239775.87496748007834 ], [ 480155.862766085425392, 5239735.990906659513712 ], [ 480155.06792150408728, 5239736.981422731652856 ], [ 480204.770472470961977, 5239776.865483555011451 ] ] ] } },
{ "type": "Feature", "properties": { "name": "MarketGarden 100" }, "geometry": { "type": "Polygon", "coordinates": [ [ [ 480205.926590309012681, 5239775.512189986184239 ], [ 480206.721434890409, 5239774.521673913113773 ], [ 480158.539039258263074, 5239735.857469350099564 ], [ 480157.744194676924963, 5239736.847985424101353 ], [ 480205.926590309012681, 5239775.512189986184239 ] ] ] } },
{ "type": "Feature", "properties": { "name": "MarketGarden 101" }, "geometry": { "type": "Polygon", "coordinates": [ [ [ 480207.089934230491053, 5239774.149810515344143 ], [ 480207.884778811887372, 5239773.159294443204999 ], [ 480163.297635074937716, 5239737.380117759108543 ], [ 480162.502790493657812, 5239738.37063383217901 ], [ 480207.089934230491053, 5239774.149810515344143 ] ] ] } },
{ "type": "Feature", "properties": { "name": "MarketGarden 102" }, "geometry": { "type": "Polygon", "coordinates": [ [ [ 480208.286480846290942, 5239772.721025655046105 ], [ 480209.081325427629054, 5239771.730509581975639 ], [ 480168.089433586457744, 5239738.836360780522227 ], [ 480167.294589005236048, 5239739.826876852661371 ], [ 480208.286480846290942, 5239772.721025655046105 ] ] ] } },
{ "type": "Feature", "properties": { "name": "MarketGarden 103" }, "geometry": { "type": "Polygon", "coordinates": [ [ [ 480210.063190860964824, 5239771.948624106124043 ], [ 480210.858035442244727, 5239770.958108034916222 ], [ 480171.905788540781941, 5239739.700682523660362 ], [ 480171.110943959036376, 5239740.691198596730828 ], [ 480210.063190860964824, 5239771.948624106124043 ] ] ] } },
{ "type": "Feature", "properties": { "name": "MarketGarden 104" }, "geometry": { "type": "Polygon", "coordinates": [ [ [ 480211.21601957740495, 5239770.599466202780604 ], [ 480212.010864158917684, 5239769.608950127847493 ], [ 480173.634243328066077, 5239738.813438640907407 ], [ 480172.839398746902589, 5239739.803954713046551 ], [ 480211.21601957740495, 5239770.599466202780604 ] ] ] } },
{ "type": "Feature", "properties": { "name": "MarketGarden 105" }, "geometry": { "type": "Polygon", "coordinates": [ [ [ 480212.368848293379415, 5239769.25030829757452 ], [ 480213.163692874775734, 5239768.259792224504054 ], [ 480175.362698115466628, 5239737.926194760017097 ], [ 480174.567853534535971, 5239738.916710829362273 ], [ 480212.368848293379415, 5239769.25030829757452 ] ] ] } },
{ "type": "Feature", "properties": { "name": "MarketGarden 106" }, "geometry": { "type": "Polygon", "coordinates": [ [ [ 480213.521677008946426, 5239767.901150395162404 ], [ 480214.316521590109915, 5239766.91063432302326 ], [ 480177.091152902576141, 5239737.03895088005811 ], [ 480176.296308321179822, 5239738.029466954059899 ], [ 480213.521677008946426, 5239767.901150395162404 ] ] ] } },
{ "type": "Feature", "properties": { "name": "MarketGarden 107" }, "geometry": { "type": "Polygon", "coordinates": [ [ [ 480214.531316154578235, 5239766.583929860033095 ], [ 480215.471549475158099, 5239765.559127075597644 ], [ 480178.890863961947616, 5239736.204772873781621 ], [ 480178.096019381249789, 5239737.195288945920765 ], [ 480214.531316154578235, 5239766.583929860033095 ] ] ] } },
{ "type": "Feature", "properties": { "name": "MarketGarden 108" }, "geometry": { "type": "Polygon", "coordinates": [ [ [ 480215.829678275389597, 5239765.199887505732477 ], [ 480216.6245228566695, 5239764.209371433593333 ], [ 480181.223479314125143, 5239735.801626835018396 ], [ 480180.428634733194485, 5239736.792142908088863 ], [ 480215.829678275389597, 5239765.199887505732477 ] ] ] } }
]
}
