{
"type": "FeatureCollection",
"name": "Spannweid 1",
"crs": { "type": "name", "properties": { "name": "urn:ogc:def:crs:EPSG::32632" } },
"features": [
{ "type": "Feature", "properties": { "name": "Spannweid 01" }, "geometry": { "type": "Polygon", "coordinates": [ [ [ 479644.233394346258137, 5240064.103384547866881 ], [ 479645.112739547679666, 5240065.01970982644707 ], [ 479783.145874181587715, 5239932.55716906581074 ], [ 479782.266528980107978, 5239931.640843788161874 ], [ 479644.233394346258137, 5240064.103384547866881 ] ] ] } },
{ "type": "Feature", "properties": { "name": "Spannweid 02" }, "geometry": { "type": "Polygon", "coordinates": [ [ [ 479645.639734984550159, 5240065.206967663951218 ], [ 479646.519080186088104, 5240066.123292942531407 ], [ 479784.54771280818386, 5239933.6650725081563 ], [ 479783.6683676065295, 5239932.748747229576111 ], [ 479645.639734984550159, 5240065.206967663951218 ] ] ] } },
{ "type": "Feature", "properties": { "name": "Spannweid 03" }, "geometry": { "type": "Polygon", "coordinates": [ [ [ 479647.046075623598881, 5240066.310550782829523 ], [ 479647.925420825195033, 5240067.226876062341034 ], [ 479785.94955143542029, 5239934.772975949570537 ], [ 479785.07020623376593, 5239933.85665067192167 ], [ 479647.046075623598881, 5240066.310550782829523 ] ] ] } },
{ "type": "Feature", "properties": { "name": "Spannweid 04" }, "geometry": { "type": "Polygon", "coordinates": [ [ [ 479648.452416262356564, 5240067.41413389891386 ], [ 479649.331761464010924, 5240068.330459178425372 ], [ 479787.351390062074643, 5239935.880879390984774 ], [ 479786.472044860536698, 5239934.964554113335907 ], [ 479648.452416262356564, 5240067.41413389891386 ] ] ] } },
{ "type": "Feature", "properties": { "name": "Spannweid 05" }, "geometry": { "type": "Polygon", "coordinates": [ [ [ 479649.858756902161986, 5240068.517717017792165 ], [ 479650.738102103583515, 5240069.434042295441031 ], [ 479788.753228689893149, 5239936.988782833330333 ], [ 479787.873883488413412, 5239936.072457555681467 ], [ 479649.858756902161986, 5240068.517717017792165 ] ] ] } },
{ "type": "Feature", "properties": { "name": "Spannweid 06" }, "geometry": { "type": "Polygon", "coordinates": [ [ [ 479651.265097539697308, 5240069.621300133876503 ], [ 479652.14444274129346, 5240070.537625413388014 ], [ 479790.155067315674387, 5239938.096686273813248 ], [ 479789.27572211419465, 5239937.180360997095704 ], [ 479651.265097539697308, 5240069.621300133876503 ] ] ] } },
{ "type": "Feature", "properties": { "name": "Spannweid 07" }, "geometry": { "type": "Polygon", "coordinates": [ [ [ 479652.67143817897886, 5240070.72488324996084 ], [ 479653.550783380400389, 5240071.641208528541028 ], [ 479791.556905942969024, 5239939.204589716158807 ], [ 479790.67756074143108, 5239938.288264439441264 ], [ 479652.67143817897886, 5240070.72488324996084 ] ] ] } },
{ "type": "Feature", "properties": { "name": "Spannweid 08" }, "geometry": { "type": "Polygon", "coordinates": [ [ [ 479654.077778817620128, 5240071.8284663669765 ], [ 479654.957124019041657, 5240072.744791647419333 ], [ 479792.958744569798, 5239940.312493158504367 ], [ 479792.079399368376471, 5239939.396167878992856 ], [ 479654.077778817620128, 5240071.8284663669765 ] ] ] } },
{ "type": "Feature", "properties": { "name": "Spannweid 09" }, "geometry": { "type": "Polygon", "coordinates": [ [ [ 479655.484119456785265, 5240072.932049485854805 ], [ 479656.36346465832321, 5240073.848374763503671 ], [ 479794.36058319726726, 5239941.420396600849926 ], [ 479793.481237995554693, 5239940.504071322269738 ], [ 479655.484119456785265, 5240072.932049485854805 ] ] ] } },
{ "type": "Feature", "properties": { "name": "Spannweid 10" }, "geometry": { "type": "Polygon", "coordinates": [ [ [ 479656.890460094902664, 5240074.035632602870464 ], [ 479657.769805296498816, 5240074.951957881450653 ], [ 479795.762421823455952, 5239942.528300041332841 ], [ 479794.883076621976215, 5239941.61197476182133 ], [ 479656.890460094902664, 5240074.035632602870464 ] ] ] } },
{ "type": "Feature", "properties": { "name": "Spannweid 11" }, "geometry": { "type": "Polygon", "coordinates": [ [ [ 479658.296800733718555, 5240075.139215719886124 ], [ 479659.176145935198292, 5240076.05554099753499 ], [ 479797.164260450284928, 5239943.636203483678401 ], [ 479796.284915248805191, 5239942.719878205098212 ], [ 479658.296800733718555, 5240075.139215719886124 ] ] ] } },
{ "type": "Feature", "properties": { "name": "Spannweid 12" }, "geometry": { "type": "Polygon", "coordinates": [ [ [ 479659.7031413729419, 5240076.242798836901784 ], [ 479660.582486574479844, 5240077.159124115481973 ], [ 479798.566099077695981, 5239944.744106925092638 ], [ 479797.686753876099829, 5239943.827781646512449 ], [ 479659.7031413729419, 5240076.242798836901784 ] ] ] } },
{ "type": "Feature", "properties": { "name": "Spannweid 13" }, "geometry": { "type": "Polygon", "coordinates": [ [ [ 479661.109482012165245, 5240077.346381955780089 ], [ 479661.988827213761397, 5240078.262707233428955 ], [ 479799.96793770493241, 5239945.852010367438197 ], [ 479799.088592503336258, 5239944.935685088858008 ], [ 479661.109482012165245, 5240077.346381955780089 ] ] ] } },
{ "type": "Feature", "properties": { "name": "Spannweid 14" }, "geometry": { "type": "Polygon", "coordinates": [ [ [ 479662.515822651446797, 5240078.449965071864426 ], [ 479663.395167852868326, 5240079.366290351375937 ], [ 479801.369776332227048, 5239946.959913808852434 ], [ 479800.490431130747311, 5239946.043588530272245 ], [ 479662.515822651446797, 5240078.449965071864426 ] ] ] } },
{ "type": "Feature", "properties": { "name": "Spannweid 15" }, "geometry": { "type": "Polygon", "coordinates": [ [ [ 479664.072163289529271, 5240079.643548188731074 ], [ 479664.951508491009008, 5240080.559873468242586 ], [ 479802.921614958555438, 5239948.157817251048982 ], [ 479802.042269756901078, 5239947.241491972468793 ], [ 479664.072163289529271, 5240079.643548188731074 ] ] ] } },
{ "type": "Feature", "properties": { "name": "Spannweid 16" }, "geometry": { "type": "Polygon", "coordinates": [ [ [ 479665.478503928636201, 5240080.717131306417286 ], [ 479666.357849130174145, 5240081.633456585928798 ], [ 479804.323453585675452, 5239949.235720693133771 ], [ 479803.444108384137508, 5239948.319395414553583 ], [ 479665.478503928636201, 5240080.717131306417286 ] ] ] } },
{ "type": "Feature", "properties": { "name": "Spannweid 17" }, "geometry": { "type": "Polygon", "coordinates": [ [ [ 479666.884844567335676, 5240081.820714423432946 ], [ 479667.764189768815413, 5240082.737039702013135 ], [ 479805.725292212679051, 5239950.343624134548008 ], [ 479804.845947011082899, 5239949.427298855036497 ], [ 479666.884844567335676, 5240081.820714423432946 ] ] ] } },
{ "type": "Feature", "properties": { "name": "Spannweid 18" }, "geometry": { "type": "Polygon", "coordinates": [ [ [ 479668.291185206035152, 5240082.924297541379929 ], [ 479669.170530407456681, 5240083.840622818097472 ], [ 479807.127130839508027, 5239951.451527576893568 ], [ 479806.247785637911875, 5239950.535202297382057 ], [ 479668.291185206035152, 5240082.924297541379929 ] ] ] } },
{ "type": "Feature", "properties": { "name": "Spannweid 19" }, "geometry": { "type": "Polygon", "coordinates": [ [ [ 479669.697525844967458, 5240084.027880658395588 ], [ 479670.576871046388987, 5240084.944205936975777 ], [ 479808.528969466511626, 5239952.559431017376482 ], [ 479807.649624265031889, 5239951.643105739727616 ], [ 479669.697525844967458, 5240084.027880658395588 ] ] ] } },
{ "type": "Feature", "properties": { "name": "Spannweid 20" }, "geometry": { "type": "Polygon", "coordinates": [ [ [ 479671.103866484074388, 5240085.131463775411248 ], [ 479671.983211685554124, 5240086.04778905492276 ], [ 479809.930808093573432, 5239953.66733445879072 ], [ 479809.051462892035488, 5239952.751009180210531 ], [ 479671.103866484074388, 5240085.131463775411248 ] ] ] } },
{ "type": "Feature", "properties": { "name": "Spannweid 21" }, "geometry": { "type": "Polygon", "coordinates": [ [ [ 479672.51020712335594, 5240086.235046893358231 ], [ 479673.389552324893884, 5240087.151372171007097 ], [ 479811.332646721159108, 5239954.775237902067602 ], [ 479810.453301519621164, 5239953.858912623487413 ], [ 479672.51020712335594, 5240086.235046893358231 ] ] ] } },
{ "type": "Feature", "properties": { "name": "Spannweid 22" }, "geometry": { "type": "Polygon", "coordinates": [ [ [ 479673.916547761589754, 5240087.33863001037389 ], [ 479674.795892963185906, 5240088.254955288954079 ], [ 479812.734485347464215, 5239955.883141342550516 ], [ 479811.855140145984478, 5239954.966816063970327 ], [ 479673.916547761589754, 5240087.33863001037389 ] ] ] } },
{ "type": "Feature", "properties": { "name": "Spannweid 23" }, "geometry": { "type": "Polygon", "coordinates": [ [ [ 479675.322888399939984, 5240088.442213126458228 ], [ 479676.202233601477928, 5240089.358538405038416 ], [ 479814.136323973943945, 5239956.991044783964753 ], [ 479813.256978772406001, 5239956.074719505384564 ], [ 479675.322888399939984, 5240088.442213126458228 ] ] ] } },
{ "type": "Feature", "properties": { "name": "Spannweid 24" }, "geometry": { "type": "Polygon", "coordinates": [ [ [ 479676.729229039337952, 5240089.54579624440521 ], [ 479677.608574240643065, 5240090.462121522985399 ], [ 479815.538162601354998, 5239958.098948226310313 ], [ 479814.658817399758846, 5239957.182622948661447 ], [ 479676.729229039337952, 5240089.54579624440521 ] ] ] } },
{ "type": "Feature", "properties": { "name": "Spannweid 25" }, "geometry": { "type": "Polygon", "coordinates": [ [ [ 479678.135569678153843, 5240090.64937936142087 ], [ 479679.014914879633579, 5240091.565704640001059 ], [ 479816.940001228358597, 5239959.20685166772455 ], [ 479816.060656026937068, 5239958.290526389144361 ], [ 479678.135569678153843, 5240090.64937936142087 ] ] ] } },
{ "type": "Feature", "properties": { "name": "Spannweid 26" }, "geometry": { "type": "Polygon", "coordinates": [ [ [ 479679.54191031656228, 5240091.752962479367852 ], [ 479680.421255518100224, 5240092.669287757016718 ], [ 479818.341839854954742, 5239960.314755108207464 ], [ 479817.46249465335859, 5239959.398429829627275 ], [ 479679.54191031656228, 5240091.752962479367852 ] ] ] } },
{ "type": "Feature", "properties": { "name": "Spannweid 27" }, "geometry": { "type": "Polygon", "coordinates": [ [ [ 479680.948250955785625, 5240092.856545596383512 ], [ 479681.827596157381777, 5240093.772870874963701 ], [ 479819.743678482249379, 5239961.422658551484346 ], [ 479818.864333280769642, 5239960.506333271972835 ], [ 479680.948250955785625, 5240092.856545596383512 ] ] ] } },
{ "type": "Feature", "properties": { "name": "Spannweid 28" }, "geometry": { "type": "Polygon", "coordinates": [ [ [ 479682.354591594717931, 5240093.960128713399172 ], [ 479683.233936796314083, 5240094.876453991979361 ], [ 479821.145517109369393, 5239962.530561992898583 ], [ 479820.266171907889657, 5239961.614236714318395 ], [ 479682.354591594717931, 5240093.960128713399172 ] ] ] } },
{ "type": "Feature", "properties": { "name": "Spannweid 29" }, "geometry": { "type": "Polygon", "coordinates": [ [ [ 479683.760932233184576, 5240095.063711829483509 ], [ 479684.640277434664313, 5240095.98003710899502 ], [ 479822.547355735907331, 5239963.638465433381498 ], [ 479821.668010534369387, 5239962.722140156663954 ], [ 479683.760932233184576, 5240095.063711829483509 ] ] ] } },
{ "type": "Feature", "properties": { "name": "Spannweid 30" }, "geometry": { "type": "Polygon", "coordinates": [ [ [ 479685.167272871942259, 5240096.167294947430491 ], [ 479686.046618073480204, 5240097.083620225079358 ], [ 479823.949194362852722, 5239964.746368875727057 ], [ 479823.069849161314778, 5239963.830043597146869 ], [ 479685.167272871942259, 5240096.167294947430491 ] ] ] } },
{ "type": "Feature", "properties": { "name": "Spannweid 31" }, "geometry": { "type": "Polygon", "coordinates": [ [ [ 479686.573613511165604, 5240097.270878064446151 ], [ 479687.452958712645341, 5240098.187203343957663 ], [ 479825.351032990089152, 5239965.85427231900394 ], [ 479824.471687788609415, 5239964.937947039492428 ], [ 479686.573613511165604, 5240097.270878064446151 ] ] ] } },
{ "type": "Feature", "properties": { "name": "Spannweid 32" }, "geometry": { "type": "Polygon", "coordinates": [ [ [ 479687.980028037680313, 5240098.374390276148915 ], [ 479688.859373239334673, 5240099.290715555660427 ], [ 479826.752898689883295, 5239966.96214977838099 ], [ 479825.873553488403559, 5239966.045824501663446 ], [ 479687.980028037680313, 5240098.374390276148915 ] ] ] } },
{ "type": "Feature", "properties": { "name": "Spannweid 33" }, "geometry": { "type": "Polygon", "coordinates": [ [ [ 479689.386560453101993, 5240099.47778935637325 ], [ 479690.265905654756352, 5240100.394114634953439 ], [ 479828.154767350526527, 5239968.070024399086833 ], [ 479827.27542214904679, 5239967.153699120506644 ], [ 479689.386560453101993, 5240099.47778935637325 ] ] ] } },
{ "type": "Feature", "properties": { "name": "Spannweid 34" }, "geometry": { "type": "Polygon", "coordinates": [ [ [ 479690.793092867883388, 5240100.581188437528908 ], [ 479691.67243806947954, 5240101.497513716109097 ], [ 479829.556751032709144, 5239969.177788640372455 ], [ 479828.677405830938369, 5239968.261463361792266 ], [ 479690.793092867883388, 5240100.581188437528908 ] ] ] } },
{ "type": "Feature", "properties": { "name": "Spannweid 35" }, "geometry": { "type": "Polygon", "coordinates": [ [ [ 479692.199625283014029, 5240101.684587517753243 ], [ 479693.078970484668389, 5240102.600912796333432 ], [ 479830.958750207559206, 5239970.285538013093174 ], [ 479830.079405006021261, 5239969.369212733581662 ], [ 479692.199625283014029, 5240101.684587517753243 ] ] ] } },
{ "type": "Feature", "properties": { "name": "Spannweid 36" }, "geometry": { "type": "Polygon", "coordinates": [ [ [ 479693.606157698610332, 5240102.787986598908901 ], [ 479694.485502900206484, 5240103.704311875626445 ], [ 479832.3605984695605, 5239971.393432210199535 ], [ 479831.481253267964348, 5239970.477106931619346 ], [ 479693.606157698610332, 5240102.787986598908901 ] ] ] } },
{ "type": "Feature", "properties": { "name": "Spannweid 37" }, "geometry": { "type": "Polygon", "coordinates": [ [ [ 479695.012510226981249, 5240103.891558304429054 ], [ 479695.891855428460985, 5240104.807883583940566 ], [ 479833.76242199644912, 5239972.501350141130388 ], [ 479832.883076794852968, 5239971.585024863481522 ], [ 479695.012510226981249, 5240103.891558304429054 ] ] ] } },
{ "type": "Feature", "properties": { "name": "Spannweid 38" }, "geometry": { "type": "Polygon", "coordinates": [ [ [ 479696.41884920548182, 5240104.995143014937639 ], [ 479697.298194407019764, 5240105.911468294449151 ], [ 479835.164245523046702, 5239973.609268073923886 ], [ 479834.284900321508758, 5239972.692942793481052 ], [ 479696.41884920548182, 5240104.995143014937639 ] ] ] } },
{ "type": "Feature", "properties": { "name": "Spannweid 39" }, "geometry": { "type": "Polygon", "coordinates": [ [ [ 479697.825188184564468, 5240106.098727725446224 ], [ 479698.704533385985997, 5240107.01505300309509 ], [ 479836.566069050342776, 5239974.717186005786061 ], [ 479835.686723848688416, 5239973.80086072627455 ], [ 479697.825188184564468, 5240106.098727725446224 ] ] ] } },
{ "type": "Feature", "properties": { "name": "Spannweid 40" }, "geometry": { "type": "Polygon", "coordinates": [ [ [ 479699.231527163414285, 5240107.202312435023487 ], [ 479700.110872364952229, 5240108.118637714534998 ], [ 479837.967892577464227, 5239975.825103937648237 ], [ 479837.088547375926282, 5239974.908778659068048 ], [ 479699.231527163414285, 5240107.202312435023487 ] ] ] } },
{ "type": "Feature", "properties": { "name": "Spannweid 41" }, "geometry": { "type": "Polygon", "coordinates": [ [ [ 479700.63786614255514, 5240108.305897146463394 ], [ 479701.517211344093084, 5240109.222222423180938 ], [ 479839.369716104585677, 5239976.933021869510412 ], [ 479838.490370903164148, 5239976.016696590930223 ], [ 479700.63786614255514, 5240108.305897146463394 ] ] ] } },
{ "type": "Feature", "properties": { "name": "Spannweid 42" }, "geometry": { "type": "Polygon", "coordinates": [ [ [ 479702.044205120997503, 5240109.409481854178011 ], [ 479702.923550322651863, 5240110.325807134620845 ], [ 479840.771539631299675, 5239978.04093980230391 ], [ 479839.892194429703522, 5239977.124614523723722 ], [ 479702.044205120997503, 5240109.409481854178011 ] ] ] } },
{ "type": "Feature", "properties": { "name": "Spannweid 43" }, "geometry": { "type": "Polygon", "coordinates": [ [ [ 479703.450544100080151, 5240110.513066565617919 ], [ 479704.329889301559888, 5240111.429391844198108 ], [ 479842.173363158479333, 5239979.148857734166086 ], [ 479841.294017956883181, 5239978.232532455585897 ], [ 479703.450544100080151, 5240110.513066565617919 ] ] ] } },
{ "type": "Feature", "properties": { "name": "Spannweid 44" }, "geometry": { "type": "Polygon", "coordinates": [ [ [ 479704.856883079046384, 5240111.616651277057827 ], [ 479705.736228280642536, 5240112.532976554706693 ], [ 479843.575186685600784, 5239980.256775666959584 ], [ 479842.695841484121047, 5239979.340450388379395 ], [ 479704.856883079046384, 5240111.616651277057827 ] ] ] } },
{ "type": "Feature", "properties": { "name": "Spannweid 45" }, "geometry": { "type": "Polygon", "coordinates": [ [ [ 479706.263222058129031, 5240112.480235983617604 ], [ 479707.142567259666976, 5240113.396561263129115 ], [ 479844.977010212896857, 5239981.124693595804274 ], [ 479844.097665011242498, 5239980.208368318155408 ], [ 479706.263222058129031, 5240112.480235983617604 ] ] ] } },
{ "type": "Feature", "properties": { "name": "Spannweid 46" }, "geometry": { "type": "Polygon", "coordinates": [ [ [ 479707.669561036920641, 5240113.583820694126189 ], [ 479708.548906238516793, 5240114.500145972706378 ], [ 479846.378833739843685, 5239982.232611529529095 ], [ 479845.499488538305741, 5239981.316286250948906 ], [ 479707.669561036920641, 5240113.583820694126189 ] ] ] } },
{ "type": "Feature", "properties": { "name": "Spannweid 47" }, "geometry": { "type": "Polygon", "coordinates": [ [ [ 479709.075900015479419, 5240114.687405405566096 ], [ 479709.955245217075571, 5240115.60373068228364 ], [ 479847.780657266441267, 5239983.340529462322593 ], [ 479846.901312065019738, 5239982.424204182811081 ], [ 479709.075900015479419, 5240114.687405405566096 ] ] ] } },
{ "type": "Feature", "properties": { "name": "Spannweid 48" }, "geometry": { "type": "Polygon", "coordinates": [ [ [ 479710.482238994794898, 5240115.790990114212036 ], [ 479711.361584196332842, 5240116.707315392792225 ], [ 479849.182480793911964, 5239984.448447392322123 ], [ 479848.303135592315812, 5239983.532122114673257 ], [ 479710.482238994794898, 5240115.790990114212036 ] ] ] } },
{ "type": "Feature", "properties": { "name": "Spannweid 49" }, "geometry": { "type": "Polygon", "coordinates": [ [ [ 479712.008577973814681, 5240117.224574827589095 ], [ 479712.887923175410833, 5240118.140900106169283 ], [ 479850.704304321203381, 5239985.886365328915417 ], [ 479849.824959119840059, 5239984.970040050335228 ], [ 479712.008577973814681, 5240117.224574827589095 ] ] ] } },
{ "type": "Feature", "properties": { "name": "Spannweid 50" }, "geometry": { "type": "Polygon", "coordinates": [ [ [ 479713.41491695237346, 5240118.328159536235034 ], [ 479714.294262153969612, 5240119.244484815746546 ], [ 479852.106127848033793, 5239986.994283260777593 ], [ 479851.226782646263018, 5239986.077957981266081 ], [ 479713.41491695237346, 5240118.328159536235034 ] ] ] } },
{ "type": "Feature", "properties": { "name": "Spannweid 51" }, "geometry": { "type": "Polygon", "coordinates": [ [ [ 479714.821255931456108, 5240119.431744247674942 ], [ 479715.700601133110467, 5240120.348069525323808 ], [ 479853.507951374980621, 5239988.102201192639768 ], [ 479852.628606173442677, 5239987.185875914059579 ], [ 479714.821255931456108, 5240119.431744247674942 ] ] ] } },
{ "type": "Feature", "properties": { "name": "Spannweid 52" }, "geometry": { "type": "Polygon", "coordinates": [ [ [ 479716.227594910247717, 5240120.53532895911485 ], [ 479717.106940111727454, 5240121.451654236763716 ], [ 479854.909774901985656, 5239989.210119124501944 ], [ 479854.030429700564127, 5239988.293793844990432 ], [ 479716.227594910247717, 5240120.53532895911485 ] ] ] } },
{ "type": "Feature", "properties": { "name": "Spannweid 53" }, "geometry": { "type": "Polygon", "coordinates": [ [ [ 479717.633933889272157, 5240121.638913666829467 ], [ 479718.513279090926517, 5240122.555238946340978 ], [ 479856.311598429165315, 5239990.318037056364119 ], [ 479855.432253227569163, 5239989.40171177778393 ], [ 479717.633933889272157, 5240121.638913666829467 ] ] ] } },
{ "type": "Feature", "properties": { "name": "Spannweid 54" }, "geometry": { "type": "Polygon", "coordinates": [ [ [ 479718.9202728678938, 5240122.652498378418386 ], [ 479719.799618069431745, 5240123.568823656067252 ], [ 479857.593796758272219, 5239991.33559531159699 ], [ 479856.714451556676067, 5239990.419270033948123 ], [ 479718.9202728678938, 5240122.652498378418386 ] ] ] } },
{ "type": "Feature", "properties": { "name": "Spannweid 55" }, "geometry": { "type": "Polygon", "coordinates": [ [ [ 479720.326611847209278, 5240123.756083087995648 ], [ 479721.205957048689015, 5240124.672408365644515 ], [ 479858.996152557083406, 5239992.443002454936504 ], [ 479858.116807355487254, 5239991.526677175424993 ], [ 479720.326611847209278, 5240123.756083087995648 ] ] ] } },
{ "type": "Feature", "properties": { "name": "Spannweid 56" }, "geometry": { "type": "Polygon", "coordinates": [ [ [ 479721.732950826175511, 5240124.859667797572911 ], [ 479722.612296027713455, 5240125.7759930761531 ], [ 479860.398508355778176, 5239993.550409595482051 ], [ 479859.519163154123817, 5239992.634084316901863 ], [ 479721.732950826175511, 5240124.859667797572911 ] ] ] } },
{ "type": "Feature", "properties": { "name": "Spannweid 57" }, "geometry": { "type": "Polygon", "coordinates": [ [ [ 479722.793486670649145, 5240125.990115878172219 ], [ 479723.668825290689711, 5240126.910269289277494 ], [ 479862.026667288446333, 5239995.290953373536468 ], [ 479861.151328668172937, 5239994.370799962431192 ], [ 479722.793486670649145, 5240125.990115878172219 ] ] ] } },
{ "type": "Feature", "properties": { "name": "Spannweid 58" }, "geometry": { "type": "Polygon", "coordinates": [ [ [ 479724.049833969562314, 5240127.003709294833243 ], [ 479724.925172589952126, 5240127.923862705007195 ], [ 479863.279014766565524, 5239996.308351808227599 ], [ 479862.403676146292128, 5239995.388198396191001 ], [ 479724.049833969562314, 5240127.003709294833243 ] ] ] } },
{ "type": "Feature", "properties": { "name": "Spannweid 59" }, "geometry": { "type": "Polygon", "coordinates": [ [ [ 479725.456181268789805, 5240128.107302710413933 ], [ 479726.331519889063202, 5240129.027456124313176 ], [ 479864.681362244766206, 5239997.415750240907073 ], [ 479863.806023624551017, 5239996.495596828870475 ], [ 479725.456181268789805, 5240128.107302710413933 ] ] ] } },
{ "type": "Feature", "properties": { "name": "Spannweid 60" }, "geometry": { "type": "Polygon", "coordinates": [ [ [ 479726.862528567784466, 5240129.210896131582558 ], [ 479727.737867187999655, 5240130.131049543619156 ], [ 479866.083709722850472, 5239998.523148672655225 ], [ 479865.208371102577075, 5239997.602995263412595 ], [ 479726.862528567784466, 5240129.210896131582558 ] ] ] } },
{ "type": "Feature", "properties": { "name": "Spannweid 61" }, "geometry": { "type": "Polygon", "coordinates": [ [ [ 479728.268875866953749, 5240130.314489548094571 ], [ 479729.144214487285353, 5240131.234642958268523 ], [ 479867.486057201051153, 5239999.630547106266022 ], [ 479866.610718580835965, 5239998.710393694229424 ], [ 479728.268875866953749, 5240130.314489548094571 ] ] ] } },
{ "type": "Feature", "properties": { "name": "Spannweid 62" }, "geometry": { "type": "Polygon", "coordinates": [ [ [ 479729.675223166123033, 5240131.418082967400551 ], [ 479730.550561786221806, 5240132.338236378505826 ], [ 479868.888404679135419, 5240000.737945540808141 ], [ 479868.013066058920231, 5239999.817792129702866 ], [ 479729.675223166123033, 5240131.418082967400551 ] ] ] } },
{ "type": "Feature", "properties": { "name": "Spannweid 63" }, "geometry": { "type": "Polygon", "coordinates": [ [ [ 479731.081570465292316, 5240132.521676383912563 ], [ 479731.956909085565712, 5240133.441829795017838 ], [ 479870.290752157277893, 5240001.845343972556293 ], [ 479869.41541353717912, 5240000.92519056238234 ], [ 479731.081570465292316, 5240132.521676383912563 ] ] ] } },
{ "type": "Feature", "properties": { "name": "Spannweid 64" }, "geometry": { "type": "Polygon", "coordinates": [ [ [ 479732.487917764636222, 5240133.625269804149866 ], [ 479733.363256384967826, 5240134.545423215255141 ], [ 479871.693099635886028, 5240002.952742408029735 ], [ 479870.817761015612632, 5240002.032588997855783 ], [ 479732.487917764636222, 5240133.625269804149866 ] ] ] } },
{ "type": "Feature", "properties": { "name": "Spannweid 65" }, "geometry": { "type": "Polygon", "coordinates": [ [ [ 479733.894265063514467, 5240134.728863220661879 ], [ 479734.769603683613241, 5240135.649016631767154 ], [ 479873.095447113795672, 5240004.060140840709209 ], [ 479872.220108493522275, 5240003.139987430535257 ], [ 479733.894265063514467, 5240134.728863220661879 ] ] ] } },
{ "type": "Feature", "properties": { "name": "Spannweid 66" }, "geometry": { "type": "Polygon", "coordinates": [ [ [ 479735.300612362509128, 5240135.832456639967859 ], [ 479736.175950982782524, 5240136.752610050141811 ], [ 479874.497794591705315, 5240005.167539274320006 ], [ 479873.622455971722957, 5240004.247385862283409 ], [ 479735.300612362509128, 5240135.832456639967859 ] ] ] } },
{ "type": "Feature", "properties": { "name": "Spannweid 67" }, "geometry": { "type": "Polygon", "coordinates": [ [ [ 479736.706959662085865, 5240136.936050059273839 ], [ 479737.582298282242846, 5240137.856203470379114 ], [ 479875.900142070371658, 5240006.274937709793448 ], [ 479875.024803450214677, 5240005.354784297756851 ], [ 479736.706959662085865, 5240136.936050059273839 ] ] ] } },
{ "type": "Feature", "properties": { "name": "Spannweid 68" }, "geometry": { "type": "Polygon", "coordinates": [ [ [ 479738.113306961138733, 5240138.039643476717174 ], [ 479738.988645581295714, 5240138.959796886891127 ], [ 479877.302489548630547, 5240007.382336142472923 ], [ 479876.427150928182527, 5240006.462182731367648 ], [ 479738.113306961138733, 5240138.039643476717174 ] ] ] } },
{ "type": "Feature", "properties": { "name": "Spannweid 69" }, "geometry": { "type": "Polygon", "coordinates": [ [ [ 479739.51965426071547, 5240139.143236895091832 ], [ 479740.394992880988866, 5240140.063390306197107 ], [ 479878.704837027005851, 5240008.48973457608372 ], [ 479877.82949840684887, 5240007.569581164978445 ], [ 479739.51965426071547, 5240139.143236895091832 ] ] ] } },
{ "type": "Feature", "properties": { "name": "Spannweid 70" }, "geometry": { "type": "Polygon", "coordinates": [ [ [ 479740.926001559651922, 5240140.246830313466489 ], [ 479741.801340179867111, 5240141.166983723640442 ], [ 479880.107184505206533, 5240009.597133007831872 ], [ 479879.231845885107759, 5240008.676979597657919 ], [ 479740.926001559651922, 5240140.246830313466489 ] ] ] } },
{ "type": "Feature", "properties": { "name": "Spannweid 71" }, "geometry": { "type": "Polygon", "coordinates": [ [ [ 479742.33234885847196, 5240141.350423731841147 ], [ 479743.207687478745356, 5240142.270577142946422 ], [ 479881.509531982825138, 5240010.704531442373991 ], [ 479880.634193362609949, 5240009.784378031268716 ], [ 479742.33234885847196, 5240141.350423731841147 ] ] ] } },
{ "type": "Feature", "properties": { "name": "Spannweid 72" }, "geometry": { "type": "Polygon", "coordinates": [ [ [ 479743.738696158281527, 5240142.454017149284482 ], [ 479744.614034778438509, 5240143.374170560389757 ], [ 479882.911879461724311, 5240011.811929875984788 ], [ 479882.036540841450915, 5240010.89177646394819 ], [ 479743.738696158281527, 5240142.454017149284482 ] ] ] } },
{ "type": "Feature", "properties": { "name": "Spannweid 73" }, "geometry": { "type": "Polygon", "coordinates": [ [ [ 479745.455926983675454, 5240143.260573473758996 ], [ 479746.33126560394885, 5240144.180726884864271 ], [ 479884.313578903966118, 5240012.918650065548718 ], [ 479883.438240283692721, 5240011.998496654443443 ], [ 479745.455926983675454, 5240143.260573473758996 ] ] ] } },
{ "type": "Feature", "properties": { "name": "Spannweid 74" }, "geometry": { "type": "Polygon", "coordinates": [ [ [ 479753.681412548874505, 5240137.756073679775 ], [ 479754.556751169147901, 5240138.676227091811597 ], [ 479885.761836986115668, 5240013.86130232270807 ], [ 479884.886498365725856, 5240012.941148911602795 ], [ 479753.681412548874505, 5240137.756073679775 ] ] ] } },
{ "type": "Feature", "properties": { "name": "Spannweid 75" }, "geometry": { "type": "Polygon", "coordinates": [ [ [ 479755.924463790142909, 5240138.060229087248445 ], [ 479756.799802410416305, 5240138.98038249835372 ], [ 479887.162440358311869, 5240014.966875348240137 ], [ 479886.287101738154888, 5240014.046721936203539 ], [ 479755.924463790142909, 5240138.060229087248445 ] ] ] } },
{ "type": "Feature", "properties": { "name": "Spannweid 76" }, "geometry": { "type": "Polygon", "coordinates": [ [ [ 479759.531232005974744, 5240137.061406069435179 ], [ 479760.406570626189932, 5240137.981559479609132 ], [ 479888.560201068234164, 5240016.069473199546337 ], [ 479887.684862447960768, 5240015.149319789372385 ], [ 479759.531232005974744, 5240137.061406069435179 ] ] ] } },
{ "type": "Feature", "properties": { "name": "Spannweid 77" }, "geometry": { "type": "Polygon", "coordinates": [ [ [ 479763.924391826323699, 5240135.311216519214213 ], [ 479764.799730446597096, 5240136.231369929388165 ], [ 479889.956322548619937, 5240017.170355409383774 ], [ 479889.080983928346541, 5240016.250201997347176 ], [ 479763.924391826323699, 5240135.311216519214213 ] ] ] } },
{ "type": "Feature", "properties": { "name": "Spannweid 78" }, "geometry": { "type": "Polygon", "coordinates": [ [ [ 479768.317551642423496, 5240133.561026969924569 ], [ 479769.192890262696892, 5240134.481180380098522 ], [ 479891.352444027725141, 5240018.271237618289888 ], [ 479890.47710540756816, 5240017.351084207184613 ], [ 479768.317551642423496, 5240133.561026969924569 ] ] ] } },
{ "type": "Feature", "properties": { "name": "Spannweid 79" }, "geometry": { "type": "Polygon", "coordinates": [ [ [ 479772.710711460968014, 5240131.810837419703603 ], [ 479773.58605008124141, 5240132.730990830808878 ], [ 479892.748565507645253, 5240019.372119829058647 ], [ 479891.873226887430064, 5240018.451966417953372 ], [ 479772.710711460968014, 5240131.810837419703603 ] ] ] } },
{ "type": "Feature", "properties": { "name": "Spannweid 80" }, "geometry": { "type": "Polygon", "coordinates": [ [ [ 479777.223871280264575, 5240130.300647872500122 ], [ 479778.099209900479764, 5240131.220801283605397 ], [ 479894.264686987968162, 5240020.713002039119601 ], [ 479893.389348367694765, 5240019.792848628014326 ], [ 479777.223871280264575, 5240130.300647872500122 ] ] ] } },
{ "type": "Feature", "properties": { "name": "Spannweid 81" }, "geometry": { "type": "Polygon", "coordinates": [ [ [ 479781.617031097004656, 5240128.550458325073123 ], [ 479782.492369717161637, 5240129.470611736178398 ], [ 479895.660808467015158, 5240021.813884248025715 ], [ 479894.78546984679997, 5240020.89373083692044 ], [ 479781.617031097004656, 5240128.550458325073123 ] ] ] } },
{ "type": "Feature", "properties": { "name": "Spannweid 82" }, "geometry": { "type": "Polygon", "coordinates": [ [ [ 479786.010190912114922, 5240126.800268775783479 ], [ 479786.885529532388318, 5240127.720422187820077 ], [ 479897.056929946120363, 5240022.914766454137862 ], [ 479896.181591325788759, 5240021.994613043032587 ], [ 479786.010190912114922, 5240126.800268775783479 ] ] ] } },
{ "type": "Feature", "properties": { "name": "Spannweid 83" }, "geometry": { "type": "Polygon", "coordinates": [ [ [ 479790.40335073316237, 5240125.050079225562513 ], [ 479791.278689353377558, 5240125.970232634805143 ], [ 479898.453051426564343, 5240024.015648664906621 ], [ 479897.577712806349155, 5240023.095495254732668 ], [ 479790.40335073316237, 5240125.050079225562513 ] ] ] } },
{ "type": "Feature", "properties": { "name": "Spannweid 84" }, "geometry": { "type": "Polygon", "coordinates": [ [ [ 479794.796510552521795, 5240123.299889675341547 ], [ 479795.671849172795191, 5240124.220043087378144 ], [ 479899.849172906659078, 5240025.116530874744058 ], [ 479898.973834286327474, 5240024.196377463638783 ], [ 479794.796510552521795, 5240123.299889675341547 ] ] ] } },
{ "type": "Feature", "properties": { "name": "Spannweid 85" }, "geometry": { "type": "Polygon", "coordinates": [ [ [ 479799.189670370134991, 5240121.549700126051903 ], [ 479800.065008990291972, 5240122.469853539019823 ], [ 479901.245294386229943, 5240026.217413083650172 ], [ 479900.369955766189378, 5240025.297259674407542 ], [ 479799.189670370134991, 5240121.549700126051903 ] ] ] } },
{ "type": "Feature", "properties": { "name": "Spannweid 86" }, "geometry": { "type": "Polygon", "coordinates": [ [ [ 479803.582830185361672, 5240119.799510580487549 ], [ 479804.458168805576861, 5240120.719663990661502 ], [ 479902.641415864927694, 5240027.318295293487608 ], [ 479901.766077244712505, 5240026.398141882382333 ], [ 479803.582830185361672, 5240119.799510580487549 ] ] ] } },
{ "type": "Feature", "properties": { "name": "Spannweid 87" }, "geometry": { "type": "Polygon", "coordinates": [ [ [ 479807.975990004604682, 5240118.049321030266583 ], [ 479808.851328624936286, 5240118.969474441371858 ], [ 479904.037537345197052, 5240028.419177502393723 ], [ 479903.162198724865448, 5240027.499024091288447 ], [ 479807.975990004604682, 5240118.049321030266583 ] ] ] } },
{ "type": "Feature", "properties": { "name": "Spannweid 88" }, "geometry": { "type": "Polygon", "coordinates": [ [ [ 479811.958117197907995, 5240116.691857135854661 ], [ 479812.833455818123184, 5240117.612010547891259 ], [ 479905.434515620989259, 5240029.520956446416676 ], [ 479904.559177000774071, 5240028.600803034380078 ], [ 479811.958117197907995, 5240116.691857135854661 ] ] ] } },
{ "type": "Feature", "properties": { "name": "Spannweid 89" }, "geometry": { "type": "Polygon", "coordinates": [ [ [ 479815.548759429482743, 5240115.708441867493093 ], [ 479816.424098049697932, 5240116.628595278598368 ], [ 479906.832309945486486, 5240030.6235894812271 ], [ 479905.956971325387713, 5240029.703436070121825 ], [ 479815.548759429482743, 5240115.708441867493093 ] ] ] } },
{ "type": "Feature", "properties": { "name": "Spannweid 90" }, "geometry": { "type": "Polygon", "coordinates": [ [ [ 479819.139401657565031, 5240114.725026597268879 ], [ 479820.01474027778022, 5240115.645180008374155 ], [ 479908.230104268761352, 5240031.726222514174879 ], [ 479907.354765648487955, 5240030.806069102138281 ], [ 479819.139401657565031, 5240114.725026597268879 ] ] ] } },
{ "type": "Feature", "properties": { "name": "Spannweid 91" }, "geometry": { "type": "Polygon", "coordinates": [ [ [ 479822.730043889838271, 5240113.741611330769956 ], [ 479823.605382510111667, 5240114.661764741875231 ], [ 479909.627898593549617, 5240032.82885554805398 ], [ 479908.75255997327622, 5240031.908702136948705 ], [ 479822.730043889838271, 5240113.741611330769956 ] ] ] } },
{ "type": "Feature", "properties": { "name": "Spannweid 92" }, "geometry": { "type": "Polygon", "coordinates": [ [ [ 479826.320686122518964, 5240112.758196062408388 ], [ 479827.196024742734153, 5240113.67834947258234 ], [ 479911.025692918337882, 5240033.931488582864404 ], [ 479910.150354298239108, 5240033.011335171759129 ], [ 479826.320686122518964, 5240112.758196062408388 ] ] ] } },
{ "type": "Feature", "properties": { "name": "Spannweid 93" }, "geometry": { "type": "Polygon", "coordinates": [ [ [ 479829.911328354035504, 5240111.774780793115497 ], [ 479830.786666974134278, 5240112.694934203289449 ], [ 479912.423487242951524, 5240035.03412161488086 ], [ 479911.548148622678127, 5240034.113968202844262 ], [ 479829.911328354035504, 5240111.774780793115497 ] ] ] } },
{ "type": "Feature", "properties": { "name": "Spannweid 94" }, "geometry": { "type": "Polygon", "coordinates": [ [ [ 479833.501970582525246, 5240110.791365525685251 ], [ 479834.377309202798642, 5240111.711518935859203 ], [ 479913.821281566401012, 5240036.136754646897316 ], [ 479912.945942946127616, 5240035.216601236723363 ], [ 479833.501970582525246, 5240110.791365525685251 ] ] ] } },
{ "type": "Feature", "properties": { "name": "Spannweid 95" }, "geometry": { "type": "Polygon", "coordinates": [ [ [ 479837.092612814914901, 5240109.80795025639236 ], [ 479837.967951435188297, 5240110.728103667497635 ], [ 479915.219075891189277, 5240037.23938768170774 ], [ 479914.343737271032296, 5240036.319234270602465 ], [ 479837.092612814914901, 5240109.80795025639236 ] ] ] } },
{ "type": "Feature", "properties": { "name": "Spannweid 96" }, "geometry": { "type": "Polygon", "coordinates": [ [ [ 479840.683255046256818, 5240108.824534987099469 ], [ 479841.558593666472007, 5240109.744688398204744 ], [ 479916.616870215511881, 5240038.342020714655519 ], [ 479915.7415315953549, 5240037.421867304481566 ], [ 479840.683255046256818, 5240108.824534987099469 ] ] ] } },
{ "type": "Feature", "properties": { "name": "Spannweid 97" }, "geometry": { "type": "Polygon", "coordinates": [ [ [ 479844.273897277191281, 5240107.841119717806578 ], [ 479845.14923589740647, 5240108.761273129843175 ], [ 479918.014664539892692, 5240039.44465374853462 ], [ 479917.139325919619296, 5240038.524500337429345 ], [ 479844.273897277191281, 5240107.841119717806578 ] ] ] } },
{ "type": "Feature", "properties": { "name": "Spannweid 98" }, "geometry": { "type": "Polygon", "coordinates": [ [ [ 479847.864539506554138, 5240106.857704450376332 ], [ 479848.739878126711119, 5240107.777857861481607 ], [ 479919.412458863516804, 5240040.547286781482399 ], [ 479918.537120243359823, 5240039.627133371308446 ], [ 479847.864539506554138, 5240106.857704450376332 ] ] ] } },
{ "type": "Feature", "properties": { "name": "Spannweid 99" }, "geometry": { "type": "Polygon", "coordinates": [ [ [ 479851.455181737837847, 5240105.874289182014763 ], [ 479852.330520358053036, 5240106.794442594051361 ], [ 479920.810253187955823, 5240041.649919817224145 ], [ 479919.934914567682426, 5240040.729766405187547 ], [ 479851.455181737837847, 5240105.874289182014763 ] ] ] } },
{ "type": "Feature", "properties": { "name": "Spannweid 100" }, "geometry": { "type": "Polygon", "coordinates": [ [ [ 479855.045823970111087, 5240104.890873912721872 ], [ 479855.921162590268068, 5240105.81102732475847 ], [ 479922.208047512860503, 5240042.752552849240601 ], [ 479921.332708892587107, 5240041.832399438135326 ], [ 479855.045823970111087, 5240104.890873912721872 ] ] ] } },
{ "type": "Feature", "properties": { "name": "Spannweid 101" }, "geometry": { "type": "Polygon", "coordinates": [ [ [ 479858.636466202209704, 5240103.907458644360304 ], [ 479859.511804822424892, 5240104.827612057328224 ], [ 479923.60584183735773, 5240043.855185884982347 ], [ 479922.730503217142541, 5240042.935032473877072 ], [ 479858.636466202209704, 5240103.907458644360304 ] ] ] } },
{ "type": "Feature", "properties": { "name": "Spannweid 102" }, "geometry": { "type": "Polygon", "coordinates": [ [ [ 479862.227108431630768, 5240102.924043376930058 ], [ 479863.102447051904164, 5240103.844196787104011 ], [ 479925.003636161040049, 5240044.957818918861449 ], [ 479924.128297540883068, 5240044.037665505893528 ], [ 479862.227108431630768, 5240102.924043376930058 ] ] ] } },
{ "type": "Feature", "properties": { "name": "Spannweid 103" }, "geometry": { "type": "Polygon", "coordinates": [ [ [ 479865.817750663729385, 5240101.94062810856849 ], [ 479866.693089283944573, 5240102.86078151781112 ], [ 479926.401430485944729, 5240046.060451949946582 ], [ 479925.526091865671333, 5240045.14029853977263 ], [ 479865.817750663729385, 5240101.94062810856849 ] ] ] } },
{ "type": "Feature", "properties": { "name": "Spannweid 104" }, "geometry": { "type": "Polygon", "coordinates": [ [ [ 479869.408392894431017, 5240100.957212840206921 ], [ 479870.283731514704414, 5240101.877366250380874 ], [ 479927.79922481009271, 5240047.163084983825684 ], [ 479926.923886189935729, 5240046.242931573651731 ], [ 479869.408392894431017, 5240100.957212840206921 ] ] ] } },
{ "type": "Feature", "properties": { "name": "Spannweid 105" }, "geometry": { "type": "Polygon", "coordinates": [ [ [ 479872.999035127344541, 5240099.973797571845353 ], [ 479873.874373747617938, 5240100.89395098015666 ], [ 479929.197019135055598, 5240048.265718020498753 ], [ 479928.321680514840409, 5240047.345564608462155 ], [ 479872.999035127344541, 5240099.973797571845353 ] ] ] } },
{ "type": "Feature", "properties": { "name": "Spannweid 106" }, "geometry": { "type": "Polygon", "coordinates": [ [ [ 479876.589677355543245, 5240098.990382304415107 ], [ 479877.465015975816641, 5240099.910535713657737 ], [ 479930.594813458214048, 5240049.368351050652564 ], [ 479929.719474838057067, 5240048.448197640478611 ], [ 479876.589677355543245, 5240098.990382304415107 ] ] ] } },
{ "type": "Feature", "properties": { "name": "Spannweid 107" }, "geometry": { "type": "Polygon", "coordinates": [ [ [ 479880.859564170590602, 5240097.357975450344384 ], [ 479881.734902790747583, 5240098.278128860518336 ], [ 479931.99115710350452, 5240050.469535448588431 ], [ 479931.115818483289331, 5240049.549382037483156 ], [ 479880.859564170590602, 5240097.357975450344384 ] ] ] } },
{ "type": "Feature", "properties": { "name": "Spannweid 108" }, "geometry": { "type": "Polygon", "coordinates": [ [ [ 479886.009740269160829, 5240094.884486703202128 ], [ 479886.88507888908498, 5240095.804640115238726 ], [ 479933.385614804108627, 5240051.568848064169288 ], [ 479932.510276183951646, 5240050.64869465213269 ], [ 479886.009740269160829, 5240094.884486703202128 ] ] ] } },
{ "type": "Feature", "properties": { "name": "Spannweid 109" }, "geometry": { "type": "Polygon", "coordinates": [ [ [ 479891.159916368429549, 5240092.410997956059873 ], [ 479892.035254988644738, 5240093.331151367165148 ], [ 479934.780072505120188, 5240052.668160677887499 ], [ 479933.904733884904999, 5240051.748007266782224 ], [ 479891.159916368429549, 5240092.410997956059873 ] ] ] } },
{ "type": "Feature", "properties": { "name": "Spannweid 110" }, "geometry": { "type": "Polygon", "coordinates": [ [ [ 479900.420763852307573, 5240086.014444625936449 ], [ 479901.296102472522762, 5240086.934598037041724 ], [ 479935.082479311444331, 5240054.793739644810557 ], [ 479934.20714069128735, 5240053.873586235567927 ], [ 479900.420763852307573, 5240086.014444625936449 ] ] ] } }
]
}
