{"type": "FeatureCollection", "features": [{"type": "Feature", "properties": {"name": "HausEiche 01"}, "geometry": {"type": "Polygon", "coordinates": [[[8.732511189011264, 47.31239698330577], [8.73252315064764, 47.31240500908848], [8.734262254382802, 47.311206088807765], [8.734250292752103, 47.3111980632049], [8.732511189011264, 47.31239698330577]]]}}, {"type": "Feature", "properties": {"name": "HausEiche 02"}, "geometry": {"type": "Polygon", "coordinates": [[[8.732529614530833, 47.31240695929881], [8.73254157617225, 47.31241498507959], [8.734280701185869, 47.31121604979138], [8.734268739550128, 47.311208024190435], [8.732529614530833, 47.31240695929881]]]}}, {"type": "Feature", "properties": {"name": "HausEiche 03"}, "geometry": {"type": "Polygon", "coordinates": [[[8.732548040057335, 47.31241693528889], [8.732560001703796, 47.312424961067734], [8.73429914799587, 47.31122601077203], [8.734287186355086, 47.31121798517301], [8.732548040057335, 47.31241693528889]]]}}, {"type": "Feature", "properties": {"name": "HausEiche 04"}, "geometry": {"type": "Polygon", "coordinates": [[[8.732566465590777, 47.31242691127598], [8.732578427242279, 47.312434937052906], [8.734317594812802, 47.311235971749696], [8.734305633166978, 47.311227946152606], [8.732566465590777, 47.31242691127598]]]}}, {"type": "Feature", "properties": {"name": "HausEiche 05"}, "geometry": {"type": "Polygon", "coordinates": [[[8.732584891131172, 47.31243688726012], [8.732596852787715, 47.31244491303512], [8.734336041636688, 47.31124593272439], [8.734324079985823, 47.31123790712924], [8.732584891131172, 47.31243688726012]]]}}, {"type": "Feature", "properties": {"name": "HausEiche 06"}, "geometry": {"type": "Polygon", "coordinates": [[[8.732603316678492, 47.31244686324131], [8.73261527834008, 47.312454889014376], [8.7343544884675, 47.31125589369613], [8.734342526811592, 47.3112478681029], [8.732603316678492, 47.31244686324131]]]}}, {"type": "Feature", "properties": {"name": "HausEiche 07"}, "geometry": {"type": "Polygon", "coordinates": [[[8.732621741769917, 47.31245683953856], [8.732633703436546, 47.31246486530971], [8.734372935234317, 47.311265854713774], [8.734360973573365, 47.31125782912249], [8.732621741769917, 47.31245683953856]]]}}, {"type": "Feature", "properties": {"name": "HausEiche 08"}, "geometry": {"type": "Polygon", "coordinates": [[[8.732640166384709, 47.31246681616624], [8.732652128056381, 47.312474841935455], [8.734391381958439, 47.31127581576267], [8.734379420292445, 47.311267790173304], [8.732640166384709, 47.31246681616624]]]}}, {"type": "Feature", "properties": {"name": "HausEiche 09"}, "geometry": {"type": "Polygon", "coordinates": [[[8.732658591006434, 47.31247679279094], [8.732670552683148, 47.31248481855823], [8.734409828689492, 47.3112857768086], [8.734397867018455, 47.31127775122116], [8.732658591006434, 47.31247679279094]]]}}, {"type": "Feature", "properties": {"name": "HausEiche 10"}, "geometry": {"type": "Polygon", "coordinates": [[[8.732677015635115, 47.31248676941267], [8.732688977316872, 47.31249479517804], [8.734428275427495, 47.31129573785155], [8.734416313751419, 47.31128771226604], [8.732677015635115, 47.31248676941267]]]}}, {"type": "Feature", "properties": {"name": "HausEiche 11"}, "geometry": {"type": "Polygon", "coordinates": [[[8.732695440270723, 47.31249674603144], [8.732707401957523, 47.31250477179488], [8.734446722172427, 47.31130569889152], [8.734434760491308, 47.31129767330795], [8.732695440270723, 47.31249674603144]]]}}, {"type": "Feature", "properties": {"name": "HausEiche 12"}, "geometry": {"type": "Polygon", "coordinates": [[[8.73271386491327, 47.312506722647235], [8.732725826605112, 47.31251474840876], [8.734465168924293, 47.31131565992852], [8.734453207238133, 47.31130763434688], [8.73271386491327, 47.312506722647235]]]}}, {"type": "Feature", "properties": {"name": "HausEiche 13"}, "geometry": {"type": "Polygon", "coordinates": [[[8.732732289562769, 47.31251669926008], [8.732744251259653, 47.31252472501967], [8.734483615683107, 47.31132562096257], [8.734471653991903, 47.31131759538285], [8.732732289562769, 47.31251669926008]]]}}, {"type": "Feature", "properties": {"name": "HausEiche 14"}, "geometry": {"type": "Polygon", "coordinates": [[[8.732750714219199, 47.31252667586996], [8.732762675921126, 47.31253470162761], [8.734502062448849, 47.311335581993625], [8.734490100752605, 47.31132755641583], [8.732750714219199, 47.31252667586996]]]}}, {"type": "Feature", "properties": {"name": "HausEiche 15"}, "geometry": {"type": "Polygon", "coordinates": [[[8.732769138882572, 47.312536652476865], [8.732781100589541, 47.312544678232584], [8.734520509221534, 47.31134554302172], [8.734508547520246, 47.311337517445864], [8.732769138882572, 47.312536652476865]]]}}, {"type": "Feature", "properties": {"name": "HausEiche 16"}, "geometry": {"type": "Polygon", "coordinates": [[[8.732787563552879, 47.3125466290808], [8.732799525264893, 47.31255465483461], [8.73453895574232, 47.31135550422527], [8.73452699403599, 47.311347478651335], [8.732787563552879, 47.3125466290808]]]}}, {"type": "Feature", "properties": {"name": "HausEiche 17"}, "geometry": {"type": "Polygon", "coordinates": [[[8.73280598823013, 47.312556605681785], [8.732817949947183, 47.31256463143365], [8.73455740208029, 47.31136546555667], [8.734545440368919, 47.31135743998467], [8.73280598823013, 47.312556605681785]]]}}, {"type": "Feature", "properties": {"name": "HausEiche 18"}, "geometry": {"type": "Polygon", "coordinates": [[[8.73282441296101, 47.312566582247605], [8.732836374683108, 47.312574607997554], [8.734575848425202, 47.3113754268851], [8.73456388670879, 47.31136740131504], [8.73282441296101, 47.312566582247605]]]}}, {"type": "Feature", "properties": {"name": "HausEiche 19"}, "geometry": {"type": "Polygon", "coordinates": [[[8.732842837711527, 47.312576558801695], [8.732854799438666, 47.31258458454972], [8.734594294777041, 47.31138538821055], [8.734582333055586, 47.31137736264242], [8.732842837711527, 47.312576558801695]]]}}, {"type": "Feature", "properties": {"name": "HausEiche 20"}, "geometry": {"type": "Polygon", "coordinates": [[[8.732861262468992, 47.312586535352835], [8.732873224201173, 47.312594561098926], [8.734612741135827, 47.31139534953304], [8.73460077940933, 47.31138732396683], [8.732861262468992, 47.312586535352835]]]}}, {"type": "Feature", "properties": {"name": "HausEiche 21"}, "geometry": {"type": "Polygon", "coordinates": [[[8.732879687233403, 47.312596511901006], [8.732891648970627, 47.31260453764517], [8.734631187501554, 47.31140531085256], [8.734619225770016, 47.31139728528827], [8.732879687233403, 47.312596511901006]]]}}, {"type": "Feature", "properties": {"name": "HausEiche 22"}, "geometry": {"type": "Polygon", "coordinates": [[[8.732898112723566, 47.312606487950674], [8.732910074465833, 47.312614513692914], [8.734649633874215, 47.31141527216911], [8.734637672137636, 47.31140724660675], [8.732898112723566, 47.312606487950674]]]}}, {"type": "Feature", "properties": {"name": "HausEiche 23"}, "geometry": {"type": "Polygon", "coordinates": [[[8.732916539730796, 47.31261646295634], [8.732928501478105, 47.312624488696656], [8.734668080253808, 47.311425233482666], [8.734656118512186, 47.31141720792224], [8.732916539730796, 47.31261646295634]]]}}, {"type": "Feature", "properties": {"name": "HausEiche 24"}, "geometry": {"type": "Polygon", "coordinates": [[[8.732934963325574, 47.312626440316265], [8.732946925077925, 47.31263446605465], [8.734686526640331, 47.311435194793255], [8.734674564893666, 47.31142716923476], [8.732934963325574, 47.312626440316265]]]}}, {"type": "Feature", "properties": {"name": "HausEiche 25"}, "geometry": {"type": "Polygon", "coordinates": [[[8.732953390174536, 47.31263641543468], [8.73296535193193, 47.31264444117114], [8.734704973033809, 47.31144515610089], [8.734693011282102, 47.31143713054433], [8.732953390174536, 47.31263641543468]]]}}, {"type": "Feature", "properties": {"name": "HausEiche 26"}, "geometry": {"type": "Polygon", "coordinates": [[[8.732971818123453, 47.3126463897966], [8.732983779885888, 47.31265441553114], [8.734723417768908, 47.31145511855361], [8.734711456012159, 47.31144709299898], [8.732971818123453, 47.3126463897966]]]}}, {"type": "Feature", "properties": {"name": "HausEiche 27"}, "geometry": {"type": "Polygon", "coordinates": [[[8.732990239879788, 47.312656368429366], [8.733002201647265, 47.312664394161985], [8.734741864414598, 47.311465079690976], [8.734729902652807, 47.31145705413827], [8.732990239879788, 47.312656368429366]]]}}, {"type": "Feature", "properties": {"name": "HausEiche 28"}, "geometry": {"type": "Polygon", "coordinates": [[[8.733008678373778, 47.31266633552547], [8.7330206401463, 47.31267436125615], [8.734760311067221, 47.311475040825364], [8.734748349300387, 47.31146701527457], [8.733008678373778, 47.31266633552547]]]}}, {"type": "Feature", "properties": {"name": "HausEiche 29"}, "geometry": {"type": "Polygon", "coordinates": [[[8.733027166439179, 47.31267626845028], [8.733039128216744, 47.312684294179014], [8.734778757726787, 47.31148500195678], [8.734766795954913, 47.311476976407924], [8.733027166439179, 47.31267626845028]]]}}, {"type": "Feature", "properties": {"name": "HausEiche 30"}, "geometry": {"type": "Polygon", "coordinates": [[[8.733045654511507, 47.31268620137209], [8.733057616294113, 47.3126942270989], [8.734797204393288, 47.31149496308522], [8.734785242616372, 47.31148693753829], [8.733045654511507, 47.31268620137209]]]}}, {"type": "Feature", "properties": {"name": "HausEiche 31"}, "geometry": {"type": "Polygon", "coordinates": [[[8.733064142590765, 47.3126961342909], [8.733076104378412, 47.312704160015784], [8.734815624071999, 47.31150494282135], [8.734803662290037, 47.31149691727636], [8.733064142590765, 47.3126961342909]]]}}, {"type": "Feature", "properties": {"name": "HausEiche 32"}, "geometry": {"type": "Polygon", "coordinates": [[[8.733082630676957, 47.31270606720675], [8.733094592469648, 47.31271409292968], [8.734834018512046, 47.311514939959324], [8.734822056725044, 47.31150691441627], [8.733082630676957, 47.31270606720675]]]}}, {"type": "Feature", "properties": {"name": "HausEiche 33"}, "geometry": {"type": "Polygon", "coordinates": [[[8.733101118770076, 47.31271600011959], [8.733113080567808, 47.31272402584061], [8.73485241295903, 47.31152493709434], [8.734840451166988, 47.31151691155319], [8.733101118770076, 47.31271600011959]]]}}, {"type": "Feature", "properties": {"name": "HausEiche 34"}, "geometry": {"type": "Polygon", "coordinates": [[[8.733119606870137, 47.31272593302946], [8.733131568672912, 47.31273395874853], [8.734870807412966, 47.31153493422639], [8.73485884561588, 47.31152690868717], [8.733119606870137, 47.31272593302946]]]}}, {"type": "Feature", "properties": {"name": "HausEiche 35"}, "geometry": {"type": "Polygon", "coordinates": [[[8.733138094977136, 47.31273586593635], [8.733150056784952, 47.31274389165349], [8.734889201873846, 47.311544931355506], [8.73487724007172, 47.31153690581821], [8.733138094977136, 47.31273586593635]]]}}, {"type": "Feature", "properties": {"name": "HausEiche 36"}, "geometry": {"type": "Polygon", "coordinates": [[[8.733156583091063, 47.31274579884023], [8.733168544903922, 47.31275382455545], [8.73490759634167, 47.31155492848165], [8.734895634534498, 47.31154690294627], [8.733156583091063, 47.31274579884023]]]}}, {"type": "Feature", "properties": {"name": "HausEiche 37"}, "geometry": {"type": "Polygon", "coordinates": [[[8.733175071211933, 47.31275573174114], [8.733187033029836, 47.31276375745441], [8.73492599081644, 47.31156492560485], [8.734914029004226, 47.3115569000714], [8.733175071211933, 47.31275573174114]]]}}, {"type": "Feature", "properties": {"name": "HausEiche 38"}, "geometry": {"type": "Polygon", "coordinates": [[[8.73319355933972, 47.31276566463906], [8.733205521162663, 47.31277369035042], [8.734944385298133, 47.311574922725086], [8.734932423480881, 47.31156689719357], [8.73319355933972, 47.31276566463906]]]}}, {"type": "Feature", "properties": {"name": "HausEiche 39"}, "geometry": {"type": "Polygon", "coordinates": [[[8.73321204747444, 47.31277559753401], [8.733224009302427, 47.31278362324342], [8.734962779786775, 47.31158491984237], [8.73495081796448, 47.31157689431276], [8.73321204747444, 47.31277559753401]]]}}, {"type": "Feature", "properties": {"name": "HausEiche 40"}, "geometry": {"type": "Polygon", "coordinates": [[[8.733230535616107, 47.312785530425955], [8.733242497449135, 47.312793556133414], [8.73498117428237, 47.31159491695668], [8.73496921245503, 47.31158689142901], [8.733230535616107, 47.312785530425955]]]}}, {"type": "Feature", "properties": {"name": "HausEiche 41"}, "geometry": {"type": "Polygon", "coordinates": [[[8.733249023764696, 47.31279546331491], [8.733260985602767, 47.312803489020446], [8.734999568784895, 47.31160491406806], [8.734987606952513, 47.3115968885423], [8.733249023764696, 47.31279546331491]]]}}, {"type": "Feature", "properties": {"name": "HausEiche 42"}, "geometry": {"type": "Polygon", "coordinates": [[[8.733267511920214, 47.312805396200886], [8.733279473763327, 47.31281342190449], [8.735017963294359, 47.31161491117647], [8.735006001456936, 47.31160688565263], [8.733267511920214, 47.312805396200886]]]}}, {"type": "Feature", "properties": {"name": "HausEiche 43"}, "geometry": {"type": "Polygon", "coordinates": [[[8.733286000082682, 47.31281532908388], [8.733297961930836, 47.31282335478556], [8.73503635781078, 47.31162490828192], [8.735024395968313, 47.31161688276002], [8.733286000082682, 47.31281532908388]]]}}, {"type": "Feature", "properties": {"name": "HausEiche 44"}, "geometry": {"type": "Polygon", "coordinates": [[[8.733304488252069, 47.31282526196388], [8.733316450105267, 47.312833287663636], [8.735054752334133, 47.31163490538442], [8.735042790486624, 47.31162687986444], [8.733304488252069, 47.31282526196388]]]}}, {"type": "Feature", "properties": {"name": "HausEiche 45"}, "geometry": {"type": "Polygon", "coordinates": [[[8.733322976428404, 47.312835194840915], [8.733334938286644, 47.31284322053872], [8.735073146864439, 47.31164490248398], [8.73506118501189, 47.31163687696591], [8.733322976428404, 47.312835194840915]]]}}, {"type": "Feature", "properties": {"name": "HausEiche 46"}, "geometry": {"type": "Polygon", "coordinates": [[[8.73334146461166, 47.31284512771495], [8.733353426474942, 47.31285315341082], [8.735091541401676, 47.31165489958055], [8.735079579544085, 47.31164687406442], [8.73334146461166, 47.31284512771495]]]}}, {"type": "Feature", "properties": {"name": "HausEiche 47"}, "geometry": {"type": "Polygon", "coordinates": [[[8.733359952801857, 47.31285506058599], [8.733371914670181, 47.31286308627994], [8.73510993594586, 47.311664896674195], [8.735097974083228, 47.311656871159975], [8.733359952801857, 47.31285506058599]]]}}, {"type": "Feature", "properties": {"name": "HausEiche 48"}, "geometry": {"type": "Polygon", "coordinates": [[[8.733378440998985, 47.31286499345407], [8.73339040287235, 47.312873019146075], [8.73512833049699, 47.311674893764874], [8.735116368629313, 47.31166686825259], [8.733378440998985, 47.31286499345407]]]}}, {"type": "Feature", "properties": {"name": "HausEiche 49"}, "geometry": {"type": "Polygon", "coordinates": [[[8.733396929203039, 47.31287492631915], [8.733408891081448, 47.312882952009204], [8.735146725055051, 47.31168489085259], [8.735134763182334, 47.31167686534222], [8.733396929203039, 47.31287492631915]]]}}, {"type": "Feature", "properties": {"name": "HausEiche 50"}, "geometry": {"type": "Polygon", "coordinates": [[[8.733415417414028, 47.31288485918122], [8.733427379297478, 47.312892884869356], [8.735165119620056, 47.31169488793736], [8.735153157742296, 47.31168686242891], [8.733415417414028, 47.31288485918122]]]}}, {"type": "Feature", "properties": {"name": "HausEiche 51"}, "geometry": {"type": "Polygon", "coordinates": [[[8.733433905631957, 47.31289479204033], [8.73344586752045, 47.31290281772654], [8.735000839731105, 47.31183082450221], [8.734988877847703, 47.31182279897679], [8.733433905631957, 47.31289479204033]]]}}, {"type": "Feature", "properties": {"name": "HausEiche 52"}, "geometry": {"type": "Polygon", "coordinates": [[[8.733452393856814, 47.312904724896455], [8.733464355750348, 47.31291275058073], [8.734712380609107, 47.31205237083636], [8.734700418719656, 47.312044345281144], [8.733452393856814, 47.312904724896455]]]}}, {"type": "Feature", "properties": {"name": "HausEiche 53"}, "geometry": {"type": "Polygon", "coordinates": [[[8.733470882088618, 47.31291465774958], [8.733482843987193, 47.31292268343193], [8.734423919074963, 47.31227391643132], [8.734411957179464, 47.3122658908463], [8.733470882088618, 47.31291465774958]]]}}, {"type": "Feature", "properties": {"name": "HausEiche 54"}, "geometry": {"type": "Polygon", "coordinates": [[[8.733489370327332, 47.31292459059973], [8.73350133223095, 47.312932616280136], [8.734135455129254, 47.312495461286595], [8.734123493227708, 47.31248743567176], [8.733489370327332, 47.31292459059973]]]}}, {"type": "Feature", "properties": {"name": "HausEiche 55"}, "geometry": {"type": "Polygon", "coordinates": [[[8.733507858573008, 47.3129345234469], [8.733519820481671, 47.31294254912537], [8.733846988771129, 47.3127170054028], [8.733835026863535, 47.31270897975815], [8.733507858573008, 47.3129345234469]]]}}, {"type": "Feature", "properties": {"name": "HausEiche 56"}, "geometry": {"type": "Polygon", "coordinates": [[[8.733526346825592, 47.31294445629106], [8.733538308739295, 47.312952481967606], [8.733558520001395, 47.312938548779265], [8.73354655808776, 47.31293052310482], [8.733526346825592, 47.31294445629106]]]}}]}