{"type": "FeatureCollection", "features": [{"type": "Feature", "properties": {"name": "SaumScheune 01"}, "geometry": {"type": "Polygon", "coordinates": [[[8.728697059370553, 47.317041225086435], [8.728710764969291, 47.31704783748985], [8.729905730391312, 47.31590238785348], [8.729892024938442, 47.31589577559194], [8.728697059370553, 47.317041225086435]]]}}, {"type": "Feature", "properties": {"name": "SaumScheune 02"}, "geometry": {"type": "Polygon", "coordinates": [[[8.728717039398706, 47.317049598700564], [8.728730745002107, 47.317056211101594], [8.729923523643706, 47.31591285725132], [8.729909818185902, 47.3159062449919], [8.728717039398706, 47.317049598700564]]]}}, {"type": "Feature", "properties": {"name": "SaumScheune 03"}, "geometry": {"type": "Polygon", "coordinates": [[[8.72873701943318, 47.31705797231121], [8.728750725041246, 47.31706458470984], [8.729941316903128, 47.3159233266464], [8.729927611440395, 47.315916714389125], [8.72873701943318, 47.31705797231121]]]}}, {"type": "Feature", "properties": {"name": "SaumScheune 04"}, "geometry": {"type": "Polygon", "coordinates": [[[8.728756999473978, 47.31706634591838], [8.728770705086706, 47.31707295831461], [8.729959110169583, 47.31593379603871], [8.729945404701919, 47.31592718378356], [8.728756999473978, 47.31706634591838]]]}}, {"type": "Feature", "properties": {"name": "SaumScheune 05"}, "geometry": {"type": "Polygon", "coordinates": [[[8.728776979521099, 47.31707471952204], [8.72879068513849, 47.3170813319159], [8.729976903443069, 47.315944265428264], [8.729963197970475, 47.31593765317523], [8.728776979521099, 47.31707471952204]]]}}, {"type": "Feature", "properties": {"name": "SaumScheune 06"}, "geometry": {"type": "Polygon", "coordinates": [[[8.728796959574542, 47.317083093122235], [8.728810665196598, 47.317089705513695], [8.729994696723587, 47.31595473481503], [8.729980991246064, 47.315948122564144], [8.728796959574542, 47.317083093122235]]]}}, {"type": "Feature", "properties": {"name": "SaumScheune 07"}, "geometry": {"type": "Polygon", "coordinates": [[[8.728816939634305, 47.31709146671896], [8.728830645261025, 47.31709807910802], [8.730012490011136, 47.315965204199046], [8.729998784528682, 47.315958591950285], [8.728816939634305, 47.31709146671896]]]}}, {"type": "Feature", "properties": {"name": "SaumScheune 08"}, "geometry": {"type": "Polygon", "coordinates": [[[8.728836919700399, 47.31709984031219], [8.728850625331784, 47.31710645269887], [8.730030283305728, 47.31597567358029], [8.730016577818345, 47.31596906133365], [8.728836919700399, 47.31709984031219]]]}}, {"type": "Feature", "properties": {"name": "SaumScheune 09"}, "geometry": {"type": "Polygon", "coordinates": [[[8.728856899772804, 47.31710821390194], [8.728870605408853, 47.317114826286236], [8.730048076607337, 47.31598614295876], [8.730034371115025, 47.31597953071426], [8.728856899772804, 47.31710821390194]]]}}, {"type": "Feature", "properties": {"name": "SaumScheune 10"}, "geometry": {"type": "Polygon", "coordinates": [[[8.728876879851537, 47.3171165874882], [8.728890585492248, 47.3171231998701], [8.730065869915984, 47.31599661233447], [8.730052164418739, 47.31599000009209], [8.728876879851537, 47.3171165874882]]]}}, {"type": "Feature", "properties": {"name": "SaumScheune 11"}, "geometry": {"type": "Polygon", "coordinates": [[[8.728896859936599, 47.317124961070974], [8.728910565581975, 47.31713157345049], [8.73008366323167, 47.31600708170741], [8.730069957729494, 47.31600046946717], [8.728896859936599, 47.317124961070974]]]}}, {"type": "Feature", "properties": {"name": "SaumScheune 12"}, "geometry": {"type": "Polygon", "coordinates": [[[8.728916840027976, 47.31713333465027], [8.728930545678015, 47.3171399470274], [8.730101456554381, 47.316017551077586], [8.730087751047275, 47.31601093883946], [8.728916840027976, 47.31713333465027]]]}}, {"type": "Feature", "properties": {"name": "SaumScheune 13"}, "geometry": {"type": "Polygon", "coordinates": [[[8.72893682012568, 47.31714170822609], [8.728950525780384, 47.31714832060083], [8.730119249884126, 47.31602802044498], [8.730105544372092, 47.31602140820901], [8.72893682012568, 47.31714170822609]]]}}, {"type": "Feature", "properties": {"name": "SaumScheune 14"}, "geometry": {"type": "Polygon", "coordinates": [[[8.728956800229694, 47.31715008179843], [8.728970505889063, 47.31715669417077], [8.730137043220893, 47.316038489809614], [8.730123337703928, 47.31603187757575], [8.728956800229694, 47.31715008179843]]]}}, {"type": "Feature", "properties": {"name": "SaumScheune 15"}, "geometry": {"type": "Polygon", "coordinates": [[[8.728976780340039, 47.317158455367284], [8.72899048600407, 47.31716506773723], [8.7301548365647, 47.31604895917149], [8.730141131042805, 47.316042346939774], [8.728976780340039, 47.317158455367284]]]}}, {"type": "Feature", "properties": {"name": "SaumScheune 16"}, "geometry": {"type": "Polygon", "coordinates": [[[8.728996760456717, 47.31716682893265], [8.729010466125413, 47.31717344130021], [8.730172629915549, 47.31605942853059], [8.730158924388721, 47.316052816301], [8.728996760456717, 47.31716682893265]]]}}, {"type": "Feature", "properties": {"name": "SaumScheune 17"}, "geometry": {"type": "Polygon", "coordinates": [[[8.729016740579702, 47.317175202494525], [8.729030446253061, 47.31718181485971], [8.730190810591349, 47.3160695266065], [8.73017710505964, 47.31606291437909], [8.729016740579702, 47.317175202494525]]]}}, {"type": "Feature", "properties": {"name": "SaumScheune 18"}, "geometry": {"type": "Polygon", "coordinates": [[[8.72903672070902, 47.31718357605294], [8.729050426387042, 47.31719018841572], [8.730211251522428, 47.3160774580195], [8.730197545986112, 47.31607084579455], [8.72903672070902, 47.31718357605294]]]}}, {"type": "Feature", "properties": {"name": "SaumScheune 19"}, "geometry": {"type": "Polygon", "coordinates": [[[8.729056700844657, 47.31719194960785], [8.729070406527342, 47.317198561968254], [8.730231692459625, 47.31608538942888], [8.730217986918703, 47.31607877720635], [8.729056700844657, 47.31719194960785]]]}}, {"type": "Feature", "properties": {"name": "SaumScheune 20"}, "geometry": {"type": "Polygon", "coordinates": [[[8.72907668098661, 47.31720032315929], [8.72909038667396, 47.317206935517305], [8.73025213340295, 47.316093320834604], [8.730238427857419, 47.31608670861452], [8.72907668098661, 47.31720032315929]]]}}, {"type": "Feature", "properties": {"name": "SaumScheune 21"}, "geometry": {"type": "Polygon", "coordinates": [[[8.729096661134902, 47.317208696707254], [8.729110366826916, 47.317215309062874], [8.730272574352416, 47.316101252236685], [8.730258868802277, 47.316094640019045], [8.729096661134902, 47.317208696707254]]]}}, {"type": "Feature", "properties": {"name": "SaumScheune 22"}, "geometry": {"type": "Polygon", "coordinates": [[[8.7291166412895, 47.31721707025172], [8.729130346986176, 47.31722368260495], [8.730293015307993, 47.31610918363512], [8.730279309753248, 47.316102571419925], [8.7291166412895, 47.31721707025172]]]}}, {"type": "Feature", "properties": {"name": "SaumScheune 23"}, "geometry": {"type": "Polygon", "coordinates": [[[8.729136621450426, 47.3172254437927], [8.729150327151768, 47.31723205614354], [8.730313456269705, 47.31611711502992], [8.730299750710353, 47.31611050281717], [8.729136621450426, 47.3172254437927]]]}}, {"type": "Feature", "properties": {"name": "SaumScheune 24"}, "geometry": {"type": "Polygon", "coordinates": [[[8.729156601617667, 47.31723381733022], [8.729170307323674, 47.317240429678684], [8.73033389723754, 47.31612504642105], [8.73032019167358, 47.31611843421076], [8.729156601617667, 47.31723381733022]]]}}, {"type": "Feature", "properties": {"name": "SaumScheune 25"}, "geometry": {"type": "Polygon", "coordinates": [[[8.729176581791245, 47.31724219086424], [8.729190287501915, 47.3172488032103], [8.730354338211512, 47.31613297780856], [8.730340632642946, 47.31612636560069], [8.729176581791245, 47.31724219086424]]]}}, {"type": "Feature", "properties": {"name": "SaumScheune 26"}, "geometry": {"type": "Polygon", "coordinates": [[[8.729196561971138, 47.31725056439479], [8.72921026768647, 47.31725717673845], [8.730374779191608, 47.31614090919241], [8.730361073618434, 47.316134296987], [8.729196561971138, 47.31725056439479]]]}}, {"type": "Feature", "properties": {"name": "SaumScheune 27"}, "geometry": {"type": "Polygon", "coordinates": [[[8.729216542157355, 47.31725893792184], [8.729230247877352, 47.317265550263116], [8.730395220177831, 47.31614884057262], [8.730381514600051, 47.31614222836966], [8.729216542157355, 47.31725893792184]]]}}, {"type": "Feature", "properties": {"name": "SaumScheune 28"}, "geometry": {"type": "Polygon", "coordinates": [[[8.729236522349899, 47.317267311445406], [8.729250228074557, 47.31727392378431], [8.730415661170188, 47.3161567719492], [8.7304019555878, 47.316150159748666], [8.729236522349899, 47.317267311445406]]]}}, {"type": "Feature", "properties": {"name": "SaumScheune 29"}, "geometry": {"type": "Polygon", "coordinates": [[[8.729256502548754, 47.31727568496551], [8.729270208278079, 47.31728229730201], [8.730436102168666, 47.31616470332212], [8.73042239658167, 47.31615809112403], [8.729256502548754, 47.31727568496551]]]}}, {"type": "Feature", "properties": {"name": "SaumScheune 30"}, "geometry": {"type": "Polygon", "coordinates": [[[8.72927648275394, 47.31728405848212], [8.72929018848793, 47.317290670816234], [8.730456949200445, 47.31617224547437], [8.73044324360889, 47.31616563327878], [8.72927648275394, 47.31728405848212]]]}}, {"type": "Feature", "properties": {"name": "SaumScheune 31"}, "geometry": {"type": "Polygon", "coordinates": [[[8.72929646296544, 47.31729243199525], [8.729310168704092, 47.317299044326965], [8.730478230618969, 47.316179371225864], [8.73046452502291, 47.3161727590328], [8.72929646296544, 47.31729243199525]]]}}, {"type": "Feature", "properties": {"name": "SaumScheune 32"}, "geometry": {"type": "Polygon", "coordinates": [[[8.729316443183274, 47.31730080550489], [8.72933014892659, 47.31730741783423], [8.730499512043238, 47.3161864969734], [8.730485806442676, 47.3161798847829], [8.729316443183274, 47.31730080550489]]]}}, {"type": "Feature", "properties": {"name": "SaumScheune 33"}, "geometry": {"type": "Polygon", "coordinates": [[[8.729336423407428, 47.31730917901106], [8.729350129155407, 47.317315791338], [8.730520793473238, 47.31619362271699], [8.730507087868169, 47.316187010529035], [8.729336423407428, 47.31730917901106]]]}}, {"type": "Feature", "properties": {"name": "SaumScheune 34"}, "geometry": {"type": "Polygon", "coordinates": [[[8.729356403637905, 47.317317552513735], [8.729370109390548, 47.3173241648383], [8.730542074908973, 47.31620074845664], [8.730528369299401, 47.31619413627122], [8.729356403637905, 47.317317552513735]]]}}, {"type": "Feature", "properties": {"name": "SaumScheune 35"}, "geometry": {"type": "Polygon", "coordinates": [[[8.7293763838747, 47.31732592601293], [8.729390089632007, 47.31733253833509], [8.73056335635044, 47.31620787419234], [8.730549650736366, 47.316201262009464], [8.7293763838747, 47.31732592601293]]]}}, {"type": "Feature", "properties": {"name": "SaumScheune 36"}, "geometry": {"type": "Polygon", "coordinates": [[[8.729396364117811, 47.31733429950865], [8.729410069879782, 47.31734091182843], [8.73058463779764, 47.31621499992407], [8.730570932179061, 47.31620838774375], [8.729396364117811, 47.31733429950865]]]}}, {"type": "Feature", "properties": {"name": "SaumScheune 37"}, "geometry": {"type": "Polygon", "coordinates": [[[8.729416344367259, 47.31734267300089], [8.729430050133894, 47.317349285318265], [8.730605919250586, 47.31622212565188], [8.7305922136275, 47.3162155134741], [8.729416344367259, 47.31734267300089]]]}}, {"type": "Feature", "properties": {"name": "SaumScheune 38"}, "geometry": {"type": "Polygon", "coordinates": [[[8.729436324623029, 47.31735104648964], [8.729450030394329, 47.31735765880463], [8.730627200709266, 47.316229251375724], [8.730613495081677, 47.31622263920049], [8.729436324623029, 47.31735104648964]]]}}, {"type": "Feature", "properties": {"name": "SaumScheune 39"}, "geometry": {"type": "Polygon", "coordinates": [[[8.729456304885106, 47.31735941997489], [8.72947001066107, 47.3173660322875], [8.730648482173665, 47.31623637709563], [8.73063477654157, 47.31622976492292], [8.729456304885106, 47.31735941997489]]]}}, {"type": "Feature", "properties": {"name": "SaumScheune 40"}, "geometry": {"type": "Polygon", "coordinates": [[[8.729476285153524, 47.317367793456675], [8.729489990934152, 47.3173744057669], [8.730669763643819, 47.31624350281158], [8.73065605800722, 47.31623689064142], [8.729476285153524, 47.317367793456675]]]}}, {"type": "Feature", "properties": {"name": "SaumScheune 41"}, "geometry": {"type": "Polygon", "coordinates": [[[8.729496265428253, 47.31737616693498], [8.729509971213542, 47.3173827792428], [8.730691045119693, 47.31625062852357], [8.73067733947859, 47.31624401635597], [8.729496265428253, 47.31737616693498]]]}}, {"type": "Feature", "properties": {"name": "SaumScheune 42"}, "geometry": {"type": "Polygon", "coordinates": [[[8.729516245709307, 47.317384540409805], [8.729529951499261, 47.31739115271523], [8.730712326601308, 47.31625775423163], [8.730698620955701, 47.31625114206656], [8.729516245709307, 47.317384540409805]]]}}, {"type": "Feature", "properties": {"name": "SaumScheune 43"}, "geometry": {"type": "Polygon", "coordinates": [[[8.729536225996682, 47.317392913881136], [8.7295499317913, 47.317399526184175], [8.730733608088658, 47.31626487993573], [8.730719902438546, 47.31625826777321], [8.729536225996682, 47.317392913881136]]]}}, {"type": "Feature", "properties": {"name": "SaumScheune 44"}, "geometry": {"type": "Polygon", "coordinates": [[[8.72955620629038, 47.31740128734899], [8.729569912089664, 47.31740789964964], [8.730754889581743, 47.31627200563588], [8.730741183927126, 47.316265393475895], [8.72955620629038, 47.31740128734899]]]}}, {"type": "Feature", "properties": {"name": "SaumScheune 45"}, "geometry": {"type": "Polygon", "coordinates": [[[8.729576186590405, 47.317409660813354], [8.72958989239435, 47.31741627311162], [8.730776171080562, 47.31627913133208], [8.73076246542144, 47.31627251917465], [8.729576186590405, 47.317409660813354]]]}}, {"type": "Feature", "properties": {"name": "SaumScheune 46"}, "geometry": {"type": "Polygon", "coordinates": [[[8.72959616689674, 47.31741803427424], [8.729609872705351, 47.31742464657012], [8.730797452585108, 47.31628625702434], [8.730783746921484, 47.31627964486946], [8.72959616689674, 47.31741803427424]]]}}, {"type": "Feature", "properties": {"name": "SaumScheune 47"}, "geometry": {"type": "Polygon", "coordinates": [[[8.730241008179487, 47.31682743650612], [8.730254713916477, 47.31683404872541], [8.73081873409541, 47.316293382712644], [8.730805028427278, 47.31628677056031], [8.730241008179487, 47.31682743650612]]]}}, {"type": "Feature", "properties": {"name": "SaumScheune 48"}, "geometry": {"type": "Polygon", "coordinates": [[[8.730261408803694, 47.316835406834066], [8.730275114545295, 47.31684201905093], [8.73084001561143, 47.31630050839702], [8.730826309938795, 47.31629389624721], [8.730261408803694, 47.316835406834066]]]}}, {"type": "Feature", "properties": {"name": "SaumScheune 49"}, "geometry": {"type": "Polygon", "coordinates": [[[8.730281809434045, 47.3168433771584], [8.730295515180257, 47.31684998937282], [8.730861297133186, 47.31630763407742], [8.730847591456047, 47.31630102193016], [8.730281809434045, 47.3168433771584]]]}}, {"type": "Feature", "properties": {"name": "SaumScheune 50"}, "geometry": {"type": "Polygon", "coordinates": [[[8.730302210070553, 47.316851347479094], [8.730315915821379, 47.316857959691085], [8.73088257866069, 47.31631475975388], [8.730868872979046, 47.31630814760918], [8.730302210070553, 47.316851347479094]]]}}, {"type": "Feature", "properties": {"name": "SaumScheune 51"}, "geometry": {"type": "Polygon", "coordinates": [[[8.730322610713197, 47.316859317796165], [8.730336316468636, 47.31686593000572], [8.730903860193918, 47.316321885426376], [8.730890154507767, 47.31631527328421], [8.730322610713197, 47.316859317796165]]]}}, {"type": "Feature", "properties": {"name": "SaumScheune 52"}, "geometry": {"type": "Polygon", "coordinates": [[[8.730343011361983, 47.31686728810961], [8.730356717122035, 47.31687390031672], [8.730925141732879, 47.31632901109494], [8.730911436042225, 47.31632239895532], [8.730343011361983, 47.31686728810961]]]}}, {"type": "Feature", "properties": {"name": "SaumScheune 53"}, "geometry": {"type": "Polygon", "coordinates": [[[8.730363412016926, 47.316875258419415], [8.730377117781588, 47.316881870624094], [8.73094642327758, 47.31633613675955], [8.730932717582423, 47.31632952462248], [8.730363412016926, 47.316875258419415]]]}}, {"type": "Feature", "properties": {"name": "SaumScheune 54"}, "geometry": {"type": "Polygon", "coordinates": [[[8.730383812678012, 47.316883228725615], [8.730397518447289, 47.31688984092783], [8.730967704828018, 47.31634326242021], [8.730953999128355, 47.316336650285685], [8.730383812678012, 47.316883228725615]]]}}, {"type": "Feature", "properties": {"name": "SaumScheune 55"}, "geometry": {"type": "Polygon", "coordinates": [[[8.730404213345244, 47.31689119902815], [8.730417919119132, 47.31689781122794], [8.730988986384187, 47.316350388076934], [8.73097528068002, 47.31634377594494], [8.730404213345244, 47.31689119902815]]]}}, {"type": "Feature", "properties": {"name": "SaumScheune 56"}, "geometry": {"type": "Polygon", "coordinates": [[[8.730424614018611, 47.31689916932707], [8.730438319797113, 47.31690578152442], [8.731010267946084, 47.3163575137297], [8.730996562237411, 47.316350901600245], [8.730424614018611, 47.31689916932707]]]}}, {"type": "Feature", "properties": {"name": "SaumScheune 57"}, "geometry": {"type": "Polygon", "coordinates": [[[8.730445014698141, 47.316907139622366], [8.730458720481254, 47.31691375181728], [8.731031549513729, 47.31636463937851], [8.731017843800553, 47.31635802725161], [8.730445014698141, 47.316907139622366]]]}}, {"type": "Feature", "properties": {"name": "SaumScheune 58"}, "geometry": {"type": "Polygon", "coordinates": [[[8.73046541538381, 47.31691510991402], [8.730479121171534, 47.3169217221065], [8.731052831087105, 47.316371765023376], [8.731039125369424, 47.316365152899024], [8.73046541538381, 47.31691510991402]]]}}, {"type": "Feature", "properties": {"name": "SaumScheune 59"}, "geometry": {"type": "Polygon", "coordinates": [[[8.730485816075621, 47.31692308020206], [8.73049952186796, 47.31692969239208], [8.731074112666214, 47.31637889066429], [8.731060406944028, 47.31637227854248], [8.730485816075621, 47.31692308020206]]]}}, {"type": "Feature", "properties": {"name": "SaumScheune 60"}, "geometry": {"type": "Polygon", "coordinates": [[[8.730506216773586, 47.31693105048645], [8.730519922570535, 47.31693766267404], [8.731095394251058, 47.31638601630126], [8.731081688524368, 47.316379404181994], [8.730506216773586, 47.31693105048645]]]}}, {"type": "Feature", "properties": {"name": "SaumScheune 61"}, "geometry": {"type": "Polygon", "coordinates": [[[8.73052661747769, 47.31693902076722], [8.730540323279252, 47.31694563295237], [8.731116675841635, 47.316393141934284], [8.731102970110442, 47.31638652981756], [8.73052661747769, 47.31693902076722]]]}}, {"type": "Feature", "properties": {"name": "SaumScheune 62"}, "geometry": {"type": "Polygon", "coordinates": [[[8.730547018187941, 47.31694699104437], [8.730560723994115, 47.31695360322708], [8.731137957437952, 47.31640026756336], [8.731124251702251, 47.316393655449176], [8.730547018187941, 47.31694699104437]]]}}, {"type": "Feature", "properties": {"name": "SaumScheune 63"}, "geometry": {"type": "Polygon", "coordinates": [[[8.730567418904347, 47.31695496131788], [8.730581124715133, 47.31696157349815], [8.731159239040005, 47.31640739318848], [8.731145533299802, 47.31640078107684], [8.730567418904347, 47.31695496131788]]]}}, {"type": "Feature", "properties": {"name": "SaumScheune 64"}, "geometry": {"type": "Polygon", "coordinates": [[[8.73058781962689, 47.31696293158775], [8.730601525442289, 47.31696954376559], [8.731180520647788, 47.31641451880966], [8.731166814903082, 47.31640790670055], [8.73058781962689, 47.31696293158775]]]}}, {"type": "Feature", "properties": {"name": "SaumScheune 65"}, "geometry": {"type": "Polygon", "coordinates": [[[8.730608220355586, 47.316970901854006], [8.730621926175596, 47.316977514029396], [8.731201802261312, 47.31642164442686], [8.731188096512101, 47.31641503232033], [8.730608220355586, 47.316970901854006]]]}}, {"type": "Feature", "properties": {"name": "SaumScheune 66"}, "geometry": {"type": "Polygon", "coordinates": [[[8.730628621090412, 47.316978872116614], [8.730642326915035, 47.316985484289575], [8.731223083880556, 47.31642877004014], [8.73120937812684, 47.31642215793614], [8.730628621090412, 47.316978872116614]]]}}, {"type": "Feature", "properties": {"name": "SaumScheune 67"}, "geometry": {"type": "Polygon", "coordinates": [[[8.730649021831397, 47.31698684237562], [8.730662727660635, 47.31699345454612], [8.73124436550555, 47.316435895649455], [8.731230659747329, 47.31642928354801], [8.730649021831397, 47.31698684237562]]]}}, {"type": "Feature", "properties": {"name": "SaumScheune 68"}, "geometry": {"type": "Polygon", "coordinates": [[[8.730669422578533, 47.316994812630966], [8.73068312841238, 47.31700142479904], [8.731265647136278, 47.31644302125484], [8.731251941373552, 47.31643640915593], [8.730669422578533, 47.316994812630966]]]}}, {"type": "Feature", "properties": {"name": "SaumScheune 69"}, "geometry": {"type": "Polygon", "coordinates": [[[8.730689823331799, 47.3170027828827], [8.730703529170261, 47.31700939504833], [8.73128692877273, 47.31645014685626], [8.7312732230055, 47.31644353475989], [8.730689823331799, 47.3170027828827]]]}}, {"type": "Feature", "properties": {"name": "SaumScheune 70"}, "geometry": {"type": "Polygon", "coordinates": [[[8.730710224091224, 47.317010753130795], [8.730723929934296, 47.317017365293985], [8.731308210414928, 47.316457272453746], [8.731294504643191, 47.31645066035992], [8.730710224091224, 47.317010753130795]]]}}, {"type": "Feature", "properties": {"name": "SaumScheune 71"}, "geometry": {"type": "Polygon", "coordinates": [[[8.730730624856792, 47.31701872337526], [8.730744330704477, 47.31702533553602], [8.731329492062857, 47.31646439804726], [8.731315786286617, 47.316457785955976], [8.730730624856792, 47.31701872337526]]]}}, {"type": "Feature", "properties": {"name": "SaumScheune 72"}, "geometry": {"type": "Polygon", "coordinates": [[[8.73075102562851, 47.31702669361611], [8.730764731480807, 47.31703330577443], [8.731350773716528, 47.31647152363685], [8.731337067935785, 47.31646491154811], [8.73075102562851, 47.31702669361611]]]}}, {"type": "Feature", "properties": {"name": "SaumScheune 73"}, "geometry": {"type": "Polygon", "coordinates": [[[8.73070032313359, 47.31710282268981], [8.730714028999179, 47.31710943485413], [8.731372055375932, 47.31647864922248], [8.731358349590682, 47.31647203713628], [8.73070032313359, 47.31710282268981]]]}}, {"type": "Feature", "properties": {"name": "SaumScheune 74"}, "geometry": {"type": "Polygon", "coordinates": [[[8.730614127914073, 47.317212974366676], [8.730627833797291, 47.3172195865412], [8.731393337041057, 47.31648577480415], [8.731379631251306, 47.31647916272051], [8.730614127914073, 47.317212974366676]]]}}, {"type": "Feature", "properties": {"name": "SaumScheune 75"}, "geometry": {"type": "Polygon", "coordinates": [[[8.730527932335542, 47.31732312597591], [8.730541638236387, 47.31732973816066], [8.731414618711929, 47.3164929003819], [8.731400912917671, 47.31648628830078], [8.730527932335542, 47.31732312597591]]]}}, {"type": "Feature", "properties": {"name": "SaumScheune 76"}, "geometry": {"type": "Polygon", "coordinates": [[[8.730441736398047, 47.317433277517445], [8.730455442316519, 47.31743988971242], [8.73143590038853, 47.31650002595566], [8.731422194589767, 47.31649341387712], [8.730441736398047, 47.317433277517445]]]}}, {"type": "Feature", "properties": {"name": "SaumScheune 77"}, "geometry": {"type": "Polygon", "coordinates": [[[8.730355540101527, 47.31754342899138], [8.730369246037625, 47.31755004119655], [8.731457182070875, 47.31650715152551], [8.731443476267609, 47.31650053944949], [8.730355540101527, 47.31754342899138]]]}}, {"type": "Feature", "properties": {"name": "SaumScheune 78"}, "geometry": {"type": "Polygon", "coordinates": [[[8.730269343446015, 47.31765358039763], [8.73028304939974, 47.31766019261302], [8.731478463758956, 47.31651427709139], [8.731464757951183, 47.31650766501793], [8.730269343446015, 47.31765358039763]]]}}, {"type": "Feature", "properties": {"name": "SaumScheune 79"}, "geometry": {"type": "Polygon", "coordinates": [[[8.730252039389457, 47.317697693452025], [8.730265745352398, 47.31770430566946], [8.731499745452757, 47.31652140265333], [8.731486039640481, 47.316514790582396], [8.730252039389457, 47.317697693452025]]]}}, {"type": "Feature", "properties": {"name": "SaumScheune 80"}, "geometry": {"type": "Polygon", "coordinates": [[[8.730272081049804, 47.31770600819], [8.730285787017399, 47.31771262040504], [8.731521027152297, 47.31652852821129], [8.731507321335517, 47.316521916142925], [8.730272081049804, 47.31770600819]]]}}, {"type": "Feature", "properties": {"name": "SaumScheune 81"}, "geometry": {"type": "Polygon", "coordinates": [[[8.730292122716454, 47.31771432292447], [8.730305828688708, 47.31772093513711], [8.73154230885758, 47.31653565376535], [8.731528603036296, 47.3165290416995], [8.730292122716454, 47.31771432292447]]]}}, {"type": "Feature", "properties": {"name": "SaumScheune 82"}, "geometry": {"type": "Polygon", "coordinates": [[[8.730312164389396, 47.31772263765544], [8.730325870366306, 47.317729249865685], [8.73156359056859, 47.31654277931542], [8.731549884742801, 47.31653616725213], [8.730312164389396, 47.31772263765544]]]}}, {"type": "Feature", "properties": {"name": "SaumScheune 83"}, "geometry": {"type": "Polygon", "coordinates": [[[8.730332206068638, 47.31773095238291], [8.730345912050204, 47.31773756459075], [8.73158483133778, 47.316549944114755], [8.731571125507482, 47.31654333205401], [8.730332206068638, 47.31773095238291]]]}}, {"type": "Feature", "properties": {"name": "SaumScheune 84"}, "geometry": {"type": "Polygon", "coordinates": [[[8.730352247754176, 47.31773926710686], [8.730365953740398, 47.31774587931231], [8.731606041689014, 47.31655713807496], [8.731592335854204, 47.31655052601674], [8.730352247754176, 47.31773926710686]]]}}, {"type": "Feature", "properties": {"name": "SaumScheune 85"}, "geometry": {"type": "Polygon", "coordinates": [[[8.730372289446018, 47.31774758182732], [8.730385995436897, 47.31775419403038], [8.73162725204603, 47.316564332031255], [8.731613546206702, 47.31655771997556], [8.730372289446018, 47.31774758182732]]]}}, {"type": "Feature", "properties": {"name": "SaumScheune 86"}, "geometry": {"type": "Polygon", "coordinates": [[[8.730392331144149, 47.31775589654426], [8.730406037139684, 47.31776250874493], [8.7316484624088, 47.316571525983605], [8.731634756564961, 47.31656491393047], [8.730392331144149, 47.31775589654426]]]}}, {"type": "Feature", "properties": {"name": "SaumScheune 87"}, "geometry": {"type": "Polygon", "coordinates": [[[8.730412372848587, 47.317764211257725], [8.73042607884878, 47.31777082345597], [8.731669672777356, 47.31657871993206], [8.731655966929003, 47.31657210788145], [8.730412372848587, 47.317764211257725]]]}}, {"type": "Feature", "properties": {"name": "SaumScheune 88"}, "geometry": {"type": "Polygon", "coordinates": [[[8.730432414559314, 47.31777252596766], [8.730446120564162, 47.31777913816351], [8.73169088315167, 47.316585913876565], [8.731677177298804, 47.31657930182849], [8.730432414559314, 47.31777252596766]]]}}, {"type": "Feature", "properties": {"name": "SaumScheune 89"}, "geometry": {"type": "Polygon", "coordinates": [[[8.73045245627634, 47.3177808406741], [8.730466162285847, 47.317787452867556], [8.731712093531758, 47.31659310781716], [8.73169838767438, 47.316586495771624], [8.73045245627634, 47.3177808406741]]]}}, {"type": "Feature", "properties": {"name": "SaumScheune 90"}, "geometry": {"type": "Polygon", "coordinates": [[[8.730472497999672, 47.31778915537704], [8.730486204013832, 47.31779576756809], [8.73173330391762, 47.31660030175383], [8.731719598055728, 47.316593689710835], [8.730472497999672, 47.31778915537704]]]}}, {"type": "Feature", "properties": {"name": "SaumScheune 91"}, "geometry": {"type": "Polygon", "coordinates": [[[8.7304925397293, 47.317797470076464], [8.730506245748115, 47.31780408226514], [8.731754514309253, 47.31660749568658], [8.731740808442849, 47.31660088364611], [8.7304925397293, 47.317797470076464]]]}}, {"type": "Feature", "properties": {"name": "SaumScheune 92"}, "geometry": {"type": "Polygon", "coordinates": [[[8.73051258146522, 47.317805784772396], [8.730526287488694, 47.317812396958665], [8.731775724706651, 47.31661468961541], [8.731762018835733, 47.31660807757748], [8.73051258146522, 47.317805784772396]]]}}, {"type": "Feature", "properties": {"name": "SaumScheune 93"}, "geometry": {"type": "Polygon", "coordinates": [[[8.73053262320743, 47.31781409946482], [8.73054632923556, 47.31782071164869], [8.731796935109815, 47.316621883540314], [8.73178322923438, 47.3166152715049], [8.73053262320743, 47.31781409946482]]]}}, {"type": "Feature", "properties": {"name": "SaumScheune 94"}, "geometry": {"type": "Polygon", "coordinates": [[[8.730552664955956, 47.317822414153746], [8.730566370988742, 47.31782902633522], [8.731818145518762, 47.316629077461286], [8.731804439638816, 47.31662246542844], [8.730552664955956, 47.317822414153746]]]}}, {"type": "Feature", "properties": {"name": "SaumScheune 95"}, "geometry": {"type": "Polygon", "coordinates": [[[8.730572706710774, 47.317830728839155], [8.730586412748217, 47.31783734101823], [8.731839355933475, 47.31663627137836], [8.731825650049018, 47.31662965934803], [8.730572706710774, 47.317830728839155]]]}}, {"type": "Feature", "properties": {"name": "SaumScheune 96"}, "geometry": {"type": "Polygon", "coordinates": [[[8.730592748471887, 47.317839043521055], [8.730606454513985, 47.31784565569775], [8.731860566353955, 47.316643465291484], [8.731846860464984, 47.3166368532637], [8.730592748471887, 47.317839043521055]]]}}, {"type": "Feature", "properties": {"name": "SaumScheune 97"}, "geometry": {"type": "Polygon", "coordinates": [[[8.730612790239297, 47.31784735819947], [8.730626496286053, 47.317853970373754], [8.731881776780206, 47.3166506592007], [8.731868070886721, 47.316644047175444], [8.730612790239297, 47.31784735819947]]]}}, {"type": "Feature", "properties": {"name": "SaumScheune 98"}, "geometry": {"type": "Polygon", "coordinates": [[[8.730632832012999, 47.317855672874366], [8.73064653806441, 47.317862285046246], [8.731902987212223, 47.31665785310598], [8.731889281314224, 47.31665124108326], [8.730632832012999, 47.317855672874366]]]}}, {"type": "Feature", "properties": {"name": "SaumScheune 99"}, "geometry": {"type": "Polygon", "coordinates": [[[8.730652873793009, 47.31786398754577], [8.730666579849077, 47.317870599715256], [8.731924197650018, 47.31666504700734], [8.731910491747506, 47.31665843498716], [8.730652873793009, 47.31786398754577]]]}}, {"type": "Feature", "properties": {"name": "SaumScheune 100"}, "geometry": {"type": "Polygon", "coordinates": [[[8.730672915579312, 47.317872302213665], [8.730686621640038, 47.317878914380756], [8.731945408093582, 47.31667224090478], [8.731931702186557, 47.31666562888714], [8.730672915579312, 47.317872302213665]]]}}, {"type": "Feature", "properties": {"name": "SaumScheune 101"}, "geometry": {"type": "Polygon", "coordinates": [[[8.730692957371913, 47.317880616878064], [8.730706663437294, 47.31788722904275], [8.731966618542913, 47.31667943479831], [8.731952912631375, 47.3166728227832], [8.730692957371913, 47.317880616878064]]]}}, {"type": "Feature", "properties": {"name": "SaumScheune 102"}, "geometry": {"type": "Polygon", "coordinates": [[[8.730712999170818, 47.317888931538945], [8.730726705240853, 47.31789554370123], [8.73198782899802, 47.31668662868791], [8.731974123081969, 47.316680016675335], [8.730712999170818, 47.317888931538945]]]}}, {"type": "Feature", "properties": {"name": "SaumScheune 103"}, "geometry": {"type": "Polygon", "coordinates": [[[8.730733040976009, 47.31789724619632], [8.730746747050704, 47.31790385835622], [8.73200903945889, 47.316693822573576], [8.731995333538325, 47.316687210563536], [8.730733040976009, 47.31789724619632]]]}}, {"type": "Feature", "properties": {"name": "SaumScheune 104"}, "geometry": {"type": "Polygon", "coordinates": [[[8.730753082787508, 47.31790556085019], [8.730766788866857, 47.317912173007706], [8.732030249925536, 47.31670101645533], [8.732016544000459, 47.31669440444783], [8.730753082787508, 47.31790556085019]]]}}, {"type": "Feature", "properties": {"name": "SaumScheune 105"}, "geometry": {"type": "Polygon", "coordinates": [[[8.730773124605303, 47.31791387550057], [8.73078683068931, 47.31792048765567], [8.732051460397953, 47.316708210333175], [8.732037754468362, 47.316701598328194], [8.730773124605303, 47.31791387550057]]]}}, {"type": "Feature", "properties": {"name": "SaumScheune 106"}, "geometry": {"type": "Polygon", "coordinates": [[[8.730793166429388, 47.31792219014744], [8.73080687251805, 47.317928802300145], [8.73207267087613, 47.31671540420707], [8.732058964942025, 47.316708792204636], [8.730793166429388, 47.31792219014744]]]}}, {"type": "Feature", "properties": {"name": "SaumScheune 107"}, "geometry": {"type": "Polygon", "coordinates": [[[8.730813208259775, 47.317930504790795], [8.730826914353095, 47.31793711694112], [8.732088830844386, 47.31672743965767], [8.732075124905153, 47.31672082765717], [8.730813208259775, 47.317930504790795]]]}}, {"type": "Feature", "properties": {"name": "SaumScheune 108"}, "geometry": {"type": "Polygon", "coordinates": [[[8.730833250096461, 47.31793881943066], [8.730846956194437, 47.31794543157857], [8.73210480387621, 47.31673965431607], [8.732091097931821, 47.3167330423175], [8.730833250096461, 47.31793881943066]]]}}, {"type": "Feature", "properties": {"name": "SaumScheune 109"}, "geometry": {"type": "Polygon", "coordinates": [[[8.73085329193945, 47.31794713406702], [8.730866998042083, 47.31795374621254], [8.732120776915393, 47.316751868972254], [8.732107070965853, 47.31674525697557], [8.73085329193945, 47.31794713406702]]]}}, {"type": "Feature", "properties": {"name": "SaumScheune 110"}, "geometry": {"type": "Polygon", "coordinates": [[[8.730873333788736, 47.31795544869986], [8.730887039896023, 47.317962060843], [8.732136749961937, 47.316764083626175], [8.732123044007244, 47.316757471631426], [8.730873333788736, 47.31795544869986]]]}}, {"type": "Feature", "properties": {"name": "SaumScheune 111"}, "geometry": {"type": "Polygon", "coordinates": [[[8.730893375644301, 47.31796376332921], [8.730907081756246, 47.31797037546995], [8.732152723015826, 47.316776298277865], [8.73213901705598, 47.316769686285035], [8.730893375644301, 47.31796376332921]]]}}, {"type": "Feature", "properties": {"name": "SaumScheune 112"}, "geometry": {"type": "Polygon", "coordinates": [[[8.730913417506187, 47.317972077955055], [8.730927123622788, 47.31797869009338], [8.732168696077089, 47.31678851292732], [8.732154990112091, 47.316781900936405], [8.730913417506187, 47.317972077955055]]]}}, {"type": "Feature", "properties": {"name": "SaumScheune 113"}, "geometry": {"type": "Polygon", "coordinates": [[[8.730933459374361, 47.31798039257739], [8.730947165495618, 47.31798700471333], [8.732184669145706, 47.31680072757455], [8.732170963175555, 47.31679411558554], [8.730933459374361, 47.31798039257739]]]}}, {"type": "Feature", "properties": {"name": "SaumScheune 114"}, "geometry": {"type": "Polygon", "coordinates": [[[8.730953501248832, 47.31798870719622], [8.730967207374746, 47.31799531932977], [8.732200642221684, 47.31681294221954], [8.73218693624638, 47.31680633023243], [8.730953501248832, 47.31798870719622]]]}}, {"type": "Feature", "properties": {"name": "SaumScheune 115"}, "geometry": {"type": "Polygon", "coordinates": [[[8.730973543129611, 47.317997021811564], [8.730987249260181, 47.31800363394271], [8.732213356314224, 47.316828281036116], [8.73219965033337, 47.31682166905054], [8.730973543129611, 47.317997021811564]]]}}, {"type": "Feature", "properties": {"name": "SaumScheune 116"}, "geometry": {"type": "Polygon", "coordinates": [[[8.730993585016666, 47.31800533642338], [8.731007291151894, 47.31801194855213], [8.732224829313264, 47.31684480961052], [8.732211123326707, 47.31683819762634], [8.730993585016666, 47.31800533642338]]]}}, {"type": "Feature", "properties": {"name": "SaumScheune 117"}, "geometry": {"type": "Polygon", "coordinates": [[[8.731013626910038, 47.318013651031706], [8.73102733304992, 47.31802026315806], [8.73223630231945, 47.31686133818376], [8.73222259632719, 47.31685472620095], [8.731013626910038, 47.318013651031706]]]}}, {"type": "Feature", "properties": {"name": "SaumScheune 118"}, "geometry": {"type": "Polygon", "coordinates": [[[8.731033668809701, 47.31802196563653], [8.731047374954239, 47.31802857776049], [8.732247775332771, 47.31687786675582], [8.73223406933481, 47.31687125477439], [8.731033668809701, 47.31802196563653]]]}}, {"type": "Feature", "properties": {"name": "SaumScheune 119"}, "geometry": {"type": "Polygon", "coordinates": [[[8.731053710715662, 47.318030280237835], [8.731067416864857, 47.3180368923594], [8.732259248353232, 47.3168943953267], [8.732245542349569, 47.316887783346644], [8.731053710715662, 47.318030280237835]]]}}, {"type": "Feature", "properties": {"name": "SaumScheune 120"}, "geometry": {"type": "Polygon", "coordinates": [[[8.731073752627927, 47.31803859483566], [8.731087458781777, 47.318045206954814], [8.732270721380834, 47.31691092389638], [8.732257015371468, 47.316904311917725], [8.731073752627927, 47.31803859483566]]]}}, {"type": "Feature", "properties": {"name": "SaumScheune 121"}, "geometry": {"type": "Polygon", "coordinates": [[[8.731093794546481, 47.318046909429974], [8.73110750070499, 47.31805352154672], [8.732282194415571, 47.3169274524649], [8.732268488400502, 47.31692084048761], [8.731093794546481, 47.318046909429974]]]}}, {"type": "Feature", "properties": {"name": "SaumScheune 122"}, "geometry": {"type": "Polygon", "coordinates": [[[8.731113836471337, 47.31805522402077], [8.731127542634503, 47.31806183613512], [8.732293667457448, 47.31694398103223], [8.732279961436676, 47.31693736905631], [8.731113836471337, 47.31805522402077]]]}}, {"type": "Feature", "properties": {"name": "SaumScheune 123"}, "geometry": {"type": "Polygon", "coordinates": [[[8.731133878402483, 47.318063538608065], [8.731147584570305, 47.31807015072002], [8.732305140506456, 47.31696050959837], [8.732291434479984, 47.31695389762383], [8.731133878402483, 47.318063538608065]]]}}, {"type": "Feature", "properties": {"name": "SaumScheune 124"}, "geometry": {"type": "Polygon", "coordinates": [[[8.731153920339935, 47.31807185319185], [8.731167626512413, 47.31807846530142], [8.732316613562611, 47.31697703816333], [8.732302907530435, 47.31697042619019], [8.731153920339935, 47.31807185319185]]]}}, {"type": "Feature", "properties": {"name": "SaumScheune 125"}, "geometry": {"type": "Polygon", "coordinates": [[[8.731173962283684, 47.31808016777214], [8.731187668460818, 47.31808677987931], [8.732328086625902, 47.31699356672712], [8.732314380588022, 47.31698695475534], [8.731173962283684, 47.31808016777214]]]}}, {"type": "Feature", "properties": {"name": "SaumScheune 126"}, "geometry": {"type": "Polygon", "coordinates": [[[8.731194004233725, 47.318088482348934], [8.731207710415516, 47.31809509445369], [8.73233955969633, 47.31701009528972], [8.73232585365275, 47.317003483319326], [8.731194004233725, 47.318088482348934]]]}}, {"type": "Feature", "properties": {"name": "SaumScheune 127"}, "geometry": {"type": "Polygon", "coordinates": [[[8.731214046190074, 47.318096796922205], [8.731227752376522, 47.31810340902459], [8.732351032773899, 47.31702662385114], [8.732337326724616, 47.31702001188212], [8.731214046190074, 47.318096796922205]]]}}, {"type": "Feature", "properties": {"name": "SaumScheune 128"}, "geometry": {"type": "Polygon", "coordinates": [[[8.73123408815271, 47.31810511149198], [8.731247794343815, 47.318111723591976], [8.732362505858603, 47.31704315241136], [8.732348799803617, 47.31703654044372], [8.73123408815271, 47.31810511149198]]]}}, {"type": "Feature", "properties": {"name": "SaumScheune 129"}, "geometry": {"type": "Polygon", "coordinates": [[[8.731254130121654, 47.31811342605826], [8.731267836317413, 47.31812003815582], [8.732332335976938, 47.3170996012262], [8.732318629911164, 47.31709298925501], [8.731254130121654, 47.31811342605826]]]}}]}