{"type": "FeatureCollection", "features": [{"type": "Feature", "properties": {"name": "Forsthaus_Unten 28"}, "geometry": {"type": "Polygon", "coordinates": [[[8.586262669345754, 47.37446579729441], [8.58627620539922, 47.37447258262417], [8.586374784013758, 47.37438183731345], [8.586361247970716, 47.37437505199524], [8.586262669345754, 47.37446579729441]]]}}, {"type": "Feature", "properties": {"name": "Forsthaus_Unten 29"}, "geometry": {"type": "Polygon", "coordinates": [[[8.58627383830655, 47.37448233868257], [8.586287374365675, 47.37448912401102], [8.586416749095134, 47.37437002964224], [8.586403213049685, 47.374363244328975], [8.58627383830655, 47.37448233868257]]]}}, {"type": "Feature", "properties": {"name": "Forsthaus_Unten 30"}, "geometry": {"type": "Polygon", "coordinates": [[[8.5862850072743, 47.37449888006963], [8.586298543339087, 47.37450566539677], [8.58645871415786, 47.374358221955596], [8.586445178110008, 47.37435143664727], [8.5862850072743, 47.37449888006963]]]}}, {"type": "Feature", "properties": {"name": "Forsthaus_Unten 31"}, "geometry": {"type": "Polygon", "coordinates": [[[8.586296176249018, 47.37451542145559], [8.586309712319464, 47.3745222067814], [8.58650067920196, 47.3743464142535], [8.586487143151702, 47.37433962895011], [8.586296176249018, 47.37451542145559]]]}}, {"type": "Feature", "properties": {"name": "Forsthaus_Unten 32"}, "geometry": {"type": "Polygon", "coordinates": [[[8.58630734523069, 47.37453196284043], [8.586320881306797, 47.3745387481649], [8.586542644227396, 47.374334606535946], [8.586529108174735, 47.3743278212375], [8.58630734523069, 47.37453196284043]]]}}, {"type": "Feature", "properties": {"name": "Forsthaus_Unten 33"}, "geometry": {"type": "Polygon", "coordinates": [[[8.586318514219322, 47.37454850422414], [8.58633205030109, 47.374555289547295], [8.586584609234182, 47.374322798802986], [8.586571073179115, 47.37431601350946], [8.586318514219322, 47.37454850422414]]]}}, {"type": "Feature", "properties": {"name": "Forsthaus_Unten 34"}, "geometry": {"type": "Polygon", "coordinates": [[[8.586329683214908, 47.37456504560674], [8.586343219302336, 47.37457183092857], [8.586626574222299, 47.37431099105455], [8.58661303816483, 47.37430420576596], [8.586329683214908, 47.37456504560674]]]}}, {"type": "Feature", "properties": {"name": "Forsthaus_Unten 35"}, "geometry": {"type": "Polygon", "coordinates": [[[8.586340852217452, 47.374581586988235], [8.58635438831054, 47.374588372308736], [8.586668539191768, 47.37429918329069], [8.586655003131892, 47.37429239800702], [8.586340852217452, 47.374581586988235]]]}}, {"type": "Feature", "properties": {"name": "Forsthaus_Unten 36"}, "geometry": {"type": "Polygon", "coordinates": [[[8.586352021226956, 47.3745981283686], [8.586365557325706, 47.3746049136878], [8.586710504142594, 47.37428737551136], [8.586696968080314, 47.37428059023264], [8.586352021226956, 47.3745981283686]]]}}, {"type": "Feature", "properties": {"name": "Forsthaus_Unten 37"}, "geometry": {"type": "Polygon", "coordinates": [[[8.586363190243418, 47.37461466974784], [8.586376726347828, 47.37462145506572], [8.586752469074765, 47.37427556771661], [8.58673893301008, 47.374268782442805], [8.586363190243418, 47.37461466974784]]]}}, {"type": "Feature", "properties": {"name": "Forsthaus_Unten 38"}, "geometry": {"type": "Polygon", "coordinates": [[[8.58637435926684, 47.374631211126], [8.586387895376909, 47.37463799644255], [8.586794433988286, 47.37426375990641], [8.586780897921198, 47.37425697463755], [8.58637435926684, 47.374631211126]]]}}, {"type": "Feature", "properties": {"name": "Forsthaus_Unten 39"}, "geometry": {"type": "Polygon", "coordinates": [[[8.586385528297223, 47.37464775250304], [8.586399064412953, 47.37465453781827], [8.58683639888317, 47.37425195208074], [8.586822862813676, 47.37424516681682], [8.586385528297223, 47.37464775250304]]]}}, {"type": "Feature", "properties": {"name": "Forsthaus_Unten 40"}, "geometry": {"type": "Polygon", "coordinates": [[[8.586396697334559, 47.37466429387894], [8.586410233455949, 47.37467107919285], [8.586878363759379, 47.37424014423965], [8.586864827687481, 47.37423335898065], [8.586396697334559, 47.37466429387894]]]}}, {"type": "Feature", "properties": {"name": "Forsthaus_Unten 41"}, "geometry": {"type": "Polygon", "coordinates": [[[8.586407866378861, 47.37468083525375], [8.586421402505911, 47.37468762056634], [8.586920328616964, 47.37422833638311], [8.586906792542662, 47.37422155112905], [8.586407866378861, 47.37468083525375]]]}}, {"type": "Feature", "properties": {"name": "Forsthaus_Unten 42"}, "geometry": {"type": "Polygon", "coordinates": [[[8.586419035430115, 47.374697376627424], [8.586432571562828, 47.374704161938695], [8.58696229345588, 47.37421652851112], [8.586948757379172, 47.37420974326199], [8.586419035430115, 47.374697376627424]]]}}, {"type": "Feature", "properties": {"name": "Forsthaus_Unten 43"}, "geometry": {"type": "Polygon", "coordinates": [[[8.586430204488328, 47.374713918000005], [8.586443740626702, 47.37472070330995], [8.58700425827615, 47.374204720623695], [8.586990722197038, 47.374197935379506], [8.586430204488328, 47.374713918000005]]]}}, {"type": "Feature", "properties": {"name": "Forsthaus_Unten 44"}, "geometry": {"type": "Polygon", "coordinates": [[[8.5864413735535, 47.37473045937144], [8.586454909697533, 47.37473724468008], [8.587046223077756, 47.37419291272083], [8.587032686996242, 47.37418612748157], [8.5864413735535, 47.37473045937144]]]}}, {"type": "Feature", "properties": {"name": "Forsthaus_Unten 45"}, "geometry": {"type": "Polygon", "coordinates": [[[8.586452542625633, 47.37474700074179], [8.586466078775326, 47.37475378604909], [8.587088187860727, 47.37418110480249], [8.587074651776808, 47.37417431956818], [8.586452542625633, 47.37474700074179]]]}}, {"type": "Feature", "properties": {"name": "Forsthaus_Unten 46"}, "geometry": {"type": "Polygon", "coordinates": [[[8.586463711704722, 47.374763542111026], [8.586477247860076, 47.374770327417004], [8.587130152625042, 47.37416929686873], [8.587116616538717, 47.37416251163935], [8.586463711704722, 47.374763542111026]]]}}, {"type": "Feature", "properties": {"name": "Forsthaus_Unten 47"}, "geometry": {"type": "Polygon", "coordinates": [[[8.586474880790771, 47.37478008347913], [8.586488416951784, 47.37478686878379], [8.587172117370708, 47.37415748891953], [8.58715858128198, 47.37415070369507], [8.586474880790771, 47.37478008347913]]]}}, {"type": "Feature", "properties": {"name": "Forsthaus_Unten 48"}, "geometry": {"type": "Polygon", "coordinates": [[[8.586486049883776, 47.374796624846134], [8.58649958605045, 47.37480341014947], [8.587214082097711, 47.374145680954875], [8.58720054600658, 47.374138895735356], [8.586486049883776, 47.374796624846134]]]}}, {"type": "Feature", "properties": {"name": "Forsthaus_Unten 49"}, "geometry": {"type": "Polygon", "coordinates": [[[8.586497218983743, 47.374813166212014], [8.586510755156077, 47.374819951514034], [8.587256046806068, 47.374133872974774], [8.587242510712533, 47.374127087760186], [8.586497218983743, 47.374813166212014]]]}}, {"type": "Feature", "properties": {"name": "Forsthaus_Unten 50"}, "geometry": {"type": "Polygon", "coordinates": [[[8.586508388090666, 47.37482970757677], [8.586521924268663, 47.37483649287746], [8.587298011495779, 47.37412206497923], [8.587284475399839, 47.37411527976958], [8.586508388090666, 47.37482970757677]]]}}, {"type": "Feature", "properties": {"name": "Forsthaus_Unten 51"}, "geometry": {"type": "Polygon", "coordinates": [[[8.586519557204547, 47.37484624894042], [8.586533093388205, 47.374853034239806], [8.587339976166833, 47.37411025696825], [8.58732644006849, 47.374103471763526], [8.586519557204547, 47.37484624894042]]]}}, {"type": "Feature", "properties": {"name": "Forsthaus_Unten 52"}, "geometry": {"type": "Polygon", "coordinates": [[[8.586530726325385, 47.374862790302956], [8.586544262514703, 47.37486957560101], [8.587381940819224, 47.374098448941815], [8.587368404718475, 47.37409166374203], [8.586530726325385, 47.374862790302956]]]}}, {"type": "Feature", "properties": {"name": "Forsthaus_Unten 53"}, "geometry": {"type": "Polygon", "coordinates": [[[8.586541895453193, 47.374879331664395], [8.586555431648172, 47.37488611696113], [8.587423905453011, 47.37408664089993], [8.587410369349858, 47.37407985570509], [8.586541895453193, 47.374879331664395]]]}}, {"type": "Feature", "properties": {"name": "Forsthaus_Unten 54"}, "geometry": {"type": "Polygon", "coordinates": [[[8.586553064587953, 47.374895873024705], [8.58656660078859, 47.37490265832012], [8.587465870068113, 47.3740748328426], [8.587452333962556, 47.37406804765269], [8.586553064587953, 47.374895873024705]]]}}, {"type": "Feature", "properties": {"name": "Forsthaus_Unten 55"}, "geometry": {"type": "Polygon", "coordinates": [[[8.586564233729666, 47.3749124143839], [8.586577769935966, 47.37491919967798], [8.587507834664558, 47.374063024769846], [8.587494298556596, 47.37405623958487], [8.586564233729666, 47.3749124143839]]]}}, {"type": "Feature", "properties": {"name": "Forsthaus_Unten 56"}, "geometry": {"type": "Polygon", "coordinates": [[[8.586575402878342, 47.37492895574197], [8.586588939090301, 47.37493574103474], [8.587549799242355, 47.374051216681636], [8.587536263131991, 47.3740444315016], [8.586575402878342, 47.37492895574197]]]}}, {"type": "Feature", "properties": {"name": "Forsthaus_Unten 57"}, "geometry": {"type": "Polygon", "coordinates": [[[8.586586572033976, 47.374945497098935], [8.586600108251597, 47.37495228239038], [8.587591763801505, 47.37403940857798], [8.587578227688736, 47.37403262340287], [8.586586572033976, 47.374945497098935]]]}}, {"type": "Feature", "properties": {"name": "Forsthaus_Unten 58"}, "geometry": {"type": "Polygon", "coordinates": [[[8.586597741196568, 47.37496203845478], [8.586611277419848, 47.3749688237449], [8.587633728341995, 47.37402760045888], [8.58762019222682, 47.37402081528871], [8.586597741196568, 47.37496203845478]]]}}, {"type": "Feature", "properties": {"name": "Forsthaus_Unten 59"}, "geometry": {"type": "Polygon", "coordinates": [[[8.58660891036612, 47.374978579809515], [8.58662244659506, 47.37498536509833], [8.587675692863847, 47.374015792324336], [8.587662156746267, 47.374009007159096], [8.58660891036612, 47.374978579809515]]]}}, {"type": "Feature", "properties": {"name": "Forsthaus_Unten 60"}, "geometry": {"type": "Polygon", "coordinates": [[[8.586620079542627, 47.374995121163124], [8.586633615777227, 47.37500190645062], [8.587717657367024, 47.37400398417435], [8.587704121247041, 47.37399719901404], [8.586620079542627, 47.374995121163124]]]}}, {"type": "Feature", "properties": {"name": "Forsthaus_Unten 61"}, "geometry": {"type": "Polygon", "coordinates": [[[8.586631248726098, 47.37501166251564], [8.58664478496636, 47.37501844780181], [8.587759621851568, 47.37399217600892], [8.587746085729183, 47.373985390853555], [8.586631248726098, 47.37501166251564]]]}}, {"type": "Feature", "properties": {"name": "Forsthaus_Unten 62"}, "geometry": {"type": "Polygon", "coordinates": [[[8.586642417916526, 47.37502820386703], [8.586655954162449, 47.37503498915187], [8.58780158631747, 47.37398036782804], [8.587788050192678, 47.3739735826776], [8.586642417916526, 47.37502820386703]]]}}, {"type": "Feature", "properties": {"name": "Forsthaus_Unten 63"}, "geometry": {"type": "Polygon", "coordinates": [[[8.586653587113913, 47.37504474521731], [8.586667123365496, 47.375051530500826], [8.587843550764712, 47.37396855963172], [8.587830014637516, 47.37396177448622], [8.586653587113913, 47.37504474521731]]]}}, {"type": "Feature", "properties": {"name": "Forsthaus_Unten 64"}, "geometry": {"type": "Polygon", "coordinates": [[[8.58666475631826, 47.37506128656646], [8.586678292575503, 47.37506807184866], [8.587885515193303, 47.37395675141996], [8.587871979063705, 47.37394996627939], [8.58666475631826, 47.37506128656646]]]}}, {"type": "Feature", "properties": {"name": "Forsthaus_Unten 65"}, "geometry": {"type": "Polygon", "coordinates": [[[8.586675925529562, 47.37507782791452], [8.586689461792465, 47.375084613195405], [8.587927479603234, 47.37394494319275], [8.58791394347123, 47.373938158057115], [8.586675925529562, 47.37507782791452]]]}}, {"type": "Feature", "properties": {"name": "Forsthaus_Unten 66"}, "geometry": {"type": "Polygon", "coordinates": [[[8.586687094747827, 47.375094369261454], [8.586700631016392, 47.375101154541], [8.587969443994535, 47.373933134950086], [8.587955907860128, 47.373926349819385], [8.586687094747827, 47.375094369261454]]]}}, {"type": "Feature", "properties": {"name": "Forsthaus_Unten 67"}, "geometry": {"type": "Polygon", "coordinates": [[[8.586700130104095, 47.375109192768996], [8.586713666378122, 47.37511597804702], [8.588011408367153, 47.37392132669199], [8.587997872230343, 47.37391454156622], [8.586700130104095, 47.375109192768996]]]}}, {"type": "Feature", "properties": {"name": "Forsthaus_Unten 68"}, "geometry": {"type": "Polygon", "coordinates": [[[8.586717796071959, 47.37511975364252], [8.58673133235096, 47.37512653891846], [8.58805337272114, 47.373909518418444], [8.588039836581926, 47.37390273329762], [8.586717796071959, 47.37511975364252]]]}}, {"type": "Feature", "properties": {"name": "Forsthaus_Unten 69"}, "geometry": {"type": "Polygon", "coordinates": [[[8.586735462046876, 47.37513031451332], [8.586748998330853, 47.37513709978717], [8.588095337056462, 47.37389771012946], [8.588081800914845, 47.37389092501357], [8.586735462046876, 47.37513031451332]]]}}, {"type": "Feature", "properties": {"name": "Forsthaus_Unten 70"}, "geometry": {"type": "Polygon", "coordinates": [[[8.58675762156635, 47.37513673892056], [8.586771157854827, 47.37514352419179], [8.588137301373148, 47.373885901825034], [8.588123765229126, 47.37387911671408], [8.58675762156635, 47.37513673892056]]]}}, {"type": "Feature", "properties": {"name": "Forsthaus_Unten 71"}, "geometry": {"type": "Polygon", "coordinates": [[[8.586785160598248, 47.37513821129282], [8.586798696890652, 47.37514499656081], [8.588179265671174, 47.373874093505165], [8.588165729524748, 47.37386730839913], [8.586785160598248, 47.37513821129282]]]}}, {"type": "Feature", "properties": {"name": "Forsthaus_Unten 72"}, "geometry": {"type": "Polygon", "coordinates": [[[8.586814031875981, 47.375138457278425], [8.586827568172174, 47.37514524254303], [8.588221229950554, 47.373862285169835], [8.588207693801722, 47.37385550006874], [8.586814031875981, 47.375138457278425]]]}}, {"type": "Feature", "properties": {"name": "Forsthaus_Unten 73"}, "geometry": {"type": "Polygon", "coordinates": [[[8.586856176506457, 47.37512648463205], [8.586869712805035, 47.3751332698917], [8.588263194211265, 47.37385047681907], [8.588249658060032, 47.37384369172291], [8.586856176506457, 47.37512648463205]]]}}, {"type": "Feature", "properties": {"name": "Forsthaus_Unten 74"}, "geometry": {"type": "Polygon", "coordinates": [[[8.586898321117955, 47.375114511970075], [8.586911857418919, 47.37512129722476], [8.588305158453338, 47.37383866845288], [8.588291622299701, 47.37383188336164], [8.586898321117955, 47.375114511970075]]]}}, {"type": "Feature", "properties": {"name": "Forsthaus_Unten 75"}, "geometry": {"type": "Polygon", "coordinates": [[[8.58694046571047, 47.37510253929253], [8.586954002013822, 47.37510932454226], [8.58834712267677, 47.37382686007121], [8.58833358652073, 47.37382007498493], [8.58694046571047, 47.37510253929253]]]}}, {"type": "Feature", "properties": {"name": "Forsthaus_Unten 76"}, "geometry": {"type": "Polygon", "coordinates": [[[8.58698261028397, 47.375090566599404], [8.586996146589707, 47.37509735184419], [8.588389086881527, 47.37381505167412], [8.588375550723082, 47.373808266592754], [8.58698261028397, 47.375090566599404]]]}}, {"type": "Feature", "properties": {"name": "Forsthaus_Unten 77"}, "geometry": {"type": "Polygon", "coordinates": [[[8.587024754838493, 47.375078593890706], [8.587038291146614, 47.37508537913053], [8.588431051067648, 47.373803243261584], [8.5884175149068, 47.37379645818515], [8.587024754838493, 47.375078593890706]]]}}, {"type": "Feature", "properties": {"name": "Forsthaus_Unten 78"}, "geometry": {"type": "Polygon", "coordinates": [[[8.587066899374012, 47.37506662116642], [8.587080435684518, 47.375073406401285], [8.58847301523511, 47.373791434833585], [8.588459479071858, 47.3737846497621], [8.587066899374012, 47.37506662116642]]]}}, {"type": "Feature", "properties": {"name": "Forsthaus_Unten 79"}, "geometry": {"type": "Polygon", "coordinates": [[[8.587109043890543, 47.375054648426556], [8.587122580203435, 47.37506143365648], [8.588514979383929, 47.37377962639017], [8.588501443218272, 47.373772841323614], [8.587109043890543, 47.375054648426556]]]}}, {"type": "Feature", "properties": {"name": "Forsthaus_Unten 80"}, "geometry": {"type": "Polygon", "coordinates": [[[8.587151188388074, 47.37504267567111], [8.587164724703353, 47.375049460896086], [8.588556943514089, 47.3737678179313], [8.588543407346029, 47.37376103286968], [8.587151188388074, 47.37504267567111]]]}}, {"type": "Feature", "properties": {"name": "Forsthaus_Unten 81"}, "geometry": {"type": "Polygon", "coordinates": [[[8.5871933328666, 47.375030702900105], [8.587206869184262, 47.375037488120114], [8.588598907625585, 47.37375600945699], [8.588585371455121, 47.3737492244003], [8.5871933328666, 47.375030702900105]]]}}, {"type": "Feature", "properties": {"name": "Forsthaus_Unten 82"}, "geometry": {"type": "Polygon", "coordinates": [[[8.587235477326159, 47.37501873011352], [8.587249013646208, 47.37502551532857], [8.588640871718459, 47.37374420096722], [8.588627335545592, 47.373737415915464], [8.587235477326159, 47.37501873011352]]]}}, {"type": "Feature", "properties": {"name": "Forsthaus_Unten 83"}, "geometry": {"type": "Polygon", "coordinates": [[[8.587277621766704, 47.37500675731134], [8.587291158089139, 47.375013542521444], [8.588682835792659, 47.37373239246202], [8.588669299617386, 47.3737256074152], [8.587277621766704, 47.37500675731134]]]}}, {"type": "Feature", "properties": {"name": "Forsthaus_Unten 84"}, "geometry": {"type": "Polygon", "coordinates": [[[8.587319766188262, 47.374994784493595], [8.58733330251308, 47.37500156969873], [8.588724799848212, 47.37372058394137], [8.588711263670536, 47.37371379889949], [8.587319766188262, 47.374994784493595]]]}}, {"type": "Feature", "properties": {"name": "Forsthaus_Unten 85"}, "geometry": {"type": "Polygon", "coordinates": [[[8.587361910590818, 47.37498281166026], [8.587375446918024, 47.37498959686045], [8.58876676388511, 47.37370877540527], [8.58875322770503, 47.373701990368325], [8.587361910590818, 47.37498281166026]]]}}, {"type": "Feature", "properties": {"name": "Forsthaus_Unten 86"}, "geometry": {"type": "Polygon", "coordinates": [[[8.587404054974382, 47.37497083881136], [8.587417591303973, 47.37497762400659], [8.588808727903357, 47.373696966853736], [8.588795191720875, 47.37369018182173], [8.587404054974382, 47.37497083881136]]]}}, {"type": "Feature", "properties": {"name": "Forsthaus_Unten 87"}, "geometry": {"type": "Polygon", "coordinates": [[[8.587446199338956, 47.37495886594688], [8.587459735670931, 47.37496565113714], [8.588850691902955, 47.37368515828676], [8.58883715571807, 47.373678373259686], [8.587446199338956, 47.37495886594688]]]}}, {"type": "Feature", "properties": {"name": "Forsthaus_Unten 88"}, "geometry": {"type": "Polygon", "coordinates": [[[8.587488343684534, 47.37494689306681], [8.587501880018896, 47.374953678252126], [8.588892655883907, 47.37367334970433], [8.588879119696616, 47.37366656468218], [8.587488343684534, 47.37494689306681]]]}}, {"type": "Feature", "properties": {"name": "Forsthaus_Unten 89"}, "geometry": {"type": "Polygon", "coordinates": [[[8.58753048801113, 47.37493492017117], [8.587544024347876, 47.37494170535154], [8.588934619846208, 47.37366154110647], [8.588921083656516, 47.37365475608925], [8.58753048801113, 47.37493492017117]]]}}, {"type": "Feature", "properties": {"name": "Forsthaus_Unten 90"}, "geometry": {"type": "Polygon", "coordinates": [[[8.587572632318722, 47.37492294725996], [8.587586168657852, 47.374929732435355], [8.588976583789849, 47.373649732493156], [8.588963047597753, 47.37364294748086], [8.587572632318722, 47.37492294725996]]]}}, {"type": "Feature", "properties": {"name": "Forsthaus_Unten 91"}, "geometry": {"type": "Polygon", "coordinates": [[[8.587614776607316, 47.374910974333154], [8.587628312948832, 47.3749177595036], [8.589018547714838, 47.37363792386439], [8.589005011520339, 47.37363113885706], [8.587614776607316, 47.374910974333154]]]}}, {"type": "Feature", "properties": {"name": "Forsthaus_Unten 92"}, "geometry": {"type": "Polygon", "coordinates": [[[8.587656920876917, 47.37489900139077], [8.587670457220819, 47.37490578655627], [8.589060511621181, 47.3736261152202], [8.589046975424278, 47.3736193302178], [8.587656920876917, 47.37489900139077]]]}}, {"type": "Feature", "properties": {"name": "Forsthaus_Unten 93"}, "geometry": {"type": "Polygon", "coordinates": [[[8.58769906512751, 47.37488702843282], [8.587712601473797, 47.37489381359337], [8.589102475508854, 47.373614306560555], [8.589088939309546, 47.37360752156309], [8.58769906512751, 47.37488702843282]]]}}, {"type": "Feature", "properties": {"name": "Forsthaus_Unten 94"}, "geometry": {"type": "Polygon", "coordinates": [[[8.587741209359114, 47.374875055459306], [8.587754745707787, 47.3748818406149], [8.58914443937788, 47.37360249788548], [8.58913090317617, 47.37359571289293], [8.587741209359114, 47.374875055459306]]]}}, {"type": "Feature", "properties": {"name": "Forsthaus_Unten 95"}, "geometry": {"type": "Polygon", "coordinates": [[[8.587783353571728, 47.37486308247019], [8.587796889922785, 47.37486986762083], [8.58918640322826, 47.373590689194934], [8.589172867024145, 47.37358390420734], [8.587783353571728, 47.37486308247019]]]}}, {"type": "Feature", "properties": {"name": "Forsthaus_Unten 96"}, "geometry": {"type": "Polygon", "coordinates": [[[8.587825497765344, 47.37485110946551], [8.587839034118787, 47.37485789461118], [8.58922836705999, 47.37357888048898], [8.589214830853471, 47.3735720955063], [8.587825497765344, 47.37485110946551]]]}}, {"type": "Feature", "properties": {"name": "Forsthaus_Unten 97"}, "geometry": {"type": "Polygon", "coordinates": [[[8.587867641939981, 47.37483913644523], [8.58788117829581, 47.37484592158595], [8.589270330873077, 47.373567071767546], [8.589256794664156, 47.373560286789804], [8.587867641939981, 47.37483913644523]]]}}, {"type": "Feature", "properties": {"name": "Forsthaus_Unten 98"}, "geometry": {"type": "Polygon", "coordinates": [[[8.58790978609562, 47.37482716340939], [8.587923322453832, 47.37483394854516], [8.589312294667506, 47.37355526303068], [8.58929875845618, 47.373548478057884], [8.58790978609562, 47.37482716340939]]]}}, {"type": "Feature", "properties": {"name": "Forsthaus_Unten 99"}, "geometry": {"type": "Polygon", "coordinates": [[[8.587951930232256, 47.374815190357964], [8.587965466592854, 47.374821975488786], [8.589354258443278, 47.37354345427838], [8.589340722229549, 47.37353666931051], [8.587951930232256, 47.374815190357964]]]}}, {"type": "Feature", "properties": {"name": "Forsthaus_Unten 100"}, "geometry": {"type": "Polygon", "coordinates": [[[8.587994074349899, 47.37480321729098], [8.588007610712882, 47.37481000241683], [8.589396222200397, 47.37353164551063], [8.589382685984267, 47.37352486054769], [8.587994074349899, 47.37480321729098]]]}}, {"type": "Feature", "properties": {"name": "Forsthaus_Unten 101"}, "geometry": {"type": "Polygon", "coordinates": [[[8.588036218448538, 47.37479124420841], [8.588049754813907, 47.3747980293293], [8.589438185938857, 47.373519836727446], [8.589424649720321, 47.373513051769436], [8.588036218448538, 47.37479124420841]]]}}, {"type": "Feature", "properties": {"name": "Forsthaus_Unten 102"}, "geometry": {"type": "Polygon", "coordinates": [[[8.588078362528188, 47.374779271110256], [8.588091898895943, 47.37478605622619], [8.589480149658677, 47.3735080279288], [8.589466613437738, 47.37350124297573], [8.588078362528188, 47.374779271110256]]]}}, {"type": "Feature", "properties": {"name": "Forsthaus_Unten 103"}, "geometry": {"type": "Polygon", "coordinates": [[[8.58812050658885, 47.37476729799652], [8.58813404295899, 47.37477408310751], [8.589522113359847, 47.37349621911472], [8.589508577136504, 47.37348943416658], [8.58812050658885, 47.37476729799652]]]}}, {"type": "Feature", "properties": {"name": "Forsthaus_Unten 104"}, "geometry": {"type": "Polygon", "coordinates": [[[8.588162650630512, 47.37475532486721], [8.588176187003036, 47.37476210997324], [8.589564077042356, 47.3734844102852], [8.58955054081661, 47.373477625342], [8.588162650630512, 47.37475532486721]]]}}, {"type": "Feature", "properties": {"name": "Forsthaus_Unten 105"}, "geometry": {"type": "Polygon", "coordinates": [[[8.58820479465318, 47.374743351722316], [8.58821833102809, 47.37475013682341], [8.589606040706217, 47.373472601440234], [8.589592504478068, 47.37346581650196], [8.58820479465318, 47.374743351722316]]]}}, {"type": "Feature", "properties": {"name": "Forsthaus_Unten 106"}, "geometry": {"type": "Polygon", "coordinates": [[[8.588246938656855, 47.37473137856186], [8.58826047503415, 47.37473816365798], [8.58964800435142, 47.37346079257983], [8.589634468120867, 47.3734540076465], [8.588246938656855, 47.37473137856186]]]}}, {"type": "Feature", "properties": {"name": "Forsthaus_Unten 107"}, "geometry": {"type": "Polygon", "coordinates": [[[8.588289082641534, 47.374719405385825], [8.588302619021212, 47.37472619047697], [8.589689967977971, 47.373448983703966], [8.589676431745016, 47.373442198775564], [8.588289082641534, 47.374719405385825]]]}}, {"type": "Feature", "properties": {"name": "Forsthaus_Unten 108"}, "geometry": {"type": "Polygon", "coordinates": [[[8.588331226607215, 47.37470743219419], [8.58834476298928, 47.374714217280406], [8.589731931585872, 47.37343717481267], [8.589718395350513, 47.373430389889215], [8.588331226607215, 47.37470743219419]]]}}, {"type": "Feature", "properties": {"name": "Forsthaus_Unten 109"}, "geometry": {"type": "Polygon", "coordinates": [[[8.588373370553905, 47.37469545898699], [8.588386906938354, 47.37470224406825], [8.589773895175123, 47.37342536590592], [8.589760358937362, 47.37341858098741], [8.588373370553905, 47.37469545898699]]]}}, {"type": "Feature", "properties": {"name": "Forsthaus_Unten 110"}, "geometry": {"type": "Polygon", "coordinates": [[[8.588415514481603, 47.37468348576423], [8.588429050868436, 47.37469027084052], [8.589815858745727, 47.37341355698375], [8.58980232250556, 47.373406772070155], [8.588415514481603, 47.37468348576423]]]}}, {"type": "Feature", "properties": {"name": "Forsthaus_Unten 111"}, "geometry": {"type": "Polygon", "coordinates": [[[8.588457658390308, 47.374671512525865], [8.588471194779526, 47.37467829759721], [8.589857132290105, 47.3734023832968], [8.589843596047462, 47.37339559838807], [8.588457658390308, 47.374671512525865]]]}}, {"type": "Feature", "properties": {"name": "Forsthaus_Unten 112"}, "geometry": {"type": "Polygon", "coordinates": [[[8.588499802280015, 47.37465953927193], [8.58851333867162, 47.37466632433833], [8.589875504864443, 47.37341229321509], [8.589861968616903, 47.37340550830854], [8.588499802280015, 47.37465953927193]]]}}, {"type": "Feature", "properties": {"name": "Forsthaus_Unten 113"}, "geometry": {"type": "Polygon", "coordinates": [[[8.588541946150722, 47.37464756600242], [8.588555482544711, 47.37465435106386], [8.589893877445679, 47.37342220313045], [8.589880341193238, 47.37341541822606], [8.588541946150722, 47.37464756600242]]]}}, {"type": "Feature", "properties": {"name": "Forsthaus_Unten 114"}, "geometry": {"type": "Polygon", "coordinates": [[[8.588584090002433, 47.37463559271734], [8.588597626398808, 47.37464237777382], [8.589912250033803, 47.37343211304289], [8.589898713776464, 47.373425328140634], [8.588584090002433, 47.37463559271734]]]}}, {"type": "Feature", "properties": {"name": "Forsthaus_Unten 115"}, "geometry": {"type": "Polygon", "coordinates": [[[8.588626233835148, 47.374623619416674], [8.588639770233907, 47.3746304044682], [8.589930622628815, 47.373442022952354], [8.589917086366578, 47.37343523805227], [8.588626233835148, 47.374623619416674]]]}}, {"type": "Feature", "properties": {"name": "Forsthaus_Unten 116"}, "geometry": {"type": "Polygon", "coordinates": [[[8.588668377648869, 47.37461164610045], [8.588681914050014, 47.37461843114701], [8.589948995230722, 47.37345193285889], [8.58993545896359, 47.37344514796097], [8.588668377648869, 47.37461164610045]]]}}, {"type": "Feature", "properties": {"name": "Forsthaus_Unten 117"}, "geometry": {"type": "Polygon", "coordinates": [[[8.588710521443605, 47.37459967276861], [8.588724057847134, 47.37460645781023], [8.589967367839524, 47.373461842762474], [8.58995383156749, 47.37345505786673], [8.588710521443605, 47.37459967276861]]]}}, {"type": "Feature", "properties": {"name": "Forsthaus_Unten 118"}, "geometry": {"type": "Polygon", "coordinates": [[[8.588752665219344, 47.37458769942122], [8.588766201625258, 47.374594484457866], [8.589985740455216, 47.37347175266312], [8.589972204178284, 47.37346496776955], [8.588752665219344, 47.37458769942122]]]}}, {"type": "Feature", "properties": {"name": "Forsthaus_Unten 119"}, "geometry": {"type": "Polygon", "coordinates": [[[8.588794808976072, 47.37457572605825], [8.58880834538437, 47.374582511089955], [8.59000411307779, 47.37348166256084], [8.58999057679596, 47.37347487766942], [8.588794808976072, 47.37457572605825]]]}}, {"type": "Feature", "properties": {"name": "Forsthaus_Unten 120"}, "geometry": {"type": "Polygon", "coordinates": [[[8.588836952713828, 47.37456375267969], [8.58885048912451, 47.37457053770644], [8.589629862497812, 47.373853036106645], [8.589616326169557, 47.37384625117134], [8.588836952713828, 47.37456375267969]]]}}, {"type": "Feature", "properties": {"name": "Forsthaus_Unten 121"}, "geometry": {"type": "Polygon", "coordinates": [[[8.588879096432578, 47.374551779285575], [8.588892632845646, 47.37455856430737], [8.589640500556179, 47.37387006678915], [8.589626964222207, 47.37386328185511], [8.588879096432578, 47.374551779285575]]]}}, {"type": "Feature", "properties": {"name": "Forsthaus_Unten 122"}, "geometry": {"type": "Polygon", "coordinates": [[[8.588921240132333, 47.37453980587587], [8.588934776547786, 47.374546590892706], [8.589651138621367, 47.37388709747063], [8.589637602281678, 47.37388031253784], [8.588921240132333, 47.37453980587587]]]}}, {"type": "Feature", "properties": {"name": "Forsthaus_Unten 123"}, "geometry": {"type": "Polygon", "coordinates": [[[8.588963383813105, 47.374527832450575], [8.588976920230943, 47.37453461746246], [8.58966177669338, 47.373904128151125], [8.589648240347975, 47.37389734321958], [8.588963383813105, 47.374527832450575]]]}}, {"type": "Feature", "properties": {"name": "Forsthaus_Unten 124"}, "geometry": {"type": "Polygon", "coordinates": [[[8.589005527474859, 47.37451585900971], [8.589019063895083, 47.374522644016636], [8.589672414772208, 47.37392115883056], [8.589658878421085, 47.373914373900284], [8.589005527474859, 47.37451585900971]]]}}, {"type": "Feature", "properties": {"name": "Forsthaus_Unten 125"}, "geometry": {"type": "Polygon", "coordinates": [[[8.589047671117621, 47.37450388555328], [8.58906120754023, 47.37451067055525], [8.589683052857856, 47.373938189509], [8.589669516501019, 47.373931404579984], [8.589047671117621, 47.37450388555328]]]}}, {"type": "Feature", "properties": {"name": "Forsthaus_Unten 126"}, "geometry": {"type": "Polygon", "coordinates": [[[8.589089814741389, 47.37449191208127], [8.589103351166381, 47.37449869707829], [8.589693690950325, 47.37395522018641], [8.589680154587771, 47.37394843525866], [8.589089814741389, 47.37449191208127]]]}}, {"type": "Feature", "properties": {"name": "Forsthaus_Unten 127"}, "geometry": {"type": "Polygon", "coordinates": [[[8.58913195834618, 47.37447993859367], [8.589145494773557, 47.37448672358573], [8.589704329049619, 47.3739722508628], [8.589690792681347, 47.373965465936315], [8.58913195834618, 47.37447993859367]]]}}, {"type": "Feature", "properties": {"name": "Forsthaus_Unten 128"}, "geometry": {"type": "Polygon", "coordinates": [[[8.589174101931956, 47.37446796509051], [8.589187638361718, 47.37447475007761], [8.589714967155729, 47.37398928153819], [8.58970143078174, 47.37398249661297], [8.589174101931956, 47.37446796509051]]]}}, {"type": "Feature", "properties": {"name": "Forsthaus_Unten 129"}, "geometry": {"type": "Polygon", "coordinates": [[[8.58921624549876, 47.374455991571764], [8.589229781930904, 47.37446277655391], [8.589725605268665, 47.37400631221257], [8.58971206888896, 47.37399952728859], [8.58921624549876, 47.374455991571764]]]}}, {"type": "Feature", "properties": {"name": "Forsthaus_Unten 130"}, "geometry": {"type": "Polygon", "coordinates": [[[8.589258389046536, 47.37444401803744], [8.589271925481066, 47.374450803014625], [8.589736243388414, 47.374023342885906], [8.589722707002991, 47.37401655796319], [8.589258389046536, 47.37444401803744]]]}}, {"type": "Feature", "properties": {"name": "Forsthaus_Unten 131"}, "geometry": {"type": "Polygon", "coordinates": [[[8.589300532575347, 47.374432044487534], [8.589314069012262, 47.37443882945977], [8.589746881514992, 47.37404037355823], [8.589733345123854, 47.37403358863677], [8.589300532575347, 47.374432044487534]]]}}, {"type": "Feature", "properties": {"name": "Forsthaus_Unten 132"}, "geometry": {"type": "Polygon", "coordinates": [[[8.589342676085161, 47.37442007092204], [8.589356212524462, 47.374426855889325], [8.589757519648389, 47.374057404229546], [8.589743983251534, 47.37405061930935], [8.589342676085161, 47.37442007092204]]]}}, {"type": "Feature", "properties": {"name": "Forsthaus_Unten 133"}, "geometry": {"type": "Polygon", "coordinates": [[[8.589384819575969, 47.37440809734099], [8.589398356017654, 47.37441488230333], [8.589768157788603, 47.37407443489985], [8.589754621386032, 47.374067649980915], [8.589384819575969, 47.37440809734099]]]}}, {"type": "Feature", "properties": {"name": "Forsthaus_Unten 134"}, "geometry": {"type": "Polygon", "coordinates": [[[8.589426963047776, 47.374396123744354], [8.589440499491845, 47.37440290870175], [8.589778795935638, 47.37409146556914], [8.589765259527349, 47.37408468065145], [8.589426963047776, 47.374396123744354]]]}}, {"type": "Feature", "properties": {"name": "Forsthaus_Unten 135"}, "geometry": {"type": "Polygon", "coordinates": [[[8.589469106500596, 47.37438415013215], [8.58948264294705, 47.37439093508456], [8.589789434089493, 47.37410849623739], [8.589775897675489, 47.374101711320975], [8.589469106500596, 47.37438415013215]]]}}, {"type": "Feature", "properties": {"name": "Forsthaus_Unten 136"}, "geometry": {"type": "Polygon", "coordinates": [[[8.58951124993441, 47.374372176504366], [8.589524786383247, 47.37437896145182], [8.58980007225017, 47.37412552690463], [8.589786535830447, 47.37411874198948], [8.58951124993441, 47.374372176504366]]]}}, {"type": "Feature", "properties": {"name": "Forsthaus_Unten 137"}, "geometry": {"type": "Polygon", "coordinates": [[[8.589553393349231, 47.37436020286099], [8.589566929800455, 47.37436698780351], [8.589810710417666, 47.37414255757086], [8.589797173992228, 47.374135772656956], [8.589553393349231, 47.37436020286099]]]}}, {"type": "Feature", "properties": {"name": "Forsthaus_Unten 138"}, "geometry": {"type": "Polygon", "coordinates": [[[8.589595536745062, 47.374348229202056], [8.58960907319867, 47.374355014139596], [8.589821348591983, 47.37415958823607], [8.589807812160828, 47.374152803323426], [8.589595536745062, 47.374348229202056]]]}}, {"type": "Feature", "properties": {"name": "Forsthaus_Unten 139"}, "geometry": {"type": "Polygon", "coordinates": [[[8.589637680121887, 47.37433625552755], [8.58965121657788, 47.37434304046014], [8.58983198677312, 47.37417661890027], [8.589818450336248, 47.374169833988894], [8.589637680121887, 47.37433625552755]]]}}, {"type": "Feature", "properties": {"name": "Forsthaus_Unten 140"}, "geometry": {"type": "Polygon", "coordinates": [[[8.589679823479734, 47.374324281837445], [8.58969335993811, 47.37433106676508], [8.589842624961083, 47.37419364956344], [8.589829088518492, 47.374186864653325], [8.589679823479734, 47.374324281837445]]]}}, {"type": "Feature", "properties": {"name": "Forsthaus_Unten 141"}, "geometry": {"type": "Polygon", "coordinates": [[[8.589721966818574, 47.374312308131785], [8.589735503279337, 47.37431909305446], [8.589853263155861, 47.37421068022561], [8.589839726707554, 47.37420389531675], [8.589721966818574, 47.374312308131785]]]}}, {"type": "Feature", "properties": {"name": "Forsthaus_Unten 142"}, "geometry": {"type": "Polygon", "coordinates": [[[8.589764110138443, 47.37430033441052], [8.589777646601588, 47.37430711932824], [8.589863901357464, 47.37422771088675], [8.589850364903443, 47.37422092597914], [8.589764110138443, 47.37430033441052]]]}}]}