{"type": "FeatureCollection", "features": [{"type": "Feature", "properties": {"name": "HausHuegel 01"}, "geometry": {"type": "Polygon", "coordinates": [[[8.735246576522636, 47.313927361706526], [8.735257033836577, 47.31391841657909], [8.734494563389793, 47.31350614404363], [8.734484106029111, 47.31351508910205], [8.735246576522636, 47.313927361706526]]]}}, {"type": "Feature", "properties": {"name": "HausHuegel 02"}, "geometry": {"type": "Polygon", "coordinates": [[[8.735278410170045, 47.31392422694312], [8.735288867478006, 47.31391528181277], [8.734506107169196, 47.31349203859483], [8.73449564981325, 47.31350098365432], [8.735278410170045, 47.31392422694312]]]}}, {"type": "Feature", "properties": {"name": "HausHuegel 03"}, "geometry": {"type": "Polygon", "coordinates": [[[8.735296506287739, 47.3139136643172], [8.735306963590562, 47.313904719185174], [8.734517650942438, 47.31347793314481], [8.734507193591229, 47.313486878205396], [8.735296506287739, 47.3139136643172]]]}}, {"type": "Feature", "properties": {"name": "HausHuegel 04"}, "geometry": {"type": "Polygon", "coordinates": [[[8.73531016932758, 47.31390070473556], [8.735320626625539, 47.31389175960226], [8.734529194709525, 47.31346382769359], [8.734518737363052, 47.313472772755254], [8.73531016932758, 47.31390070473556]]]}}, {"type": "Feature", "properties": {"name": "HausHuegel 05"}, "geometry": {"type": "Polygon", "coordinates": [[[8.735323832360736, 47.31388774515226], [8.735334289653826, 47.313878800017676], [8.734540738470459, 47.31344972224115], [8.73453028112872, 47.313458667303905], [8.735323832360736, 47.31388774515226]]]}}, {"type": "Feature", "properties": {"name": "HausHuegel 06"}, "geometry": {"type": "Polygon", "coordinates": [[[8.735337495387213, 47.31387478556727], [8.735347952675438, 47.313865840431404], [8.734552282225243, 47.31343561678751], [8.734541824888243, 47.31344456185134], [8.735337495387213, 47.31387478556727]]]}}, {"type": "Feature", "properties": {"name": "HausHuegel 07"}, "geometry": {"type": "Polygon", "coordinates": [[[8.735351158406996, 47.313861825980624], [8.735361615690353, 47.31385288084348], [8.734563825973868, 47.31342151133266], [8.734553368641603, 47.313430456397576], [8.735351158406996, 47.313861825980624]]]}}, {"type": "Feature", "properties": {"name": "HausHuegel 08"}, "geometry": {"type": "Polygon", "coordinates": [[[8.735364821420093, 47.31384886639229], [8.735375278698585, 47.313839921253866], [8.73457536971634, 47.31340740587658], [8.734564912388812, 47.313416350942596], [8.735364821420093, 47.31384886639229]]]}}, {"type": "Feature", "properties": {"name": "HausHuegel 09"}, "geometry": {"type": "Polygon", "coordinates": [[[8.73537848449216, 47.31383590683779], [8.735388941765784, 47.31382696169809], [8.734586913452656, 47.31339330041931], [8.734576456129863, 47.31340224548642], [8.73537848449216, 47.31383590683779]]]}}, {"type": "Feature", "properties": {"name": "HausHuegel 10"}, "geometry": {"type": "Polygon", "coordinates": [[[8.735392147685898, 47.31382294735103], [8.73540260495466, 47.31381400221006], [8.734598457182818, 47.31337919496083], [8.734587999864763, 47.313388140029005], [8.735392147685898, 47.31382294735103]]]}}, {"type": "Feature", "properties": {"name": "HausHuegel 11"}, "geometry": {"type": "Polygon", "coordinates": [[[8.73540581087295, 47.31380998786259], [8.735416268136843, 47.31380104272035], [8.734610000906823, 47.31336508950114], [8.734599543593504, 47.313374034570415], [8.73540581087295, 47.31380998786259]]]}}, {"type": "Feature", "properties": {"name": "HausHuegel 12"}, "geometry": {"type": "Polygon", "coordinates": [[[8.735419474053321, 47.313797028372484], [8.73542993131235, 47.313788083228964], [8.734621544624684, 47.313350984040234], [8.7346110873161, 47.313359929110575], [8.735419474053321, 47.313797028372484]]]}}, {"type": "Feature", "properties": {"name": "HausHuegel 13"}, "geometry": {"type": "Polygon", "coordinates": [[[8.735434084908427, 47.313784581289745], [8.735444542162533, 47.313775636144854], [8.73463308833638, 47.31333687857813], [8.734622631032533, 47.313345823649556], [8.735434084908427, 47.313784581289745]]]}}, {"type": "Feature", "properties": {"name": "HausHuegel 14"}, "geometry": {"type": "Polygon", "coordinates": [[[8.735448800382931, 47.31377219077627], [8.735459257632105, 47.313763245630014], [8.734644632041922, 47.3133227731148], [8.73463417474281, 47.313331718187314], [8.735448800382931, 47.31377219077627]]]}}, {"type": "Feature", "properties": {"name": "HausHuegel 15"}, "geometry": {"type": "Polygon", "coordinates": [[[8.73546351585056, 47.31375980026086], [8.735473973094802, 47.313750855113234], [8.734656175741316, 47.313308667650276], [8.734645718446941, 47.313317612723864], [8.73546351585056, 47.31375980026086]]]}}, {"type": "Feature", "properties": {"name": "HausHuegel 16"}, "geometry": {"type": "Polygon", "coordinates": [[[8.735478231311296, 47.31374740974353], [8.735488688550609, 47.31373846459452], [8.734667719434551, 47.31329456218453], [8.734657262144912, 47.313303507259214], [8.735478231311296, 47.31374740974353]]]}}, {"type": "Feature", "properties": {"name": "HausHuegel 17"}, "geometry": {"type": "Polygon", "coordinates": [[[8.73549294676515, 47.31373501922426], [8.73550340399953, 47.31372607407389], [8.73467926312163, 47.313280456717585], [8.734668805836726, 47.313289401793355], [8.73549294676515, 47.31373501922426]]]}}, {"type": "Feature", "properties": {"name": "HausHuegel 18"}, "geometry": {"type": "Polygon", "coordinates": [[[8.735507662212123, 47.31372262870306], [8.735518119441572, 47.31371368355131], [8.734690806802556, 47.313266351249425], [8.73468034952239, 47.313275296326275], [8.735507662212123, 47.31372262870306]]]}}, {"type": "Feature", "properties": {"name": "HausHuegel 19"}, "geometry": {"type": "Polygon", "coordinates": [[[8.735522377652211, 47.31371023817994], [8.73553283487673, 47.31370129302681], [8.73470235047733, 47.31325224578004], [8.734691893201898, 47.31326119085799], [8.735522377652211, 47.31371023817994]]]}}, {"type": "Feature", "properties": {"name": "HausHuegel 20"}, "geometry": {"type": "Polygon", "coordinates": [[[8.735537093085421, 47.313697847654865], [8.735547550305009, 47.31368890250038], [8.734713894145948, 47.313238140309466], [8.734703436875254, 47.31324708538848], [8.735537093085421, 47.313697847654865]]]}}, {"type": "Feature", "properties": {"name": "HausHuegel 21"}, "geometry": {"type": "Polygon", "coordinates": [[[8.735551808511747, 47.31368545712787], [8.735562265726406, 47.31367651197201], [8.734725437808416, 47.31322403483767], [8.73471498054246, 47.31323297991777], [8.735551808511747, 47.31368545712787]]]}}, {"type": "Feature", "properties": {"name": "HausHuegel 22"}, "geometry": {"type": "Polygon", "coordinates": [[[8.735566523931192, 47.31367306659895], [8.73557698114092, 47.31366412144172], [8.734736981464732, 47.31320992936467], [8.73472652420351, 47.313218874445866], [8.735566523931192, 47.31367306659895]]]}}, {"type": "Feature", "properties": {"name": "HausHuegel 23"}, "geometry": {"type": "Polygon", "coordinates": [[[8.73558123934374, 47.31366067606811], [8.735591696548536, 47.313651730909505], [8.734748525114881, 47.31319582389047], [8.734738067858396, 47.31320476897274], [8.73558123934374, 47.31366067606811]]]}}, {"type": "Feature", "properties": {"name": "HausHuegel 24"}, "geometry": {"type": "Polygon", "coordinates": [[[8.735595954749408, 47.313648285535336], [8.735606411949275, 47.31363934037536], [8.734760068758881, 47.31318171841504], [8.734749611507132, 47.31319066349841], [8.735595954749408, 47.313648285535336]]]}}, {"type": "Feature", "properties": {"name": "HausHuegel 25"}, "geometry": {"type": "Polygon", "coordinates": [[[8.735610670148201, 47.313635895000616], [8.735621127343137, 47.31362694983927], [8.73477161239673, 47.313167612938415], [8.734761155149716, 47.31317655802287], [8.735610670148201, 47.313635895000616]]]}}, {"type": "Feature", "properties": {"name": "HausHuegel 26"}, "geometry": {"type": "Polygon", "coordinates": [[[8.735625385540102, 47.31362350446399], [8.735635842730106, 47.313614559301264], [8.73478315602842, 47.31315350746058], [8.734772698786143, 47.31316245254611], [8.735625385540102, 47.31362350446399]]]}}, {"type": "Feature", "properties": {"name": "HausHuegel 27"}, "geometry": {"type": "Polygon", "coordinates": [[[8.735640100925119, 47.313611113925425], [8.735650558110192, 47.31360216876133], [8.734794699653953, 47.31313940198154], [8.734784242416412, 47.31314834706815], [8.735640100925119, 47.313611113925425]]]}}, {"type": "Feature", "properties": {"name": "HausHuegel 28"}, "geometry": {"type": "Polygon", "coordinates": [[[8.73565481630326, 47.31359872338492], [8.735665273483404, 47.313589778219466], [8.73480624327334, 47.31312529650127], [8.734795786040536, 47.31313424158896], [8.73565481630326, 47.31359872338492]]]}}, {"type": "Feature", "properties": {"name": "HausHuegel 29"}, "geometry": {"type": "Polygon", "coordinates": [[[8.735669531674512, 47.31358633284249], [8.735679988849727, 47.31357738767565], [8.734817786886568, 47.31311119101979], [8.7348073296585, 47.31312013610858], [8.735669531674512, 47.31358633284249]]]}}, {"type": "Feature", "properties": {"name": "HausHuegel 30"}, "geometry": {"type": "Polygon", "coordinates": [[[8.73568424703889, 47.31357394229813], [8.735694704209171, 47.313564997129916], [8.73482933049365, 47.313097085537116], [8.734818873270317, 47.31310603062698], [8.73568424703889, 47.31357394229813]]]}}, {"type": "Feature", "properties": {"name": "HausHuegel 31"}, "geometry": {"type": "Polygon", "coordinates": [[[8.735698962396372, 47.31356155175185], [8.73570941956172, 47.31355260658226], [8.734840874094562, 47.31308298005324], [8.734830416875967, 47.313091925144185], [8.735698962396372, 47.31356155175185]]]}}, {"type": "Feature", "properties": {"name": "HausHuegel 32"}, "geometry": {"type": "Polygon", "coordinates": [[[8.735713677746972, 47.31354916120364], [8.735724134907393, 47.31354021603268], [8.734852417689327, 47.31306887456813], [8.734841960475467, 47.31307781966018], [8.735713677746972, 47.31354916120364]]]}}, {"type": "Feature", "properties": {"name": "HausHuegel 33"}, "geometry": {"type": "Polygon", "coordinates": [[[8.735728393090696, 47.313536770653485], [8.735738850246186, 47.31352782548115], [8.734863961277943, 47.31305476908183], [8.734853504068818, 47.313063714174945], [8.735728393090696, 47.313536770653485]]]}}, {"type": "Feature", "properties": {"name": "HausHuegel 34"}, "geometry": {"type": "Polygon", "coordinates": [[[8.73574310842753, 47.3135243801014], [8.735753565578088, 47.313515434927716], [8.734875504860396, 47.31304066359432], [8.73486504765601, 47.31304960868852], [8.73574310842753, 47.3135243801014]]]}}, {"type": "Feature", "properties": {"name": "HausHuegel 35"}, "geometry": {"type": "Polygon", "coordinates": [[[8.73575782375748, 47.31351198954739], [8.735768280903107, 47.31350304437234], [8.734887048436699, 47.31302655810559], [8.734876591237045, 47.31303550320089], [8.73575782375748, 47.31351198954739]]]}}, {"type": "Feature", "properties": {"name": "HausHuegel 36"}, "geometry": {"type": "Polygon", "coordinates": [[[8.735772539080548, 47.31349959899146], [8.735782996221246, 47.31349065381503], [8.734898592006846, 47.31301245261565], [8.734888134811932, 47.313021397712035], [8.735772539080548, 47.31349959899146]]]}}, {"type": "Feature", "properties": {"name": "HausHuegel 37"}, "geometry": {"type": "Polygon", "coordinates": [[[8.735787254396735, 47.313487208433614], [8.735797711532502, 47.3134782632558], [8.73491143688722, 47.31299905076325], [8.73490097969712, 47.31300799586085], [8.735787254396735, 47.313487208433614]]]}}, {"type": "Feature", "properties": {"name": "HausHuegel 38"}, "geometry": {"type": "Polygon", "coordinates": [[[8.735801969706037, 47.313474817873804], [8.735812426836873, 47.31346587269462], [8.734925101531624, 47.31298609216996], [8.73491464434639, 47.31299503726883], [8.735801969706037, 47.313474817873804]]]}}, {"type": "Feature", "properties": {"name": "HausHuegel 39"}, "geometry": {"type": "Polygon", "coordinates": [[[8.73581668500845, 47.31346242731208], [8.735827142134356, 47.31345348213154], [8.734938766169337, 47.312973133575], [8.73492830898897, 47.31298207867513], [8.73581668500845, 47.31346242731208]]]}}, {"type": "Feature", "properties": {"name": "HausHuegel 40"}, "geometry": {"type": "Polygon", "coordinates": [[[8.735831400303992, 47.31345003674842], [8.735841857424967, 47.3134410915665], [8.734952430800371, 47.31296017497834], [8.734941973624872, 47.31296912007976], [8.735831400303992, 47.31345003674842]]]}}, {"type": "Feature", "properties": {"name": "HausHuegel 41"}, "geometry": {"type": "Polygon", "coordinates": [[[8.735846115592638, 47.313437646182834], [8.735856572708684, 47.31342870099955], [8.73496609542471, 47.31294721638003], [8.734955638254077, 47.312956161482724], [8.735846115592638, 47.313437646182834]]]}}, {"type": "Feature", "properties": {"name": "HausHuegel 42"}, "geometry": {"type": "Polygon", "coordinates": [[[8.735860830874406, 47.31342525561532], [8.73587128798552, 47.31341631043067], [8.734979760042364, 47.312934257780036], [8.734969302876596, 47.31294320288401], [8.735860830874406, 47.31342525561532]]]}}, {"type": "Feature", "properties": {"name": "HausHuegel 43"}, "geometry": {"type": "Polygon", "coordinates": [[[8.735875546149288, 47.31341286504589], [8.735886003255471, 47.31340391985985], [8.734993424653329, 47.31292129917839], [8.734982967492426, 47.31293024428363], [8.735875546149288, 47.31341286504589]]]}}, {"type": "Feature", "properties": {"name": "HausHuegel 44"}, "geometry": {"type": "Polygon", "coordinates": [[[8.735890261417284, 47.31340047447452], [8.735900718518538, 47.3133915292871], [8.735007089257605, 47.312908340575056], [8.73499663210157, 47.31291728568158], [8.735890261417284, 47.31340047447452]]]}}, {"type": "Feature", "properties": {"name": "HausHuegel 45"}, "geometry": {"type": "Polygon", "coordinates": [[[8.735904976678412, 47.313388083901195], [8.735915433774736, 47.31337913871242], [8.735020753855206, 47.312895381970044], [8.735010296704036, 47.31290432707785], [8.735904976678412, 47.313388083901195]]]}}, {"type": "Feature", "properties": {"name": "HausHuegel 46"}, "geometry": {"type": "Polygon", "coordinates": [[[8.73591969193264, 47.313375693325966], [8.735930149024032, 47.31336674813581], [8.735034418446107, 47.31288242336338], [8.735023961299802, 47.31289136847245], [8.73591969193264, 47.313375693325966]]]}}, {"type": "Feature", "properties": {"name": "HausHuegel 47"}, "geometry": {"type": "Polygon", "coordinates": [[[8.735934407179993, 47.313363302748805], [8.735944864266452, 47.31335435755729], [8.735048083030327, 47.31286946475503], [8.73503762588889, 47.312878409865384], [8.735934407179993, 47.313363302748805]]]}}, {"type": "Feature", "properties": {"name": "HausHuegel 48"}, "geometry": {"type": "Polygon", "coordinates": [[[8.735949122420456, 47.313350912169724], [8.735959579501987, 47.31334196697682], [8.735061747607853, 47.31285650614502], [8.735051290471283, 47.312865451256634], [8.735949122420456, 47.313350912169724]]]}}, {"type": "Feature", "properties": {"name": "HausHuegel 49"}, "geometry": {"type": "Polygon", "coordinates": [[[8.735963837654042, 47.31333852158869], [8.735974294730642, 47.31332957639442], [8.7350754121787, 47.31284354753332], [8.735064955046994, 47.312852492646215], [8.735963837654042, 47.31333852158869]]]}}, {"type": "Feature", "properties": {"name": "HausHuegel 50"}, "geometry": {"type": "Polygon", "coordinates": [[[8.735978552880738, 47.313326131005745], [8.735989009952407, 47.31331718581011], [8.73508907674285, 47.312830588919965], [8.735078619616012, 47.31283953403415], [8.735978552880738, 47.313326131005745]]]}}, {"type": "Feature", "properties": {"name": "HausHuegel 51"}, "geometry": {"type": "Polygon", "coordinates": [[[8.735993268100554, 47.31331374042087], [8.736003725167294, 47.31330479522385], [8.73510274130032, 47.312817630304934], [8.735092284178346, 47.31282657542038], [8.735993268100554, 47.31331374042087]]]}}, {"type": "Feature", "properties": {"name": "HausHuegel 52"}, "geometry": {"type": "Polygon", "coordinates": [[[8.736007983313492, 47.31330134983405], [8.7360184403753, 47.31329240463566], [8.735116405851105, 47.31280467168821], [8.735105948733997, 47.31281361680496], [8.736007983313492, 47.31330134983405]]]}}, {"type": "Feature", "properties": {"name": "HausHuegel 53"}, "geometry": {"type": "Polygon", "coordinates": [[[8.736022698519543, 47.3132889592453], [8.73603315557642, 47.31328001404555], [8.7351300703952, 47.31279171306984], [8.735119613282958, 47.31280065818786], [8.736022698519543, 47.3132889592453]]]}}, {"type": "Feature", "properties": {"name": "HausHuegel 54"}, "geometry": {"type": "Polygon", "coordinates": [[[8.736037413718707, 47.31327656865463], [8.736047870770655, 47.313267623453505], [8.735143734932608, 47.31277875444979], [8.735133277825232, 47.31278769956908], [8.736037413718707, 47.31327656865463]]]}}, {"type": "Feature", "properties": {"name": "HausHuegel 55"}, "geometry": {"type": "Polygon", "coordinates": [[[8.73605212891099, 47.31326417806203], [8.736062585958004, 47.313255232859525], [8.735157399463326, 47.31276579582807], [8.735146942360814, 47.31277474094865], [8.73605212891099, 47.31326417806203]]]}}, {"type": "Feature", "properties": {"name": "HausHuegel 56"}, "geometry": {"type": "Polygon", "coordinates": [[[8.736066844096388, 47.31325178746749], [8.736077301138474, 47.31324284226363], [8.735171063987355, 47.312752837204684], [8.735160606889712, 47.312761782326525], [8.736066844096388, 47.31325178746749]]]}}, {"type": "Feature", "properties": {"name": "HausHuegel 57"}, "geometry": {"type": "Polygon", "coordinates": [[[8.7360815592749, 47.31323939687103], [8.736092016312055, 47.313230451665795], [8.735184728504699, 47.31273987857962], [8.735174271411921, 47.31274882370274], [8.7360815592749, 47.31323939687103]]]}}, {"type": "Feature", "properties": {"name": "HausHuegel 58"}, "geometry": {"type": "Polygon", "coordinates": [[[8.736096274446535, 47.31322700627266], [8.73610673147876, 47.31321806106603], [8.735198393015358, 47.31272691995289], [8.735187935927447, 47.31273586507727], [8.736096274446535, 47.31322700627266]]]}}, {"type": "Feature", "properties": {"name": "HausHuegel 59"}, "geometry": {"type": "Polygon", "coordinates": [[[8.736110989611287, 47.31321461567233], [8.736121446638581, 47.313205670464356], [8.73521205751933, 47.31271396132447], [8.735201600436286, 47.31272290645014], [8.736110989611287, 47.31321461567233]]]}}, {"type": "Feature", "properties": {"name": "HausHuegel 60"}, "geometry": {"type": "Polygon", "coordinates": [[[8.73612570476915, 47.31320222507008], [8.736136161791514, 47.313193279860734], [8.735225722016612, 47.31270100269438], [8.735215264938432, 47.31270994782133], [8.73612570476915, 47.31320222507008]]]}}, {"type": "Feature", "properties": {"name": "HausHuegel 61"}, "geometry": {"type": "Polygon", "coordinates": [[[8.736140419920138, 47.31318983446589], [8.736150876937572, 47.31318088925517], [8.735239386507212, 47.31268804406264], [8.735228929433902, 47.31269698919086], [8.736140419920138, 47.31318983446589]]]}}, {"type": "Feature", "properties": {"name": "HausHuegel 62"}, "geometry": {"type": "Polygon", "coordinates": [[[8.73615513506424, 47.313177443859786], [8.736165592076743, 47.31316849864768], [8.735253050991126, 47.312675085429206], [8.73524259392268, 47.312684030558714], [8.73615513506424, 47.313177443859786]]]}}, {"type": "Feature", "properties": {"name": "HausHuegel 63"}, "geometry": {"type": "Polygon", "coordinates": [[[8.736169865814999, 47.31316506169389], [8.73618032282257, 47.31315611648042], [8.735266715468347, 47.312662126794116], [8.735256258404766, 47.312671071924896], [8.736169865814999, 47.31316506169389]]]}}, {"type": "Feature", "properties": {"name": "HausHuegel 64"}, "geometry": {"type": "Polygon", "coordinates": [[[8.736184624790324, 47.3131526947906], [8.73619508179296, 47.31314374957576], [8.735280379938889, 47.312649168157336], [8.735269922880173, 47.312658113289395], [8.736184624790324, 47.3131526947906]]]}}, {"type": "Feature", "properties": {"name": "HausHuegel 65"}, "geometry": {"type": "Polygon", "coordinates": [[[8.736199383758743, 47.31314032788539], [8.736209840756448, 47.31313138266916], [8.735294044402726, 47.31263620951891], [8.735283587348878, 47.312645154652245], [8.736199383758743, 47.31314032788539]]]}}, {"type": "Feature", "properties": {"name": "HausHuegel 66"}, "geometry": {"type": "Polygon", "coordinates": [[[8.736214142720286, 47.31312796097822], [8.736224599713058, 47.31311901576062], [8.73530770885989, 47.3126232508788], [8.735297251810907, 47.3126321960134], [8.736214142720286, 47.31312796097822]]]}}, {"type": "Feature", "properties": {"name": "HausHuegel 67"}, "geometry": {"type": "Polygon", "coordinates": [[[8.736228901674933, 47.313115594069124], [8.73623935866277, 47.31310664885015], [8.735321373310363, 47.31261029223702], [8.735310916266245, 47.31261923737289], [8.736228901674933, 47.313115594069124]]]}}, {"type": "Feature", "properties": {"name": "HausHuegel 68"}, "geometry": {"type": "Polygon", "coordinates": [[[8.736243660622693, 47.31310322715809], [8.736254117605595, 47.31309428193772], [8.735335037754151, 47.31259733359356], [8.7353245807149, 47.312606278730726], [8.736243660622693, 47.31310322715809]]]}}, {"type": "Feature", "properties": {"name": "HausHuegel 69"}, "geometry": {"type": "Polygon", "coordinates": [[[8.736258419563558, 47.313090860245104], [8.736268876541532, 47.31308191502337], [8.735348702191251, 47.31258437494843], [8.735338245156866, 47.31259332008688], [8.736258419563558, 47.313090860245104]]]}}, {"type": "Feature", "properties": {"name": "HausHuegel 70"}, "geometry": {"type": "Polygon", "coordinates": [[[8.736273178497534, 47.313078493330174], [8.736283635470572, 47.313069548107066], [8.735362366621663, 47.312571416301644], [8.735351909592143, 47.31258036144136], [8.736273178497534, 47.313078493330174]]]}}]}