{"type": "FeatureCollection", "features": [{"type": "Feature", "properties": {"name": "UsterAutobahn 01"}, "geometry": {"type": "Polygon", "coordinates": [[[8.734082281368767, 47.35571161599209], [8.734082209176147, 47.35571166615434], [8.733989049013518, 47.35577719745581], [8.733988949566106, 47.35577726862267], [8.733894739509212, 47.35584585754208], [8.733894631149603, 47.355845937956985], [8.733798463145119, 47.35591868682163], [8.733798333882914, 47.3559187869279], [8.733700190786438, 47.35599660395461], [8.733700064030584, 47.355996706880546], [8.733601232365485, 47.35607890056854], [8.733601095316518, 47.35607901764056], [8.733504274519056, 47.35616398487963], [8.73350413962292, 47.356164106578326], [8.733411946600665, 47.35624962906523], [8.733411790637566, 47.35624977872336], [8.733326756792824, 47.35633421585896], [8.733326579919346, 47.35633439892184], [8.733250373458874, 47.356416666152036], [8.733250197028914, 47.356416865502354], [8.7331827120653, 47.35649675581341], [8.733182521340765, 47.356496994569945], [8.733123267312743, 47.35657557058991], [8.733123069251237, 47.35657585189649], [8.733071490122125, 47.356654557124536], [8.733071314766173, 47.3566548456648], [8.733026347152075, 47.356734975217506], [8.733026210145725, 47.356735238507454], [8.732986446113095, 47.35681803897091], [8.732986340219131, 47.356818276901734], [8.732950885982772, 47.356904678039335], [8.732950812793653, 47.3569048690977], [8.732918562853854, 47.35699544770223], [8.732918525151264, 47.3569955583994], [8.73288790658442, 47.357089708079144], [8.73288788487813, 47.35708977682916], [8.73285813312696, 47.3571869193799], [8.732858119866451, 47.35718696354953], [8.732828841974081, 47.35728648849268], [8.73282883914686, 47.35728649814654], [8.732799545633258, 47.35738697599389], [8.732799543818638, 47.357386982236335], [8.732770445908065, 47.35748737512319], [8.732741647222783, 47.35758667068545], [8.732713446994001, 47.35768417156522], [8.732685946527777, 47.35777917326599], [8.73268537534282, 47.357781144711986], [8.732701876017746, 47.357783352153525], [8.73270244733881, 47.35778138023564], [8.732729948310684, 47.35768637668627], [8.732758147619851, 47.35758887887734], [8.732786945950528, 47.35748958443111], [8.732816043225698, 47.35738919362884], [8.73284533439213, 47.35728872372507], [8.732874604332823, 47.357189225706975], [8.73290433875481, 47.35709213963931], [8.732934928088138, 47.35699807976074], [8.732967124175023, 47.35690765233162], [8.733002490225497, 47.35682146603681], [8.73304213371243, 47.35673891653332], [8.733086946191403, 47.356659063379844], [8.733138338442124, 47.35658064327722], [8.733197396587887, 47.35650232698498], [8.733264696768622, 47.35642265539842], [8.733340726159344, 47.35634057929681], [8.733425592759804, 47.35625630821007], [8.733517639768891, 47.35617092115153], [8.73361432451927, 47.35608607328506], [8.733713024037094, 47.35600398948117], [8.733811039088387, 47.35592627396595], [8.733907087985191, 47.35585361519064], [8.734001194021381, 47.35578510199127], [8.734094268140382, 47.35571963120476], [8.73417059355842, 47.355667244587586], [8.734158643110096, 47.35565920445214], [8.734082281368767, 47.35571161599209]]]}}, {"type": "Feature", "properties": {"name": "UsterAutobahn 02"}, "geometry": {"type": "Polygon", "coordinates": [[[8.734099037965786, 47.35572275205449], [8.734098965773166, 47.35572280221674], [8.734006045448805, 47.35578816482415], [8.734005946001393, 47.35578823599103], [8.733912025887586, 47.3558566138355], [8.73391191752798, 47.35585669425042], [8.733816081521455, 47.35592919198421], [8.733815952259258, 47.35592929209049], [8.73371816606845, 47.35600682614947], [8.733718039312608, 47.35600692907543], [8.733619575985859, 47.35608881645674], [8.733619438936907, 47.35608893352877], [8.733522997345602, 47.35617356801283], [8.733522862449485, 47.356173689711554], [8.733431076410392, 47.35625883469019], [8.733430920447319, 47.356258984348344], [8.73334635276339, 47.35634295862466], [8.733346175889949, 47.35634314168759], [8.733270462975357, 47.35642487615264], [8.733270286545446, 47.35642507550298], [8.733203316625408, 47.35650435612912], [8.73320312590094, 47.35650459488567], [8.733144417852692, 47.35658244692931], [8.733144219791273, 47.35658272823592], [8.733093161541785, 47.35666063869529], [8.73309298618593, 47.35666092723559], [8.733048450967368, 47.35674028634404], [8.733048313961115, 47.35674054963402], [8.733008885906658, 47.35682265056341], [8.733008780012787, 47.35682288849424], [8.732973571551804, 47.356908690771974], [8.732973498362762, 47.356908881830364], [8.732941398496, 47.356999039041774], [8.732941360793454, 47.356999149738975], [8.732910823673455, 47.35709304910069], [8.732910801967195, 47.3570931178507], [8.732881098479208, 47.35719010295422], [8.73288108521872, 47.35719014712384], [8.732851829449165, 47.357289597011004], [8.732851826621948, 47.35728960666487], [8.73282253960955, 47.35739006236238], [8.732822537794934, 47.35739006860481], [8.732793441889415, 47.35749045472357], [8.73276464443173, 47.35758974620181], [8.732736444714398, 47.357687245458536], [8.732708943532645, 47.35778224977246], [8.732708583039242, 47.35778349401803], [8.732725083715884, 47.357785701456244], [8.732725444343933, 47.35778445674461], [8.73275294603107, 47.35768945058298], [8.732781144830476, 47.35759195439128], [8.732809941933922, 47.35749266402778], [8.73283903720394, 47.35739227999399], [8.732868321868985, 47.35729183224072], [8.732897569687117, 47.35719240927786], [8.732927255845949, 47.357095480657584], [8.732957763732541, 47.357001671097045], [8.73298980974655, 47.35691166506113], [8.733024930021946, 47.356826077626124], [8.733064237530966, 47.356744227656804], [8.733108617614695, 47.35666514494768], [8.73315948898607, 47.35658751961383], [8.733218001152268, 47.35650992729807], [8.733284786289616, 47.35643086539648], [8.733360322134578, 47.35634932206013], [8.733444722574324, 47.35626551383276], [8.733536362600313, 47.35618050428255], [8.733632668144587, 47.35609598917115], [8.733730999324079, 47.356014211674015], [8.733828657469765, 47.35593677912658], [8.73392437436859, 47.35586437148221], [8.734018190461766, 47.35579606935779], [8.734111024742427, 47.35573076726543], [8.734188193318252, 47.35567780192719], [8.734176242864867, 47.355669761793585], [8.734099037965786, 47.35572275205449]]]}}, {"type": "Feature", "properties": {"name": "UsterAutobahn 03"}, "geometry": {"type": "Polygon", "coordinates": [[[8.734115794569913, 47.355733888114365], [8.734115722377295, 47.355733938276636], [8.734023041890753, 47.355799132190256], [8.734022942443346, 47.35579920335714], [8.733929312273595, 47.35586737012586], [8.733929203913993, 47.355867450540806], [8.733833699904544, 47.35593969714427], [8.733833570642352, 47.355939797250585], [8.733736141357422, 47.35601704834146], [8.733736014601591, 47.356017151267444], [8.733637919612946, 47.356098732342105], [8.73363778256401, 47.35609884941417], [8.733541720179266, 47.35618315114267], [8.733541585283168, 47.35618327284141], [8.733450206226653, 47.356268040312116], [8.733450050263608, 47.35626818997029], [8.733365948740436, 47.35635170138702], [8.733365771867035, 47.35635188444999], [8.733290552498163, 47.35643308614961], [8.733290376068298, 47.356433285499996], [8.733223921191431, 47.356511956441125], [8.73322373046703, 47.356512195197716], [8.733165568398153, 47.35658932326483], [8.733165370336819, 47.356589604571475], [8.733114832966411, 47.35666672026199], [8.733114657610658, 47.356667008802326], [8.733070554787142, 47.356745597466265], [8.733070417780985, 47.35674586075626], [8.733031325704093, 47.35682726215165], [8.733031219810313, 47.35682750008249], [8.73299625712429, 47.35691270350013], [8.732996183935324, 47.35691289455854], [8.73296423414126, 47.3570026303768], [8.732964196438761, 47.357002741073984], [8.73293374076549, 47.35709639011735], [8.73293371905926, 47.35709645886737], [8.73290406383427, 47.357193286523824], [8.7329040505738, 47.35719333069345], [8.732874816926527, 47.35729270552626], [8.732874814099313, 47.35729271518011], [8.732845533588392, 47.35739314872676], [8.73284553177378, 47.35739315496918], [8.73281643787228, 47.357493534323424], [8.732787641644228, 47.357592821710554], [8.732759442434634, 47.35769031935712], [8.732731940538374, 47.357785326280684], [8.732731790737748, 47.357785843319405], [8.732748291416105, 47.357788050754266], [8.732748441351754, 47.35778753324896], [8.73277594375415, 47.3576925244751], [8.732804142044648, 47.35759502989759], [8.732832937920017, 47.35749574361985], [8.732862031184865, 47.357395366354574], [8.732891309348481, 47.357294940752034], [8.732920535044144, 47.3571955928443], [8.732950172940088, 47.357098821670945], [8.732980599380062, 47.35700526242879], [8.733012495321557, 47.35691567778608], [8.733047369822243, 47.35683068921121], [8.733086341353985, 47.35674953877597], [8.733130289042947, 47.35667122651147], [8.733180639535526, 47.35659439594657], [8.733238605722574, 47.35651752760742], [8.733304875816923, 47.356439075390966], [8.733379918116295, 47.356358064820114], [8.733463852395378, 47.35627471945239], [8.733555085438857, 47.356190087410205], [8.733651011776615, 47.35610590505443], [8.73374897461804, 47.35602443386401], [8.733846275857875, 47.355947284284696], [8.733941660759664, 47.35587512777069], [8.734035186908725, 47.35580703672211], [8.734127781351617, 47.35574190332355], [8.734205793085078, 47.35568835926408], [8.734193842626636, 47.35568031913232], [8.734115794569913, 47.355733888114365]]]}}, {"type": "Feature", "properties": {"name": "UsterAutobahn 04"}, "geometry": {"type": "Polygon", "coordinates": [[[8.734132551181066, 47.355745024171824], [8.734132478988448, 47.355745074334095], [8.734040038340085, 47.35581009955359], [8.73403993889268, 47.3558101707205], [8.73394659866634, 47.355878126413835], [8.733946490306739, 47.35587820682878], [8.733851318294644, 47.355950202301614], [8.73385118903246, 47.35595030240794], [8.733754116653328, 47.35602727053067], [8.733753989897508, 47.35602737345667], [8.733656263247076, 47.35610864822441], [8.733656126198152, 47.3561087652965], [8.733560443019396, 47.356192734269726], [8.733560308123316, 47.35619285596849], [8.733469336049817, 47.3562772459306], [8.733469180086798, 47.35627739558879], [8.733385544723872, 47.356360444146134], [8.733385367850508, 47.356360627209135], [8.733310642027213, 47.3564412961431], [8.733310465597397, 47.35644149549351], [8.733244525763391, 47.35651955674943], [8.733244335039053, 47.35651979550606], [8.73318671894908, 47.356596199596524], [8.73318652088783, 47.35659648090321], [8.73313650439606, 47.356672801824544], [8.733136329040402, 47.35667309036491], [8.733092658611373, 47.35675090858422], [8.733092521605311, 47.356751171874244], [8.733053765505458, 47.356831873735466], [8.73305365961177, 47.35683211166635], [8.73301894270023, 47.35691671622383], [8.73301886951134, 47.35691690728224], [8.73298706978967, 47.357006221707174], [8.732987032087216, 47.35700633240435], [8.732956657860392, 47.35709973112959], [8.732956636154187, 47.35709979987961], [8.732927029192101, 47.3571964700889], [8.732927015931649, 47.35719651425853], [8.732897804406695, 47.35729581403659], [8.732897801579485, 47.357295823690464], [8.732868527569936, 47.35739623508655], [8.732868525755329, 47.35739624132895], [8.732839433862697, 47.35749661390191], [8.7328106388597, 47.35759589721376], [8.732782440158486, 47.357693393247885], [8.732754998116043, 47.357788193544295], [8.732771499337733, 47.35779039910559], [8.732798941479919, 47.35769559836261], [8.732827139262378, 47.357598105396356], [8.732855933908807, 47.35749882320732], [8.73288502516795, 47.35739845271241], [8.732914296830419, 47.357298049259704], [8.732943500404021, 47.35719877640595], [8.732973090037094, 47.35710216267991], [8.733003435030732, 47.3570088537559], [8.733035180900016, 47.35691969050656], [8.733069809626473, 47.35683530079191], [8.733108445181454, 47.35675484989089], [8.733151960476233, 47.35667730807109], [8.733201790090446, 47.35660127227549], [8.73325921029882, 47.356525127913095], [8.733324965350473, 47.35644728538195], [8.733399514104399, 47.35636680757683], [8.733482982223334, 47.356283925068595], [8.733573808283863, 47.35619967053508], [8.733669355415687, 47.35611582093464], [8.73376694991895, 47.35603465605117], [8.73386389425298, 47.35595778944012], [8.73395894715745, 47.355885884056796], [8.734052183363113, 47.355818004083645], [8.734144537967829, 47.355753039379245], [8.73422339285895, 47.35569891659828], [8.734211442395448, 47.355690876468344], [8.734132551181066, 47.355745024171824]]]}}, {"type": "Feature", "properties": {"name": "UsterAutobahn 05"}, "geometry": {"type": "Polygon", "coordinates": [[[8.734149307799267, 47.35575616022682], [8.73414923560665, 47.355756210389096], [8.734057034796166, 47.3558210669146], [8.734056935348763, 47.35582113808151], [8.733963885066089, 47.35588888269919], [8.733963776706494, 47.35588896311417], [8.733868936691954, 47.35596070745606], [8.733868807429776, 47.35596080756241], [8.733772091956196, 47.35603749271703], [8.733771965200386, 47.35603759564304], [8.733674606887902, 47.35611856410392], [8.733674469838993, 47.35611868117603], [8.733579165866647, 47.35620231739343], [8.733579030970585, 47.35620243909222], [8.73348846587939, 47.35628645154613], [8.733488309916396, 47.356286601204346], [8.733405140713884, 47.356369186901816], [8.73340496384056, 47.356369369964845], [8.73333073156243, 47.356449506133124], [8.733330555132664, 47.35644970548357], [8.733265130341271, 47.356527157054025], [8.733264939616998, 47.35652739581069], [8.733207869505598, 47.356603075924156], [8.733207671444438, 47.35660335723088], [8.73315817583071, 47.35667888338302], [8.73315800047515, 47.35667917192342], [8.733114762440017, 47.356756219697985], [8.733114625434052, 47.35675648298804], [8.733076205310779, 47.356836485314865], [8.73307609941718, 47.35683672324576], [8.733041628279638, 47.356920728943], [8.733041555090825, 47.356920920001436], [8.733009905441158, 47.3570098130331], [8.733009867738748, 47.3570099237303], [8.732979574958163, 47.35710307213739], [8.732979553251988, 47.35710314088741], [8.73294999455271, 47.35719965364938], [8.732949981292279, 47.357199697819], [8.732920791890203, 47.357298922540195], [8.732920789062998, 47.35729893219406], [8.732891521553917, 47.35739932144262], [8.732891519739315, 47.35739932768503], [8.73286242985095, 47.357499693492535], [8.732833636076442, 47.35759897271722], [8.732805437885027, 47.35769646713404], [8.732778205640203, 47.357790542812396], [8.7327947068636, 47.35779274837037], [8.73282193920838, 47.3576986722455], [8.732850136480796, 47.3576011808974], [8.732878929900291, 47.357501902790155], [8.732908019154015, 47.35740153906468], [8.73293728431588, 47.35730115776], [8.732966465766635, 47.35720195996313], [8.73299600713697, 47.35710550368442], [8.733026270684478, 47.35701244507858], [8.733057866481943, 47.35692370322253], [8.733092249434655, 47.356839912368166], [8.733130549013344, 47.3567601610016], [8.733173631914509, 47.35668338962667], [8.73322294065096, 47.35660814860033], [8.733279814880985, 47.35653272821505], [8.733345054890195, 47.35645549536945], [8.73341911009908, 47.35637555033012], [8.733502112057698, 47.356293130681856], [8.73359253113599, 47.356209253656594], [8.733687699061454, 47.356125736812054], [8.733784925226791, 47.35604487823553], [8.73388151265533, 47.35596829459263], [8.733976233562226, 47.35589664034031], [8.734069179824274, 47.35582897144283], [8.73416129459112, 47.355764175432455], [8.73424099263984, 47.355709473929764], [8.734229042171286, 47.35570143380168], [8.734149307799267, 47.35575616022682]]]}}, {"type": "Feature", "properties": {"name": "UsterAutobahn 06"}, "geometry": {"type": "Polygon", "coordinates": [[[8.734166064424032, 47.355767296279694], [8.734165992231416, 47.355767346442], [8.734074031259587, 47.355832034272886], [8.734073931812185, 47.355832105439816], [8.73398117147289, 47.35589963898193], [8.733981063113298, 47.35589971939691], [8.733886555096026, 47.355971212608], [8.73388642583386, 47.35597131271436], [8.73379006726601, 47.35604771490055], [8.733789940510206, 47.35604781782659], [8.733692950535787, 47.35612847998035], [8.733692813486893, 47.35612859705248], [8.733597888720336, 47.35621190051438], [8.733597753824291, 47.356212022213185], [8.73350759571576, 47.35629565715833], [8.733507439752795, 47.356295806816576], [8.733424736710376, 47.35637792965415], [8.73342455983709, 47.35637811271719], [8.73335082110397, 47.356457716119564], [8.733350644674251, 47.35645791547003], [8.73328573492509, 47.356534757354915], [8.733285544200884, 47.35653499611161], [8.733229020067538, 47.356609952248036], [8.733228822006463, 47.356610233554804], [8.73317984727035, 47.3566849649374], [8.733179671914888, 47.356685253477835], [8.733136866273126, 47.35676153080747], [8.733136729267256, 47.356761794097544], [8.73309864512003, 47.35684109688986], [8.733098539226523, 47.356841334820764], [8.733064313862492, 47.35692474165773], [8.733064240673752, 47.35692493271616], [8.733032741095808, 47.357013404354355], [8.733032703393445, 47.35701351505156], [8.733002492058892, 47.35710641314048], [8.733002470352746, 47.357106481890504], [8.732972959916085, 47.3572028372053], [8.73297294665567, 47.35720288137494], [8.732943779375807, 47.35730203104132], [8.732943776548607, 47.35730204069519], [8.732914515540864, 47.357402407793174], [8.732914513726268, 47.35740241403559], [8.732885425843083, 47.357502773074486], [8.732856633297295, 47.357602048211184], [8.732828435613335, 47.357699541018754], [8.732801413166445, 47.357792892075786], [8.732817914391548, 47.35779509763045], [8.73284493693953, 47.357701746123745], [8.732873133704187, 47.35760425638598], [8.732901925894469, 47.357504982368404], [8.732931013142913, 47.3574046254119], [8.732960271803623, 47.35730426625718], [8.732989431131973, 47.35720514351589], [8.7330189242398, 47.35710884468424], [8.733049106341388, 47.35701603639658], [8.733080552067317, 47.35692771593401], [8.733114689246763, 47.356844523940026], [8.733152652849693, 47.35676547210806], [8.733195303357776, 47.35668947117813], [8.733244091216898, 47.35661502492145], [8.733300419469092, 47.35654032851331], [8.733365144436236, 47.35646370535337], [8.733438706100234, 47.35638429308007], [8.733521241898874, 47.35630233629176], [8.733611253994557, 47.356218836775355], [8.733706042714267, 47.3561356526864], [8.733802900541642, 47.356055100417], [8.733899131064378, 47.35597879974266], [8.733993519974108, 47.35590739662115], [8.734086176292726, 47.35583993879931], [8.734178051220944, 47.35577531148358], [8.734258592427755, 47.355720031258535], [8.73424664195414, 47.355711991132296], [8.734166064424032, 47.355767296279694]]]}}, {"type": "Feature", "properties": {"name": "UsterAutobahn 07"}, "geometry": {"type": "Polygon", "coordinates": [[[8.734182821056859, 47.355778432329416], [8.73418274886424, 47.35577848249173], [8.734091027729374, 47.35584300162913], [8.734090928281974, 47.35584307279608], [8.733998457886985, 47.35591039526186], [8.733998349527399, 47.35591047567687], [8.733904173507133, 47.35598171775717], [8.733904044244971, 47.35598181786356], [8.733808042582753, 47.3560579370813], [8.733807915826965, 47.35605804000737], [8.733711294190385, 47.35613839585397], [8.733711157141505, 47.356138512926115], [8.73361661158114, 47.356221483631984], [8.733616476685116, 47.356221605330816], [8.733526725558654, 47.356304862767466], [8.733526569595718, 47.35630501242575], [8.733444332713354, 47.3563866724031], [8.733444155840106, 47.356386855466155], [8.733370910651745, 47.356465926102466], [8.733370734222074, 47.35646612545297], [8.733306339514835, 47.35654235765211], [8.733306148790694, 47.35654259640883], [8.733250170635033, 47.356616828567965], [8.733249972574043, 47.356617109874755], [8.733201518714955, 47.3566910464877], [8.733201343359589, 47.35669133502817], [8.733158970110702, 47.356766841912666], [8.733158833104929, 47.356767105202756], [8.73312108493318, 47.356845708460504], [8.733120979039764, 47.35684594639144], [8.733086999448812, 47.35692875436794], [8.73308692626015, 47.35692894542641], [8.733055576753562, 47.35701699567112], [8.733055539051245, 47.35701710636834], [8.73302540916253, 47.35710975413898], [8.733025387456411, 47.35710982288901], [8.732995925282259, 47.35720602075657], [8.732995912021861, 47.357206064926224], [8.732966766864134, 47.35730513953784], [8.732966764036936, 47.3573051491917], [8.732937509530512, 47.35740549413911], [8.732937507715919, 47.35740550038152], [8.732908421836727, 47.35750585265589], [8.732879630520566, 47.35760512370151], [8.732851433344331, 47.357702614898905], [8.732824620694778, 47.35779524133448], [8.732841121921586, 47.35779744688583], [8.732867934673369, 47.35770481999743], [8.732896130929133, 47.357607331873865], [8.732924921891344, 47.35750806194205], [8.732954007134643, 47.35740771175403], [8.732983259293901, 47.3573073747504], [8.73301239650015, 47.357208327063866], [8.733041841345543, 47.357112185679455], [8.733071942001404, 47.357019627710095], [8.733103237656154, 47.356931728641044], [8.733137129062783, 47.35684913550753], [8.733174756690508, 47.356770783210216], [8.733216974806021, 47.356695552725505], [8.733265241788384, 47.356621901238576], [8.733321024063121, 47.35654792880785], [8.733385233988512, 47.35647191533377], [8.733458302107888, 47.356393035826606], [8.733540371746548, 47.356311541898634], [8.733629976860225, 47.3562284198908], [8.733724386373835, 47.35614556855789], [8.733820875863328, 47.35606532259578], [8.733916749480557, 47.35598930488985], [8.73401080639323, 47.355918152899235], [8.734103172767567, 47.35585090615376], [8.734194807858831, 47.35578644753154], [8.734276192222698, 47.355730588584585], [8.734264241744023, 47.35572254846019], [8.734182821056859, 47.355778432329416]]]}}, {"type": "Feature", "properties": {"name": "UsterAutobahn 08"}, "geometry": {"type": "Polygon", "coordinates": [[[8.734199577696211, 47.35578956837705], [8.734199505503597, 47.35578961853936], [8.734108024206883, 47.355853968982345], [8.734107924759485, 47.35585404014931], [8.734015744307543, 47.35592115153958], [8.734015635947962, 47.3559212319546], [8.73392179192543, 47.35599222290349], [8.733921662663278, 47.355992323009886], [8.733826017906246, 47.35606815925935], [8.733825891150467, 47.356068262185424], [8.733729637852024, 47.35614831172451], [8.733729500803161, 47.35614842879668], [8.733635334448582, 47.35623106674664], [8.733635199552575, 47.356231188445484], [8.733545855408348, 47.35631406837329], [8.733545699445436, 47.35631421803159], [8.73346392872281, 47.35639541514871], [8.733463751849598, 47.35639559821181], [8.73339100020568, 47.356474136081964], [8.733390823776057, 47.35647433543249], [8.73332694411056, 47.356549957945525], [8.733326753386484, 47.35655019670229], [8.733271321207994, 47.35662370488403], [8.733271123147091, 47.35662398619086], [8.733223190164583, 47.3566971280339], [8.733223014809317, 47.356697416574406], [8.733181073952741, 47.35677215301358], [8.733180936947063, 47.35677241630371], [8.733143524750277, 47.35685032002673], [8.733143418856953, 47.356850557957706], [8.733109685038585, 47.356932767073694], [8.73310961185, 47.35693295813218], [8.73307841241438, 47.357020586983474], [8.733078374712106, 47.3570206976807], [8.73304832626908, 47.3571130951329], [8.733048304562988, 47.35711316388293], [8.733018890651273, 47.35720920430307], [8.733018877390895, 47.3572092484727], [8.732989754355263, 47.357308248029454], [8.73298975152807, 47.35730825768332], [8.732960503523007, 47.357408580479955], [8.732960501708417, 47.35740858672235], [8.732931417833063, 47.3575089322327], [8.73290262774566, 47.357608199190196], [8.732874431080871, 47.35770568876459], [8.732847828225198, 47.35779759058848], [8.732864329453712, 47.357799796136526], [8.7328909324099, 47.357707893866504], [8.7329191281559, 47.35761040736013], [8.732947917890913, 47.35751114151106], [8.73297700112922, 47.35741079809108], [8.733006246786799, 47.35731048323934], [8.733035361871213, 47.357211510606916], [8.733064758454196, 47.35711552667008], [8.73309477766448, 47.35702321901919], [8.733125923248444, 47.356935741343584], [8.733159568882744, 47.35685374707062], [8.733196860535791, 47.35677609430808], [8.733238646259275, 47.35670163426879], [8.733286392365336, 47.35662877755188], [8.733341628663137, 47.356555529098614], [8.733405323546934, 47.35648012531077], [8.733477898122024, 47.35640177856983], [8.733559501601032, 47.356320747502174], [8.733648699732559, 47.356238003003256], [8.733742730040388, 47.35615548442637], [8.733838851191843, 47.35607554477178], [8.733934367903846, 47.35599981003425], [8.734028092818853, 47.35592890917506], [8.734120169250133, 47.355861873505184], [8.734211564503216, 47.355797583577434], [8.734293792024648, 47.355741145907935], [8.734281841540916, 47.35573310578538], [8.734199577696211, 47.35578956837705]]]}}, {"type": "Feature", "properties": {"name": "UsterAutobahn 09"}, "geometry": {"type": "Polygon", "coordinates": [[[8.734216334342621, 47.35580070442221], [8.734216262150005, 47.355800754584536], [8.734125020691144, 47.355864936333255], [8.73412492124375, 47.35586500750023], [8.734033030735699, 47.35593190781429], [8.73403292237612, 47.35593198822933], [8.733939410350265, 47.35600272804743], [8.73393928108812, 47.356002828153855], [8.733843993237116, 47.35607838143424], [8.733843866481347, 47.35607848436034], [8.733747981520544, 47.356158227592104], [8.733747844471694, 47.356158344664294], [8.733654057322804, 47.35624064985824], [8.733653922426816, 47.35624077155712], [8.733564985264563, 47.356323273976045], [8.733564829301677, 47.35632342363438], [8.733483524738848, 47.35640415789089], [8.733483347865674, 47.356404340954015], [8.733411089765857, 47.356482346057916], [8.733410913336284, 47.35648254540848], [8.733347548712109, 47.35655755823537], [8.733347357988096, 47.356557796992156], [8.733292471786543, 47.356630581196086], [8.733292273725727, 47.356630862502946], [8.73324486161918, 47.35670320957603], [8.73324468626401, 47.35670349811656], [8.73320317779923, 47.356777464110245], [8.733203040793647, 47.35677772740039], [8.733165964571278, 47.35685493158863], [8.733165858678046, 47.35685516951961], [8.733132370631816, 47.356936779774934], [8.733132297443307, 47.35693697083343], [8.733101248078384, 47.3570241782911], [8.733101210376157, 47.35702428898833], [8.733071243378529, 47.35711643612227], [8.733071221672468, 47.35711650487232], [8.733041856022968, 47.357212387845266], [8.733041842762608, 47.3572124320149], [8.733012741849208, 47.35731135651613], [8.733012739022021, 47.35731136617], [8.732983497518054, 47.357411666816695], [8.732983495703468, 47.35741167305908], [8.732954413836955, 47.357512011788124], [8.732925624974309, 47.3576112746713], [8.732897428815322, 47.35770876264213], [8.732871035757698, 47.3577999398378], [8.73288753698792, 47.35780214538251], [8.732913930149122, 47.35771096773093], [8.73294212538709, 47.35761348283583], [8.732970913893176, 47.35751422107547], [8.732999995125809, 47.35741388442587], [8.733029234282883, 47.35731359172208], [8.733058327244873, 47.35721469414595], [8.733087675565748, 47.35711886765618], [8.733117613330743, 47.357026810323546], [8.7331486088442, 47.35693975404159], [8.7331820087066, 47.35685835862938], [8.733218964385516, 47.35678140540171], [8.733260317717507, 47.356707715807985], [8.73330754294788, 47.35663565386114], [8.733362233268965, 47.35656312938585], [8.733425413111629, 47.356488335284205], [8.733497494142718, 47.35641052130963], [8.73357863146204, 47.35632995310265], [8.733667422611658, 47.35624758611268], [8.733761073713863, 47.35616540029185], [8.733856826527667, 47.35608576694468], [8.733951986333736, 47.35601031517624], [8.73404537925203, 47.35593966544793], [8.734137165739448, 47.355872840854275], [8.734228321154713, 47.35580871962082], [8.73431139183364, 47.35575170322859], [8.73429944134485, 47.35574366310788], [8.734216334342621, 47.35580070442221]]]}}, {"type": "Feature", "properties": {"name": "UsterAutobahn 10"}, "geometry": {"type": "Polygon", "coordinates": [[[8.734233090996076, 47.35581184046493], [8.734233018803463, 47.35581189062726], [8.734142017182743, 47.35587590368144], [8.73414191773535, 47.35587597484842], [8.734050317170608, 47.35594266408658], [8.734050208811036, 47.35594274450164], [8.733957028782344, 47.3560132331885], [8.733956899520205, 47.35601333329494], [8.733861968574685, 47.35608860360653], [8.733861841818927, 47.35608870653264], [8.73376632519577, 47.35616814345691], [8.733766188146937, 47.356168260529124], [8.733672780203799, 47.35625023296681], [8.73367264530783, 47.35625035466571], [8.733584115127579, 47.356332479575464], [8.73358395916472, 47.35633262923381], [8.733503120761268, 47.35641290062979], [8.733502943888134, 47.35641308369295], [8.733431179332287, 47.35649055603035], [8.733431002902758, 47.35649075538094], [8.733368153319692, 47.35656515852139], [8.733367962595745, 47.3565653972782], [8.733313622370519, 47.35663745750436], [8.73331342430979, 47.35663773881127], [8.733266533078796, 47.35670929111403], [8.733266357723725, 47.356709579654606], [8.733225281650139, 47.35678277520272], [8.733225144644654, 47.35678303849289], [8.733188404396236, 47.35685954314606], [8.733188298503096, 47.35685978107706], [8.733155056228512, 47.3569407924717], [8.733154983040079, 47.356940983530194], [8.73312408374549, 47.35702776959422], [8.733124046043308, 47.35702788029145], [8.733094160490918, 47.35711977710701], [8.733094138784883, 47.35711984585706], [8.733064821397468, 47.35721557138283], [8.733064808137126, 47.35721561555247], [8.733035729345692, 47.35731446499884], [8.733035726518507, 47.357314474652696], [8.733006491516212, 47.35741475314741], [8.733006489701632, 47.3574147593898], [8.732977409838686, 47.3575150913557], [8.732948622206793, 47.35761435014381], [8.732920426557243, 47.357711836498595], [8.732894243292284, 47.3578022890824], [8.73291074452421, 47.357804494623814], [8.732936927891034, 47.357714041590775], [8.73296512262125, 47.357616558305935], [8.732993909898136, 47.357517300635266], [8.733022989126049, 47.35741697075279], [8.733052221781403, 47.357316700201196], [8.733081292621357, 47.35721787768029], [8.733110592680239, 47.35712220863764], [8.733140449000107, 47.35703040162341], [8.733171294443409, 47.35694376673516], [8.733204448534426, 47.35686297018368], [8.73324106823967, 47.356786716491136], [8.733281989180757, 47.35671379734307], [8.733328693535844, 47.35664253016667], [8.73338283788084, 47.35657072966921], [8.73344550268256, 47.35649654525412], [8.73351709016981, 47.35641926404614], [8.73359776132985, 47.35633915869979], [8.733686145497533, 47.356257169219056], [8.733779417394032, 47.35617531615456], [8.733874801870241, 47.35609598911493], [8.73396960477082, 47.35602082031537], [8.734062665691965, 47.35595042171837], [8.734154162236127, 47.35588380820063], [8.734245077813197, 47.35581985566179], [8.734328991649647, 47.355762260546534], [8.7343170411558, 47.355754220427656], [8.734233090996076, 47.35581184046493]]]}}, {"type": "Feature", "properties": {"name": "UsterAutobahn 11"}, "geometry": {"type": "Polygon", "coordinates": [[[8.734249847656617, 47.35582297650515], [8.734249775464004, 47.355823026667494], [8.73415901368105, 47.3558868710273], [8.734158914233657, 47.3558869421943], [8.734067603612544, 47.355953420356244], [8.734067495252976, 47.355953500771314], [8.733974647221627, 47.35602373832667], [8.733974517959496, 47.35602383843313], [8.73387994391923, 47.356098825775945], [8.733879817163482, 47.356098928702075], [8.733784668878044, 47.35617805931864], [8.733784531829224, 47.35617817639087], [8.733691503091594, 47.3562598160723], [8.733691368195643, 47.35625993777121], [8.733603244997116, 47.35634168517183], [8.733603089034283, 47.35634183483021], [8.73352271679017, 47.35642164336535], [8.733522539917072, 47.35642182642856], [8.733451268905037, 47.35649876599917], [8.733451092475558, 47.3564989653498], [8.733388757933145, 47.356572758803786], [8.733388567209264, 47.35657299756065], [8.73333477296005, 47.356644333808674], [8.733334574899406, 47.35664461511561], [8.73328820454338, 47.35671537264798], [8.733288029188406, 47.35671566118858], [8.733247385505528, 47.35678808629087], [8.73324724850014, 47.356788349581066], [8.733210844225113, 47.35686415469913], [8.733210738332065, 47.35686439263015], [8.733177741828634, 47.35694480516404], [8.733177668640279, 47.356944996222566], [8.73314691941572, 47.35703136089277], [8.733146881713584, 47.35703147159002], [8.73311707760616, 47.35712311808733], [8.733117055900154, 47.357123186837384], [8.73308778677483, 47.3572187549155], [8.733087773514505, 47.35721879908515], [8.733058716844978, 47.35731757347664], [8.733058714017798, 47.357317583130495], [8.73302948551653, 47.35741783947536], [8.733029483701955, 47.35741784571775], [8.733000405844296, 47.35751817091459], [8.732971619440546, 47.357617425616674], [8.732943424299924, 47.35771491035708], [8.732917450828953, 47.35780463832233], [8.732933952062584, 47.357806843860416], [8.732959925635635, 47.357717115446], [8.732988119856397, 47.357619633777325], [8.73301690590579, 47.35752038019046], [8.733045983128317, 47.3574200570774], [8.733075209282557, 47.35731980867597], [8.733104258000742, 47.35722106120959], [8.733133509797586, 47.357125549614665], [8.733163284672596, 47.35703399291872], [8.733193980046051, 47.3569477794243], [8.733226888366168, 47.3568675817336], [8.733263172098301, 47.356792027576255], [8.733303660648971, 47.3567198788741], [8.733349844129377, 47.35664940646818], [8.733403442498572, 47.35657832994898], [8.733465592259813, 47.356504755220435], [8.73353668620338, 47.356428006779325], [8.733616891204179, 47.35634836429387], [8.733704868390204, 47.35626675232235], [8.733797761081247, 47.356185232014184], [8.73389277721976, 47.356106211282345], [8.733987223215143, 47.356031325451596], [8.734079952138947, 47.35596117798616], [8.734171158739487, 47.3558947755447], [8.7342618344788, 47.355830991700266], [8.734346591472665, 47.35577281786177], [8.734334640973758, 47.35576477774473], [8.734249847656617, 47.35582297650515]]]}}]}