{"type": "FeatureCollection", "features": [{"type": "Feature", "properties": {"name": "ABAugeRechts 01"}, "geometry": {"type": "Polygon", "coordinates": [[[8.57847309251727, 47.37839200128117], [8.57847317296511, 47.37839200743827], [8.57860451131021, 47.37840162489166], [8.578604601845983, 47.37840163118489], [8.578735556964876, 47.37841024797174], [8.578735649439633, 47.37841025370673], [8.578866432991203, 47.37841787022023], [8.5788665439426, 47.37841787617974], [8.578996967906255, 47.3784242921166], [8.578997089364407, 47.378424297491705], [8.579127117364187, 47.37842941038932], [8.57912723119434, 47.37842941433985], [8.579257285941647, 47.378433328024464], [8.579257498407358, 47.378433332591825], [8.57938984805518, 47.37843504097768], [8.579390101612068, 47.378435041654285], [8.579522966707316, 47.378434035862625], [8.579523261914701, 47.37843403010614], [8.579654443357974, 47.378429905536414], [8.579654708697202, 47.37842989433698], [8.579785613170426, 47.37842295700336], [8.57978585320519, 47.37842294192925], [8.579917288334162, 47.378413395800024], [8.57991750395968, 47.37841337822396], [8.58004858648953, 47.37840152555093], [8.580048788776303, 47.37840150555778], [8.580179791289831, 47.37838745164837], [8.580179949631246, 47.37838743360782], [8.580311410385995, 47.37837157803591], [8.580311582521391, 47.37837155601633], [8.580443626086902, 47.37835369602035], [8.580443772247113, 47.37835367533324], [8.580576067760141, 47.37833411686078], [8.580576205358525, 47.378334095695806], [8.580707993995212, 47.37831303358472], [8.580708135177312, 47.37831301014516], [8.580839724616798, 47.37829034306151], [8.580839862817484, 47.37829031840509], [8.580971305970712, 47.37826605506134], [8.580971414060299, 47.37826603458196], [8.58110293902251, 47.378240471421805], [8.581103063979631, 47.37824044642249], [8.581234580547251, 47.37821338127452], [8.581234682781817, 47.378213359752046], [8.58136594539058, 47.37818510322017], [8.581366031600007, 47.378185084314474], [8.58149471967331, 47.37815634230811], [8.581494768478299, 47.37815633129526], [8.581620736473377, 47.378127615794234], [8.58174553744238, 47.37809911557526], [8.581860902767206, 47.37807285809649], [8.581855557557018, 47.37806202267974], [8.581740188227117, 47.37808828106961], [8.581740180167817, 47.378088282907015], [8.581615381605765, 47.37811678257667], [8.5814894401465, 47.3781454920281], [8.58136081955312, 47.37817421896259], [8.581229651164666, 47.37820245521149], [8.581098248175985, 47.37822949698539], [8.580966839804692, 47.378255037484664], [8.580835519767986, 47.37827927810185], [8.58070407005075, 47.37830192111734], [8.580572420848906, 47.378322960944196], [8.580440267237908, 47.37834249843791], [8.580308382812953, 47.37836033690878], [8.580177087365534, 47.37837617254286], [8.580046265141593, 47.37839020711092], [8.579915391607415, 47.378402040886336], [8.579784184344133, 47.378411570465786], [8.579653532614827, 47.378418494405246], [8.579522631528853, 47.37842261016016], [8.579390040926496, 47.37842361387397], [8.579257924353117, 47.37842190849674], [8.57912803275919, 47.37841799972188], [8.578998122440458, 47.37841289145175], [8.578867814710188, 47.378406481232844], [8.578737132893723, 47.37839887064423], [8.578606269308624, 47.378390259880334], [8.578475016481235, 47.378380648689216], [8.578423448345239, 47.37837653109987], [8.578421484168722, 47.37838788048092], [8.57847309251727, 47.37839200128117]]]}}, {"type": "Feature", "properties": {"name": "ABAugeRechts 02"}, "geometry": {"type": "Polygon", "coordinates": [[[8.578470467117778, 47.37840782787143], [8.578470547565647, 47.37840783402852], [8.57860212423731, 47.37841746893385], [8.578602214773106, 47.37841747522709], [8.578733424999387, 47.37842610880003], [8.578733517474172, 47.378426114535], [8.578864584564482, 47.378433747561196], [8.578864695515907, 47.37843375352072], [8.578995443428536, 47.37844018539369], [8.578995564886728, 47.378440190768806], [8.579125920871654, 47.3784453165634], [8.579126034701837, 47.378445320513926], [8.579256544184169, 47.37844924788273], [8.579256756649942, 47.378449252450096], [8.579389755930864, 47.378450969221596], [8.579390009487826, 47.37845096989819], [8.579523639665265, 47.37844995831496], [8.57952393487274, 47.37844995255847], [8.579655897745749, 47.3784458034194], [8.579656163085055, 47.37844579221997], [8.579787772017161, 47.3784388175534], [8.579788012051994, 47.3784388024793], [8.579920082296834, 47.37842921022177], [8.579920297922415, 47.37842919264571], [8.580051962968726, 47.378417287300785], [8.580052165255557, 47.37841726730764], [8.580183670269937, 47.37840315949019], [8.5801838286114, 47.37840314144963], [8.580315750106424, 47.378387230307524], [8.580315922241867, 47.378387208287926], [8.580448409360976, 47.37836928829762], [8.580448555521228, 47.3783692676105], [8.58058124653216, 47.378349650667815], [8.580581384130584, 47.37834962950285], [8.58071356139315, 47.37832850528244], [8.580713702575292, 47.37832848184287], [8.580845681440934, 47.378305747677956], [8.580845819641654, 47.37830572302153], [8.580977605935571, 47.37828139633647], [8.580977714025186, 47.378281375857085], [8.581109563937238, 47.37825574953937], [8.581109688894394, 47.37825572454004], [8.581241522017475, 47.37822859424677], [8.581241624252067, 47.37822857272428], [8.581373149457534, 47.378200259663345], [8.58137323566698, 47.378200240757636], [8.581502111803701, 47.37817145674736], [8.581502160608702, 47.378171445734495], [8.581628196585601, 47.37814271473577], [8.5817529982838, 47.37811421435199], [8.58185797610281, 47.378090321104544], [8.581852630891483, 47.37807948568768], [8.581747649062196, 47.378103379847445], [8.5817476410031, 47.37810338168479], [8.581622841708192, 47.37813188152011], [8.581496832273848, 47.378160606467716], [8.581368023617204, 47.37818937540609], [8.581236592632035, 47.37821766818405], [8.581104873087952, 47.37824477510324], [8.580973139767027, 47.37827037876004], [8.580841476589665, 47.378294682718554], [8.58070963744637, 47.37831739281527], [8.580577599618794, 47.37833849475143], [8.580445050509992, 47.37835809071533], [8.580312722531598, 47.378375989180526], [8.580180966344024, 47.3783918803848], [8.580049641619398, 47.37840596886088], [8.579918185568939, 47.37841785530816], [8.57978634319, 47.3784274310159], [8.579654987002037, 47.37843439228828], [8.579523304486576, 47.37843853261253], [8.57938994880228, 47.37843954211792], [8.579257182596013, 47.378437828355054], [8.579126836267205, 47.37843390589602], [8.578996597963451, 47.378428784728904], [8.578865966284287, 47.378422358573886], [8.578735000929193, 47.378414731472574], [8.578603882236768, 47.37840610392259], [8.578472391082933, 47.37839647527955], [8.578418044419795, 47.378392135830936], [8.578416080241515, 47.37840348521186], [8.578470467117778, 47.37840782787143]]]}}, {"type": "Feature", "properties": {"name": "ABAugeRechts 03"}, "geometry": {"type": "Polygon", "coordinates": [[[8.578467841714167, 47.378423654461365], [8.578467922162057, 47.37842366061849], [8.578599737165197, 47.3784333129761], [8.578599827701021, 47.37843331926934], [8.578731293032591, 47.378441969628234], [8.578731385507407, 47.37844197536321], [8.578862736136605, 47.37844962490211], [8.578862847088063, 47.37844963086163], [8.57899391894988, 47.378456078670744], [8.578994040408112, 47.378456084045865], [8.579124724378365, 47.378461222737435], [8.579124838208582, 47.37846122668797], [8.579255802425719, 47.37846516774096], [8.579256014891557, 47.37846517230834], [8.579389663806863, 47.37846689746548], [8.579389917363908, 47.37846689814208], [8.579524312623239, 47.378465880767244], [8.579524607830802, 47.37846587501075], [8.579657352133978, 47.378461701302335], [8.579657617473362, 47.378461690102895], [8.579789930865582, 47.378454678103374], [8.579790170900493, 47.37845466302926], [8.579922876261152, 47.3784450246434], [8.579923091886796, 47.37844500706732], [8.580055339449398, 47.37843304905054], [8.580055541736288, 47.37843302905739], [8.580187549252308, 47.37841886733184], [8.580187707593815, 47.378418849291265], [8.580320089829975, 47.37840288257887], [8.58032026196547, 47.37840286055928], [8.58045319263718, 47.37838488057473], [8.58045333879747, 47.378384859887625], [8.580586425308585, 47.37836518447439], [8.580586562907047, 47.378365163309425], [8.580719128794309, 47.378343976979856], [8.580719269976486, 47.37834395354029], [8.580851638267827, 47.37832115229418], [8.580851776468586, 47.378321127637754], [8.580983905904933, 47.37829673761109], [8.580984013994577, 47.37829671713168], [8.581116188855047, 47.37827102765663], [8.581116313812236, 47.3782710026573], [8.581248463491645, 47.37824380721856], [8.581248565726264, 47.378243785696064], [8.58138035352857, 47.37821541610605], [8.581380439738039, 47.378215397200336], [8.581509503936513, 47.3781865711865], [8.581509552741528, 47.37818656017364], [8.581635656702055, 47.37815781367675], [8.581760459118973, 47.37812931313057], [8.581855049436792, 47.37810778411237], [8.581849704224323, 47.3780969486954], [8.581755109890794, 47.37811847862721], [8.581755101831899, 47.3781184804645], [8.581630301815729, 47.378146980462795], [8.581504224403611, 47.37817572090723], [8.581375227685262, 47.37820453184915], [8.581243534103391, 47.37823288115616], [8.581111498003063, 47.3782600532208], [8.58097943973377, 47.37828572003491], [8.58084743341411, 47.37831008733502], [8.58071520484526, 47.3783328645129], [8.580582778393053, 47.3783540285582], [8.58044983378422, 47.37837368299262], [8.580317062253341, 47.37839164145201], [8.580184845324784, 47.37840758822657], [8.580053018098688, 47.37842173061074], [8.579920979532119, 47.378433669729866], [8.57978850203754, 47.378443291565915], [8.57965644138971, 47.37845029017125], [8.579523977444325, 47.37845445506485], [8.579389856678382, 47.378455470361835], [8.579256440837943, 47.37845374821332], [8.579125639774462, 47.37844981207009], [8.578995073485512, 47.378444678006005], [8.578864117857234, 47.37843823591485], [8.578732868963364, 47.378430592300845], [8.57860149516572, 47.37842194796494], [8.578469765680474, 47.378412301869574], [8.578412640491132, 47.37840774056171], [8.57841067631109, 47.3784190899425], [8.578467841714167, 47.378423654461365]]]}}, {"type": "Feature", "properties": {"name": "ABAugeRechts 04"}, "geometry": {"type": "Polygon", "coordinates": [[[8.578465216310217, 47.378439481051295], [8.578465296758132, 47.37843948720841], [8.578597350091623, 47.37844915701827], [8.578597440627474, 47.37844916331152], [8.578729161064485, 47.37845783045635], [8.578729253539327, 47.37845783619133], [8.578860887706671, 47.3784655022429], [8.578860998658163, 47.378465508202424], [8.57899239447027, 47.37847197194769], [8.578992515928537, 47.37847197732281], [8.579123527884322, 47.37847712891141], [8.579123641714572, 47.37847713286194], [8.57925506066728, 47.378481087599155], [8.579255273133183, 47.37848109216652], [8.579389571682778, 47.37848282570932], [8.579389825239899, 47.37848282638591], [8.579524985581585, 47.37848180321948], [8.57952528078924, 47.37848179746298], [8.579658806523048, 47.37847759918521], [8.579659071862512, 47.37847758798576], [8.579792089715271, 47.37847053865322], [8.57979232975025, 47.37847052357911], [8.579925670227581, 47.3784608390649], [8.579925885853287, 47.378460821488815], [8.580058715932054, 47.3784488108002], [8.580058918219002, 47.378448790807035], [8.580191428236954, 47.37843457517331], [8.580191586578511, 47.37843455713275], [8.580324429555489, 47.37841853485006], [8.580324601691032, 47.378418512830464], [8.580457975916179, 47.378400472851624], [8.58045812207651, 47.378400452164485], [8.580591604088019, 47.37838071828069], [8.58059174168652, 47.378380697115716], [8.580724696198033, 47.37835944867711], [8.580724837380249, 47.37835942523753], [8.580857595098832, 47.378336556909964], [8.580857733299627, 47.37833653225352], [8.58099020587706, 47.37831207888548], [8.580990313966735, 47.37831205840608], [8.581122813777394, 47.37828630577333], [8.581122938734614, 47.378286280774], [8.581255404969765, 47.378259020189894], [8.58125550720441, 47.37825899866739], [8.581387557602714, 47.378230572548496], [8.581387643812207, 47.37823055364277], [8.581516896077076, 47.37820168562435], [8.581516944882104, 47.37820167461149], [8.581643116822741, 47.37817291261727], [8.58176791995908, 47.378144411908494], [8.581852122769167, 47.378125247119996], [8.58184677755556, 47.378114411702924], [8.581762570734575, 47.37813357740395], [8.58176256267588, 47.378133579241215], [8.581637761945933, 47.37816207940082], [8.58151161654117, 47.37819083534545], [8.581382431756477, 47.37821968829194], [8.581250475578695, 47.37824809412781], [8.581118122922723, 47.37827533133778], [8.580985739703276, 47.378301061309585], [8.580853390242675, 47.37832549195103], [8.580720772246668, 47.37834833621036], [8.580587957170337, 47.37836956236469], [8.580454617061259, 47.37838927526966], [8.580321401977073, 47.37840729372335], [8.5801887243078, 47.37842329606817], [8.580056394579948, 47.37843749236048], [8.579923773497406, 47.37844948415143], [8.579790660886362, 47.37845915211583], [8.57965789577821, 47.37846618805417], [8.57952465040245, 47.378470377517104], [8.579389764554398, 47.378471398605704], [8.57925569907988, 47.37846966807154], [8.57912444328098, 47.3784657182441], [8.578993549006588, 47.378460571283], [8.578862269428143, 47.37845411325569], [8.578730736996214, 47.378446453129015], [8.57859910809321, 47.37843779200717], [8.578467140277686, 47.37842812845958], [8.57840723655925, 47.37842334529214], [8.578405272377449, 47.378434694672805], [8.578465216310217, 47.378439481051295]]]}}, {"type": "Feature", "properties": {"name": "ABAugeRechts 05"}, "geometry": {"type": "Polygon", "coordinates": [[[8.578462590903396, 47.37845530764103], [8.578462671351334, 47.37845531379815], [8.578594963016586, 47.378465001060356], [8.578595053552469, 47.378465007353604], [8.578727029095067, 47.378473691284356], [8.578727121569932, 47.378473697019345], [8.578859039275589, 47.378481379583626], [8.578859150227116, 47.37848138554314], [8.578990869989713, 47.378487865224585], [8.578990991448016, 47.378487870599706], [8.579122331390437, 47.37849303508536], [8.579122445220724, 47.3784930390359], [8.579254318907878, 47.37849700745726], [8.579254531373843, 47.378497012024646], [8.579389479558197, 47.37849875395307], [8.57938973311539, 47.37849875462968], [8.579525658540653, 47.378497725671664], [8.579525953748396, 47.37849771991517], [8.579660260913347, 47.37849349706802], [8.57966052625289, 47.37849348586859], [8.57979424856579, 47.37848639920305], [8.57979448860084, 47.37848638412895], [8.579928464195175, 47.37847665348634], [8.579928679820947, 47.37847663591026], [8.580062092417188, 47.378464572549646], [8.580062294704197, 47.37846455255647], [8.580195307223262, 47.37845028301467], [8.58019546556486, 47.3784502649741], [8.58032876928411, 47.378434187121016], [8.580328941419705, 47.3784341651014], [8.580462759198628, 47.37841606512817], [8.580462905359003, 47.37841604444105], [8.580596782869073, 47.37839625208693], [8.58059692046761, 47.37839623092195], [8.580730263605655, 47.37837492037393], [8.580730404787914, 47.378374896934346], [8.580863551933279, 47.378351961525375], [8.58086369013411, 47.378351936868924], [8.5809965058528, 47.37832742015949], [8.580996613942505, 47.37832739968009], [8.581129438703536, 47.37830158388964], [8.581129563660792, 47.3783015588903], [8.581262346451886, 47.37827423316078], [8.58126244868656, 47.37827421163828], [8.581394761681976, 47.37824572899024], [8.581394847891492, 47.37824571008451], [8.581524288218251, 47.37821680006249], [8.581524337023291, 47.37821678904963], [8.581650576947665, 47.37818801155725], [8.581775380802489, 47.378159510686096], [8.581849196099922, 47.378142710127406], [8.581843850885175, 47.37813187471023], [8.581770031571406, 47.37814867618275], [8.581770023512915, 47.378148678019954], [8.581645222060178, 47.37817717834291], [8.581519008679415, 47.378205949783926], [8.581389635832785, 47.37823484473402], [8.581257417057985, 47.378263307099026], [8.581124747846157, 47.37829060945437], [8.580992039676401, 47.37831640258387], [8.580859347074716, 47.37834089656667], [8.580726339651953, 47.378363807907405], [8.58059313594929, 47.37838509617111], [8.580459400341715, 47.378404867546394], [8.580325741703867, 47.378422945994444], [8.580192603292538, 47.37843900390964], [8.58005977106369, 47.37845325411001], [8.579926567463847, 47.37846529857295], [8.579792819736006, 47.3784750126657], [8.579659350167946, 47.37848208593702], [8.5795253233613, 47.37848629996933], [8.579389672429917, 47.378487326849495], [8.579254957320845, 47.3784855879297], [8.579123246787665, 47.3784816244181], [8.578992024526725, 47.37847646455995], [8.578860420997913, 47.378469990596464], [8.578728605027703, 47.37846231395708], [8.578596721019267, 47.37845363604933], [8.57846451487202, 47.3784439550494], [8.578401832624152, 47.37843895002231], [8.578399868440588, 47.37845029940284], [8.578462590903396, 47.37845530764103]]]}}, {"type": "Feature", "properties": {"name": "ABAugeRechts 06"}, "geometry": {"type": "Polygon", "coordinates": [[[8.578459965497496, 47.378471134230836], [8.57846004594546, 47.37847114038796], [8.578592575937837, 47.378480845102146], [8.578592666473742, 47.3784808513954], [8.578724897124333, 47.378489552112306], [8.578724989599227, 47.378489557847274], [8.578857190844296, 47.37849725692429], [8.578857301795857, 47.378497262883826], [8.578989345508205, 47.3785037585014], [8.578989466966542, 47.37850376387653], [8.57912113489489, 47.37850894125922], [8.579121248725212, 47.37850894520975], [8.579253577148481, 47.37851292731535], [8.57925378961451, 47.37851293188272], [8.579389387433935, 47.37851468219684], [8.579389640991208, 47.37851468287344], [8.579526331499746, 47.37851364812381], [8.579526626707576, 47.3785136423673], [8.579661715304102, 47.378509394950775], [8.579661980643728, 47.37850938375133], [8.57979640741843, 47.37850225975272], [8.57979664745355, 47.3785022446786], [8.57993125816394, 47.378492467907684], [8.579931473789774, 47.378492450331606], [8.580065468904301, 47.37848033429897], [8.58006567119137, 47.37848031430578], [8.580199186211827, 47.3784659908559], [8.580199344553472, 47.378465972815334], [8.580333109015271, 47.37844983939176], [8.580333281150912, 47.37844981737215], [8.580467542483202, 47.3784316574046], [8.580467688643617, 47.378431636717465], [8.580601961654542, 47.37841178589271], [8.580602099253122, 47.37841176472772], [8.58073583101584, 47.37839039207053], [8.580735972198132, 47.378390368630946], [8.580869508771178, 47.37836736614047], [8.580869646972051, 47.37836734148402], [8.58100280583217, 47.37834276143313], [8.581002913921903, 47.37834274095372], [8.58113606363348, 47.37831686200553], [8.581136188590767, 47.378316837006174], [8.581269287937957, 47.37828944613124], [8.581269390172658, 47.37828942460873], [8.581401965765341, 47.3782608854315], [8.581402051974878, 47.37826086652578], [8.581531680365437, 47.37823191449973], [8.581531729170488, 47.378231903486856], [8.581658037076819, 47.37820311049672], [8.581782841660848, 47.37817460946077], [8.58184494336111, 47.378160474951585], [8.58183959814546, 47.378149639534236], [8.58177749242342, 47.37816377495853], [8.581777484365134, 47.378163776795695], [8.581652682179536, 47.378192277284285], [8.581526400823629, 47.37822106422152], [8.581396839913195, 47.378250001175644], [8.581264358541207, 47.378278520069806], [8.581131372773394, 47.378305887570555], [8.580998339653226, 47.37833174385777], [8.580865303910109, 47.37835630118202], [8.580731907059901, 47.378379279604204], [8.580598314732574, 47.37840062997709], [8.58046418362431, 47.378420459822976], [8.580330081433257, 47.37843859826532], [8.580196482279469, 47.378454711751], [8.580063147549408, 47.37846901585944], [8.579929361431477, 47.378481112994365], [8.579794978587781, 47.378490873215426], [8.579660804558133, 47.37849798381982], [8.579525996320168, 47.378502222421496], [8.579389580305756, 47.37850325509329], [8.579254215561827, 47.3785015077878], [8.579122050292673, 47.378497530592014], [8.578990500045911, 47.37849235783682], [8.578858572567455, 47.3784858679372], [8.578726473057952, 47.37847817478509], [8.578594333941554, 47.37846948009119], [8.5784618894673, 47.37845978163928], [8.578396428685837, 47.378454554752125], [8.578394464500509, 47.37846590413253], [8.578459965497496, 47.378471134230836]]]}}, {"type": "Feature", "properties": {"name": "ABAugeRechts 07"}, "geometry": {"type": "Polygon", "coordinates": [[[8.57845734008747, 47.37848696082036], [8.57845742053546, 47.378486966977476], [8.578590188859879, 47.37849668914402], [8.578590279395812, 47.378496695437285], [8.578722765152298, 47.378505412940136], [8.57872285762722, 47.378505418675125], [8.578855342410925, 47.37851313426485], [8.578855453362518, 47.378513140224385], [8.578987821026605, 47.378519651778205], [8.578987942484979, 47.37851965715334], [8.579119938398593, 47.37852484743301], [8.579120052228948, 47.37852485138356], [8.579252835388605, 47.378528847173385], [8.5792530478547, 47.37852885174076], [8.57938929530918, 47.37853061044052], [8.579389548866525, 47.37853061111713], [8.579527004459212, 47.37852957057589], [8.57952729966713, 47.37852956481939], [8.5796631696957, 47.378525292833466], [8.579663435035402, 47.37852528163401], [8.579798566271904, 47.37851812030236], [8.579798806307098, 47.378518105228224], [8.579934052134812, 47.3785082823289], [8.57993426776071, 47.378508264752824], [8.580068845393406, 47.378496096048146], [8.580069047680531, 47.378496076054965], [8.580203065203296, 47.378481698696866], [8.580203223544984, 47.378481680656286], [8.580337448748402, 47.378465491662375], [8.580337620884094, 47.378465469642755], [8.580472325770563, 47.37844724968078], [8.58047247193102, 47.37844722899365], [8.580607140443018, 47.37842731969821], [8.580607278041635, 47.378427298533225], [8.58074139842924, 47.37840586376687], [8.580741539611571, 47.378405840327275], [8.58087546561252, 47.37838277075522], [8.580875603813428, 47.37838274609876], [8.581009105816038, 47.37835810270623], [8.5810092139058, 47.378358082226825], [8.581142688566493, 47.37833214012116], [8.581142813523813, 47.3783321151218], [8.581276229428, 47.37830465910123], [8.581276331662725, 47.37830463757872], [8.581409169852812, 47.37827604187227], [8.581409256062368, 47.37827602296653], [8.581539072515005, 47.378247028936876], [8.58153912132007, 47.378247017924004], [8.58166549721021, 47.37821820943568], [8.581790302502002, 47.3781897082398], [8.581839074722636, 47.37817860755819], [8.581833729506386, 47.37816777214059], [8.581784953268722, 47.37817887373629], [8.581784945210636, 47.37817887557341], [8.581660142324209, 47.37820737622034], [8.58153379297008, 47.378236178659044], [8.581404043997797, 47.378265157616724], [8.581271300028412, 47.37829373304012], [8.581137997703667, 47.378321165686486], [8.581004639634509, 47.37834708513113], [8.580871260749023, 47.37837170579701], [8.580737474470991, 47.378394751300775], [8.580603493518907, 47.37841616378279], [8.580468966909695, 47.37843605209934], [8.580334421164572, 47.378454250536095], [8.580200361269348, 47.37847041959207], [8.580066524037116, 47.37848477760871], [8.579932155401195, 47.378496927415675], [8.579797137440389, 47.37850673376512], [8.57966225894917, 47.378513881702546], [8.579526669279408, 47.37851814487362], [8.579389488181102, 47.37851918333701], [8.579253473802327, 47.37851742764589], [8.579120853796931, 47.378513436765836], [8.578988975565013, 47.37850825111367], [8.578856724134916, 47.3785017452778], [8.578724341086863, 47.378494035613], [8.578591946864655, 47.37848532413314], [8.578459264058463, 47.37847560822889], [8.578391024744302, 47.378470159481665], [8.57838906055721, 47.37848150886193], [8.57845734008747, 47.37848696082036]]]}}, {"type": "Feature", "properties": {"name": "ABAugeRechts 08"}, "geometry": {"type": "Polygon", "coordinates": [[[8.578454714675834, 47.37850278740976], [8.578454795123847, 47.37850279356688], [8.578587801780463, 47.378512533185805], [8.57858789231642, 47.37851253947904], [8.578720633178941, 47.378521273767916], [8.578720725653891, 47.378521279502884], [8.578853493976421, 47.37852901160533], [8.57885360492805, 47.37852901756485], [8.578986296543201, 47.378535545054895], [8.57898641800161, 47.37853555043003], [8.579118741902455, 47.3785407536068], [8.579118855732844, 47.378540757557325], [8.579252093627764, 47.37854476703135], [8.579252306093922, 47.378544771598726], [8.579389203184334, 47.37854653868417], [8.579389456741758, 47.378546539360784], [8.579527677419403, 47.378545493027936], [8.57952797262741, 47.37854548727142], [8.579664624088526, 47.37854119071609], [8.579664889428308, 47.378541179516645], [8.579800725126216, 47.37853398085192], [8.57980096516148, 47.3785339657778], [8.579936846107328, 47.37852409675], [8.57993706173329, 47.3785240791739], [8.580072221883986, 47.37851185779723], [8.580072424171172, 47.37851183780404], [8.580206944197043, 47.37849740653767], [8.580207102538779, 47.37849738849708], [8.580341788484642, 47.37848114393273], [8.580341960620384, 47.3784811219131], [8.580477109061382, 47.37846284195666], [8.580477255221881, 47.378462821269515], [8.580612319233795, 47.378442853503564], [8.580612456832451, 47.378442832338564], [8.580746965845886, 47.378421335462896], [8.580747107028257, 47.37842131202328], [8.58088142245729, 47.37839817536963], [8.580881560658238, 47.37839815071316], [8.581015405802678, 47.37837344397912], [8.581015513892467, 47.37837342349969], [8.581149313504023, 47.37834741823622], [8.581149438461377, 47.37834739323686], [8.58128317092202, 47.37831987207077], [8.581283273156771, 47.378319850548245], [8.58141637394438, 47.378291198312574], [8.581416460153962, 47.37829117940684], [8.581546464670591, 47.378262143373114], [8.581546513475669, 47.37826213236024], [8.581672957347836, 47.378233308374135], [8.581797763369064, 47.37820480701339], [8.58183320608069, 47.37819674016428], [8.581827860863832, 47.37818590474645], [8.581792414129204, 47.37819397251104], [8.58179240607132, 47.378193974348115], [8.581667602451152, 47.37822247516091], [8.581541185122658, 47.37825129309565], [8.581411248086395, 47.378280314057385], [8.581278241519637, 47.37830894600995], [8.581144622638499, 47.37833644380184], [8.581010939618558, 47.37836242640429], [8.58087721759131, 47.378387110411666], [8.580743041885375, 47.37841022299699], [8.580608672307532, 47.37843169758832], [8.580473750198525, 47.378451644375374], [8.580338760899025, 47.37846990280657], [8.580204240261489, 47.37848612743298], [8.580069900526304, 47.37850053935789], [8.579934949372577, 47.37851274183684], [8.57979929629382, 47.37852259431475], [8.579663713341432, 47.378529779585214], [8.579527342239377, 47.37853406732569], [8.579389396056358, 47.37853511158068], [8.579252732041859, 47.37853334750389], [8.579119657301352, 47.37852934293966], [8.578987451082304, 47.37852414439041], [8.578854875701257, 47.37851762261834], [8.578722209114463, 47.378509896440825], [8.578589559786296, 47.378501168174985], [8.57845663864798, 47.378491434818365], [8.578385620799546, 47.37848576421091], [8.578383656610693, 47.37849711359105], [8.578454714675834, 47.37850278740976]]]}}, {"type": "Feature", "properties": {"name": "ABAugeRechts 09"}, "geometry": {"type": "Polygon", "coordinates": [[[8.57845208926387, 47.37851861399914], [8.578452169711904, 47.37851862015625], [8.57858541469958, 47.378528377227475], [8.578585505235564, 47.378528383520724], [8.57871850120317, 47.378537134595504], [8.578718593678149, 47.378537140330494], [8.578851645542631, 47.37854488894581], [8.57885175649429, 47.37854489490535], [8.578984772058002, 47.37855143833148], [8.578984893516445, 47.378551443706606], [8.579117545404651, 47.378556659780465], [8.579117659235076, 47.37855666373101], [8.57925135186693, 47.378560686889294], [8.579251564333152, 47.37856069145667], [8.57938911105981, 47.37856246692778], [8.579389364617306, 47.378562467604375], [8.579528350379611, 47.37856141547996], [8.57952864558771, 47.37856140972344], [8.579666078481806, 47.37855708859868], [8.57966634382167, 47.378557077399215], [8.57980288398222, 47.37854984140138], [8.579803124017552, 47.37854982632726], [8.579939640081479, 47.37853991117102], [8.579939855707506, 47.37853989359492], [8.58007559837705, 47.378527619546134], [8.580075800664293, 47.37852759955294], [8.580210823193058, 47.37851311437832], [8.580210981534842, 47.378513096337734], [8.58034612822285, 47.378496796202924], [8.580346300358638, 47.37849677418328], [8.580481892354326, 47.378478434232385], [8.580482038514868, 47.378478413545224], [8.580617498027605, 47.37845838730863], [8.580617635626298, 47.37845836614362], [8.580752533267098, 47.3784368071584], [8.580752674449512, 47.37843678371879], [8.580887379304832, 47.37841357998382], [8.580887517505813, 47.378413555327356], [8.581021705792944, 47.37838878525162], [8.581021813882765, 47.3783887647722], [8.58115593844537, 47.37836269635086], [8.581156063402755, 47.37836267135148], [8.58129011241999, 47.37833508503988], [8.58129021465477, 47.37833506351735], [8.581423578040033, 47.3783063547524], [8.581423664249638, 47.378306335846645], [8.581553856828602, 47.37827725780923], [8.58155390563369, 47.378277246796344], [8.581680417489693, 47.37824840731205], [8.581805224230344, 47.37821990578872], [8.58182733789054, 47.378214872666256], [8.581821992673083, 47.378204037248175], [8.581799874983208, 47.37820907128773], [8.581799866925525, 47.378209073124744], [8.581675062582766, 47.37823757410085], [8.581548577277697, 47.37826640753212], [8.581418452179111, 47.37829547049755], [8.58128518301474, 47.37832415897939], [8.581151247577164, 47.37835172191677], [8.581017239606192, 47.37837776767707], [8.580883174436453, 47.37840251502608], [8.580748609304237, 47.37842569469272], [8.58061385109923, 47.37844723139357], [8.580478533489472, 47.378467236651254], [8.580343100635455, 47.378485555076914], [8.580208119255873, 47.37850183527377], [8.580073277017986, 47.378516301106885], [8.579937743345567, 47.378528556257926], [8.579801455148965, 47.37853845486427], [8.579665167734143, 47.37854567746784], [8.579528015199362, 47.37854998977774], [8.579389303931933, 47.37855103982434], [8.579251990281405, 47.37854926736187], [8.579118460804105, 47.37854524911337], [8.5789859265978, 47.378540037667044], [8.578853027268291, 47.37853349995889], [8.578720077139664, 47.37852575726849], [8.578587172706477, 47.37851701221671], [8.57845401323716, 47.37850726140781], [8.578380216851572, 47.3785013689398], [8.578378252660961, 47.37851271831981], [8.57845208926387, 47.37851861399914]]]}}, {"type": "Feature", "properties": {"name": "ABAugeRechts 10"}, "geometry": {"type": "Polygon", "coordinates": [[[8.578449463850294, 47.37853444058844], [8.578449544298351, 47.37853444674557], [8.578583027614984, 47.3785442212689], [8.578583118150997, 47.37854422756216], [8.578716369228307, 47.37855299542315], [8.57871646170331, 47.37855300115814], [8.578849797105844, 47.37856076628614], [8.578849908057537, 47.37856077224567], [8.5789832475727, 47.378567331608046], [8.578983369031183, 47.37856733698318], [8.579116348907009, 47.378572565954116], [8.579116462737463, 47.378572569904655], [8.579250610105131, 47.37857660674715], [8.579250822571415, 47.37857661131454], [8.579389018935194, 47.37857839517135], [8.579389272492774, 47.37857839584796], [8.579529023340196, 47.37857733793189], [8.579529318548378, 47.37857733217538], [8.579667532875929, 47.37857298648118], [8.579667798215871, 47.37857297528173], [8.579805042839483, 47.37856570195076], [8.57980528287489, 47.378565686876634], [8.579942434057273, 47.378555725591895], [8.579942649683362, 47.3785557080158], [8.580078974872094, 47.3785433812949], [8.580079177159398, 47.37854336130171], [8.580214702190718, 47.37852882221885], [8.580214860532543, 47.37852880417825], [8.580350467964168, 47.37851244847288], [8.58035064010001, 47.37851242645324], [8.580486675650064, 47.378494026507866], [8.580486821810645, 47.378494005820706], [8.58062267682512, 47.37847392111333], [8.580622814423853, 47.37847389994831], [8.580758100690195, 47.378452278853814], [8.580758241872644, 47.378452255414196], [8.580893336156494, 47.37842898459756], [8.580893474357516, 47.37842895994109], [8.581028005786823, 47.37840412652377], [8.581028113876672, 47.37840410604433], [8.581162563390519, 47.3783779744651], [8.581162688347938, 47.37837794946572], [8.581297053921913, 47.37835029800853], [8.581297156156717, 47.378350276485996], [8.581430782139831, 47.37832151119173], [8.581430868349456, 47.37832149228597], [8.581561248992585, 47.37829237224446], [8.581561297797686, 47.378292361231566], [8.581687877635783, 47.378263506249496], [8.581812685083037, 47.3782350045665], [8.58182147430917, 47.37823300411796], [8.5818161290911, 47.37822216869966], [8.581807335841205, 47.378224170063966], [8.581807327783729, 47.378224171900946], [8.581682522738822, 47.37825267303567], [8.581555969438675, 47.3782815219677], [8.581425656275998, 47.37831062693721], [8.581292124513846, 47.37833937194835], [8.581157872519587, 47.378367000031304], [8.58102353959751, 47.378393108949474], [8.580889131285613, 47.37841791964007], [8.58075417672508, 47.378441166388335], [8.580619029894581, 47.378462765198464], [8.580483316783244, 47.3784828289269], [8.58034744037495, 47.378501207347014], [8.580211998251958, 47.378517543114405], [8.580076653511624, 47.378532062855754], [8.579940537320224, 47.37854437067889], [8.579803614005355, 47.3785543154137], [8.579666622127704, 47.37856157535039], [8.579528688159723, 47.37856591222972], [8.57938921180742, 47.378566968067936], [8.57925124851998, 47.37856518721978], [8.579117264307008, 47.37856115528706], [8.578984402113207, 47.378555930943655], [8.578851178832343, 47.37854937729927], [8.578717945165735, 47.378541618096214], [8.578584785622954, 47.378532856258225], [8.578451387824726, 47.378523087997195], [8.578376559693375, 47.37851711314636], [8.578374595501376, 47.37852846252628], [8.578449463850294, 47.37853444058844]]]}}, {"type": "Feature", "properties": {"name": "ABAugeRechts 11"}, "geometry": {"type": "Polygon", "coordinates": [[[8.578446838435122, 47.3785502671776], [8.578446918883204, 47.37855027333473], [8.578580640531172, 47.378560065310374], [8.578580731067213, 47.37856007160363], [8.578714237251026, 47.37856885625066], [8.578714329726058, 47.37856886198564], [8.57884794866791, 47.37857664362639], [8.578848059619636, 47.378576649585916], [8.578981723087303, 47.37858322488458], [8.578981844545822, 47.37858323025971], [8.579115152406796, 47.37858847212763], [8.579115266237286, 47.37858847607817], [8.57924986834334, 47.37859252660498], [8.579250080809688, 47.37859253117235], [8.579388926810084, 47.37859432341487], [8.579389180367738, 47.37859432409147], [8.5795296963015, 47.378593260383816], [8.579529991509776, 47.3785932546273], [8.579668987271283, 47.378588884363644], [8.579669252611305, 47.378588873164176], [8.579807201697585, 47.3785815625001], [8.579807441733061, 47.37858154742595], [8.579945228035175, 47.37857154001266], [8.579945443661328, 47.378571522436545], [8.58008235136862, 47.37855914304359], [8.580082553655982, 47.37855912305037], [8.580218581190657, 47.378544530059244], [8.580218739532532, 47.37854451201865], [8.580354807708016, 47.37852810074262], [8.580354979843904, 47.37852807872297], [8.580491458948599, 47.37850961878311], [8.58049160510922, 47.378509598095945], [8.580627855625645, 47.378489454917776], [8.580627993224414, 47.37848943375277], [8.580763668116518, 47.37846775054894], [8.58076380929901, 47.37846772710931], [8.580899293011594, 47.37844438921094], [8.580899431212654, 47.378444364554454], [8.5810343057852, 47.378419467795354], [8.581034413875075, 47.37841944731589], [8.581169188338718, 47.378393252579095], [8.581169313296172, 47.3783932275797], [8.581303995427835, 47.37836551097673], [8.581304097662668, 47.37836548945419], [8.581437986242676, 47.37833666763082], [8.581438072452324, 47.37833664872505], [8.581568641160727, 47.378307486679184], [8.58156868996584, 47.37830747566629], [8.581695337786112, 47.378278605186395], [8.581815620317371, 47.37825113684155], [8.581810258984149, 47.37824030509685], [8.581689982880233, 47.37826777197431], [8.581563361603774, 47.378296636402794], [8.581432860375912, 47.378325783376646], [8.581299066016935, 47.37835458491687], [8.581164497465052, 47.378382278145594], [8.581029839593333, 47.378408450221315], [8.58089508813828, 47.37843332425369], [8.580759744149075, 47.37845663808369], [8.580624208692965, 47.3784782990031], [8.580488100079815, 47.378498421202316], [8.580351780117002, 47.378516859616894], [8.580215877250257, 47.37853325095492], [8.580080030006775, 47.378547824604524], [8.579943331296981, 47.3785601850997], [8.579805772862588, 47.37857017596308], [8.579668076522491, 47.378577473232895], [8.579529361120805, 47.37858183468167], [8.579389119682412, 47.378582896311485], [8.579250506758568, 47.37858110707763], [8.579116067807353, 47.37857706146063], [8.578982877628508, 47.37857182422023], [8.578849330395245, 47.378565254639575], [8.578715813189415, 47.378557478923774], [8.5785823985402, 47.37854870029977], [8.578448762410725, 47.37853891458644], [8.578375928294097, 47.378533098953646], [8.578373964101342, 47.378544448333514], [8.578446838435122, 47.3785502671776]]]}}, {"type": "Feature", "properties": {"name": "ABAugeRechts 12"}, "geometry": {"type": "Polygon", "coordinates": [[[8.57844421301708, 47.37856609376659], [8.578444293465187, 47.37856609992371], [8.578578253445903, 47.37857590935178], [8.578578343981969, 47.37857591564504], [8.578712105272437, 47.37858471707806], [8.578712197747496, 47.378584722813066], [8.578846100228835, 47.37859252096654], [8.578846211180593, 47.378592526926084], [8.578980198600107, 47.378599118161006], [8.578980320058662, 47.37859912353613], [8.579113955907646, 47.378604378301176], [8.579114069738171, 47.37860438225172], [8.579249126580583, 47.37860844646274], [8.579249339046994, 47.378608451030125], [8.579388834685297, 47.37861025165833], [8.579389088243026, 47.37861025233494], [8.579530369262828, 47.37860918283565], [8.579530664471191, 47.378609177079134], [8.579670441667089, 47.37860478224603], [8.579670707007194, 47.37860477104657], [8.579809360557375, 47.37859742304932], [8.579809600592924, 47.37859740797517], [8.57994802201425, 47.37858735443333], [8.579948237640464, 47.37858733685723], [8.580085727867624, 47.37857490479209], [8.580085930155049, 47.37857488479887], [8.580222460193491, 47.37856023789937], [8.58022261853541, 47.37856021985876], [8.580359147453843, 47.37854375301225], [8.580359319589784, 47.378543730992604], [8.580496242250584, 47.37852521105805], [8.580496388411245, 47.37852519037088], [8.580633034427787, 47.378504988722156], [8.580633172026598, 47.378504967557134], [8.580769235546734, 47.37848322224364], [8.580769376729261, 47.378483198804005], [8.580905249870145, 47.37845979382398], [8.580905388071242, 47.378459769167485], [8.581040605786349, 47.378434809066725], [8.581040713876256, 47.37843478858728], [8.581175813291464, 47.3784085306925], [8.58117593824895, 47.37840850569311], [8.581310936937708, 47.378380723944474], [8.581311039172565, 47.378380702421936], [8.58144519035066, 47.3783518240692], [8.581445276560332, 47.378351805163426], [8.58157603333311, 47.378322601113396], [8.581576082138236, 47.3783225901005], [8.581702797940668, 47.3782937041228], [8.58174481322305, 47.37828410931301], [8.581739451901457, 47.37827327756501], [8.58169744304387, 47.37828287090831], [8.581570753773226, 47.37831175083735], [8.58144006448092, 47.37834093981538], [8.581306007523994, 47.37836979788494], [8.581171122415112, 47.37839755625929], [8.581036139591847, 47.37842379149298], [8.580901044994395, 47.37844872886698], [8.580765311577002, 47.37847210977861], [8.580629387492964, 47.378493832807656], [8.580492883379815, 47.378514013477414], [8.580356119861015, 47.37853251188666], [8.58021975625151, 47.378548958795164], [8.580083406504373, 47.378563586353124], [8.579946125274915, 47.37857599952046], [8.579807931721508, 47.37858603651237], [8.579669530917734, 47.37859337111533], [8.579530034081914, 47.37859775713355], [8.579389027557728, 47.37859882455497], [8.579249764996181, 47.37859702693543], [8.579114871308768, 47.37859296763422], [8.57898135314201, 47.3785877174967], [8.578847481957, 47.37858113197979], [8.578713681211777, 47.37857333975124], [8.578580011455998, 47.37856454434124], [8.578446136993866, 47.3785547411755], [8.578375296894402, 47.378549084760905], [8.578373332700894, 47.37856043414074], [8.57844421301708, 47.37856609376659]]]}}, {"type": "Feature", "properties": {"name": "ABAugeRechts 13"}, "geometry": {"type": "Polygon", "coordinates": [[[8.578441587599974, 47.378581920355614], [8.578441668048102, 47.37858192651274], [8.57857586635691, 47.37859175339288], [8.578575956893001, 47.37859175968614], [8.578709973292527, 47.37860057790539], [8.578710065767618, 47.378600583640385], [8.57884425178955, 47.378608398306696], [8.57884436274134, 47.37860840426623], [8.578978674111962, 47.37861501143737], [8.578978795570556, 47.378615016812496], [8.579112759407746, 47.37862028447466], [8.579112873238305, 47.378620288425196], [8.579248384817346, 47.378624366320466], [8.57924859728382, 47.37862437088784], [8.57938874256042, 47.37862617990176], [8.579388996118224, 47.378626180578365], [8.57953104222453, 47.378625105287476], [8.579531337432984, 47.37862509953097], [8.579671896063743, 47.37862068012837], [8.579672161403924, 47.37862066892891], [8.579811519418426, 47.37861328359847], [8.579811759454048, 47.37861326852431], [8.579950815994959, 47.378603168853914], [8.57995103162124, 47.3786031512778], [8.580089104368115, 47.37859066654049], [8.580089306655596, 47.37859064654727], [8.580226339198608, 47.37857594573935], [8.580226497540574, 47.37857592769874], [8.580363487202783, 47.37855940528159], [8.58036365933877, 47.37855938326194], [8.580501025554682, 47.37854080333284], [8.580501171715387, 47.378540782645665], [8.580638213234351, 47.37852052252606], [8.580638350833201, 47.37852050136103], [8.580774802979517, 47.378498693938155], [8.580774944162082, 47.378498670498516], [8.580911206732127, 47.378475198436696], [8.580911344933261, 47.3784751737802], [8.581046905791109, 47.37845015033774], [8.581047013881046, 47.37845012985829], [8.581182438248016, 47.3784238088055], [8.58118256320553, 47.3784237838061], [8.581317878451564, 47.3783959369118], [8.581317980686453, 47.378395915389234], [8.581452394462746, 47.37836698050708], [8.581452480672437, 47.378366961601316], [8.581583425507878, 47.378337715547524], [8.581583474313017, 47.378337704534616], [8.581665654347546, 47.37831897089471], [8.581660301585949, 47.37830813719298], [8.581578145944912, 47.37832686527185], [8.581447268590136, 47.3783560962536], [8.581312949034949, 47.37838501085259], [8.581177747368995, 47.378412834372575], [8.581042439594002, 47.37843913276426], [8.580907001853916, 47.37846413347993], [8.580770879007497, 47.37848758147332], [8.580634566297386, 47.37850936661175], [8.580497666681923, 47.37852960575237], [8.58036045960817, 47.37854816415614], [8.580223635255011, 47.378564666635256], [8.580086783003475, 47.37857934810164], [8.579948919254479, 47.378591813941114], [8.579810090581686, 47.37860189706157], [8.579670985313825, 47.3786092689977], [8.579530707043387, 47.37861367958541], [8.579388935432952, 47.37861475279844], [8.57924902323332, 47.378612946793176], [8.579113674809419, 47.37860887380774], [8.578979828654573, 47.378603610773126], [8.578845633518547, 47.378597009319996], [8.578711549232844, 47.378589200578645], [8.57857762436805, 47.37858038838242], [8.578443511577891, 47.378570567764605], [8.578374665494291, 47.378565070568094], [8.578372701300035, 47.37857641994788], [8.578441587599974, 47.378581920355614]]]}}, {"type": "Feature", "properties": {"name": "ABAugeRechts 14"}, "geometry": {"type": "Polygon", "coordinates": [[[8.578438962178716, 47.378597746944386], [8.57843904262687, 47.37859775310151], [8.578573479268725, 47.378607597434076], [8.578573569804844, 47.37860760372734], [8.578707841311314, 47.378616438732614], [8.578707933786427, 47.37861644446761], [8.578842403349121, 47.37862427564676], [8.578842514300945, 47.37862428160629], [8.57897714962202, 47.37863090471361], [8.57897727108065, 47.37863091008874], [8.579111562906183, 47.378636190648024], [8.579111676736774, 47.37863619459857], [8.579247643054115, 47.37864028617815], [8.57924785552066, 47.37864029074554], [8.579388650435048, 47.37864210814514], [8.579388903992928, 47.378642108821744], [8.57953171518731, 47.37864102773922], [8.579532010395848, 47.3786410219827], [8.579673350461233, 47.37863657801066], [8.579673615801493, 47.37863656681118], [8.579813678280319, 47.37862914414756], [8.579813918316008, 47.3786291290734], [8.57995360997731, 47.37861898327437], [8.579953825603654, 47.37861896569825], [8.580092480871084, 47.37860642828869], [8.580092683158622, 47.37860640829547], [8.580230218205996, 47.37859165357914], [8.580230376548007, 47.378591635538534], [8.58036782695367, 47.378575057550826], [8.580367999089708, 47.378575035531156], [8.58050580886159, 47.37855639560739], [8.580505955022335, 47.378556374920215], [8.580643392043918, 47.37853605632969], [8.580643529642803, 47.37853603516466], [8.5807803704162, 47.37851416563227], [8.580780511598805, 47.37851414219262], [8.580917163596206, 47.37849060304931], [8.580917301797378, 47.3784905783928], [8.581053205800353, 47.37846549160821], [8.581053313890317, 47.37846547112874], [8.58118906320836, 47.378439086918085], [8.581189188165911, 47.37843906191869], [8.581324819969367, 47.37841114987865], [8.581324922204283, 47.3784111283561], [8.581459598578911, 47.378382136944495], [8.581459684788625, 47.37838211803873], [8.581565395740002, 47.37835850789512], [8.581560140605333, 47.37834765216306], [8.581454472703411, 47.37837125269134], [8.581319890549919, 47.378400223819774], [8.581184372326602, 47.37842811248546], [8.581048739600687, 47.37845447403498], [8.58091295871553, 47.37847953809279], [8.580776446441876, 47.37850305316766], [8.580639745104818, 47.37852490041558], [8.58050244998685, 47.37854519802709], [8.580364799357264, 47.37856381642551], [8.580227514260779, 47.37858037447518], [8.580090159505064, 47.37859510984993], [8.57995171323568, 47.37860762836166], [8.579812249442707, 47.37861775761071], [8.579672439710752, 47.378625166880035], [8.579531380005946, 47.37862960203718], [8.579388843307678, 47.37863068104185], [8.579248281470472, 47.37862886665091], [8.579112478308405, 47.37862477998115], [8.57897830416533, 47.37861950404942], [8.578843785078963, 47.37861288666011], [8.578709417252552, 47.37860506140591], [8.578575237280937, 47.378596232423675], [8.578440886157843, 47.37858639435346], [8.578374034093768, 47.37858105637525], [8.578372069898753, 47.378592405754986], [8.578438962178716, 47.378597746944386]]]}}, {"type": "Feature", "properties": {"name": "ABAugeRechts 15"}, "geometry": {"type": "Polygon", "coordinates": [[[8.578436336755866, 47.37861357353301], [8.578436417204044, 47.378613579690146], [8.578571092179068, 47.37862344147515], [8.578571182715214, 47.378623447768426], [8.578705709328789, 47.378632299559776], [8.578705801803933, 47.37863230529477], [8.578840554906622, 47.37864015298669], [8.578840665858479, 47.378640158946226], [8.578975625132827, 47.37864679798987], [8.578975746591492, 47.378646803365], [8.57911036640387, 47.37865209682136], [8.579110480234498, 47.3786521007719], [8.579246901289922, 47.378656206035764], [8.579247113756526, 47.37865621060314], [8.579388558309995, 47.37865803638848], [8.579388811867954, 47.37865803706509], [8.579532388149756, 47.37865695019095], [8.579532683358385, 47.37865694443443], [8.579674804859568, 47.37865247589286], [8.579675070199908, 47.37865246469339], [8.579815837143896, 47.378645004696516], [8.579816077179657, 47.378644989622366], [8.579956403961301, 47.37863479769474], [8.57995661958771, 47.37863478011861], [8.580095857376033, 47.378622190036786], [8.580096059663632, 47.37862217004356], [8.580234097215026, 47.378607361418844], [8.58023425555708, 47.37860734337822], [8.580372166707686, 47.378590709819754], [8.580372338843771, 47.378590687800084], [8.580510592171946, 47.378571987881635], [8.580510738332734, 47.37857196719444], [8.580648570855098, 47.378551590133284], [8.580648708454023, 47.378551568968234], [8.580785937856112, 47.378529637326054], [8.580786079038758, 47.378529613886414], [8.580923120465073, 47.37850600766132], [8.58092325866628, 47.3785059830048], [8.581059505813242, 47.378480832878296], [8.581059613903236, 47.37848081239883], [8.581195688171782, 47.37845436503042], [8.581195813129364, 47.378454340031], [8.58133176149114, 47.378426362845055], [8.581331863726081, 47.37842634132249], [8.581420178706512, 47.37840733002153], [8.581415096016418, 47.37839643647149], [8.581326832068877, 47.37841543678649], [8.581190997287326, 47.378443390598086], [8.581055039610943, 47.37846981530535], [8.58091891558199, 47.37849494270503], [8.580782013879466, 47.37851852486167], [8.580644923913859, 47.37854043421936], [8.58050723329521, 47.3785607903015], [8.580369139109498, 47.37857946869459], [8.580231393268217, 47.378596082314985], [8.5800935360086, 47.37861087159812], [8.57995450721853, 47.37862344278209], [8.579814408305419, 47.37863361815974], [8.57967389410852, 47.378641064762284], [8.579532052968169, 47.37864552448893], [8.579388751182726, 47.37864660928522], [8.579247539706648, 47.378644786508545], [8.579111281806657, 47.37864068615453], [8.578976779676829, 47.37863539732572], [8.578841936637295, 47.378628764000105], [8.578707285271, 47.37862092223314], [8.578572850192339, 47.37861207646484], [8.578438260736144, 47.37860222094216], [8.57837340269283, 47.378597042182356], [8.578371438497063, 47.37860839156206], [8.578436336755866, 47.37861357353301]]]}}, {"type": "Feature", "properties": {"name": "ABAugeRechts 16"}, "geometry": {"type": "Polygon", "coordinates": [[[8.578433711332684, 47.37862940012163], [8.578433791780883, 47.37862940627877], [8.578568705087946, 47.378639285516144], [8.578568795624122, 47.37863929180942], [8.578703577343843, 47.37864816038675], [8.578703669819012, 47.378648166121756], [8.578838706463905, 47.3786560303266], [8.578838817415797, 47.37865603628615], [8.578974100641837, 47.37866269126602], [8.57897422210054, 47.378662696641165], [8.579109169900807, 47.37866800299461], [8.579109283731468, 47.37866800694517], [8.57924615952574, 47.378672125893324], [8.579246371992406, 47.37867213046072], [8.579388466184854, 47.37867396463178], [8.579388719742889, 47.378673965308394], [8.579533061112576, 47.37867287264263], [8.579533356321292, 47.378672866886106], [8.579676259258747, 47.378668373775035], [8.579676524599167, 47.37866836257555], [8.579817996009167, 47.3786608652454], [8.579818236045, 47.37866085017124], [8.579959197946454, 47.378650612115045], [8.579959413572926, 47.37865059453892], [8.58009923388297, 47.37863795178474], [8.580099436170629, 47.3786379317915], [8.580237976226329, 47.378623069258396], [8.58023813456843, 47.378623051217765], [8.580376506464232, 47.37860636208851], [8.580376678600366, 47.37860634006882], [8.580515375484426, 47.37858758015572], [8.580515521645253, 47.37858755946852], [8.580653749670699, 47.378567123936385], [8.580653887269662, 47.378567102771335], [8.58079150529857, 47.378545109019655], [8.58079164648125, 47.37854508558001], [8.580929077337391, 47.37852141227302], [8.580929215538639, 47.37852138761649], [8.581065805828898, 47.37849617414818], [8.581065913918922, 47.3784961536687], [8.581202313139713, 47.378469643142196], [8.581202438097327, 47.37846961814277], [8.581334022577733, 47.37844253901462], [8.58132914437198, 47.37843160241576], [8.58119762225256, 47.37845866871014], [8.581061339624029, 47.37848515657549], [8.580924872451815, 47.37851034731698], [8.58078758131968, 47.37853399655546], [8.580650102727294, 47.378555968022646], [8.580512016605708, 47.37857638257575], [8.580373478864246, 47.378595120963475], [8.580235272277907, 47.37861179015465], [8.580096912514158, 47.378626633346165], [8.579957301202532, 47.378639257202465], [8.57981656716982, 47.37864947870867], [8.57967534850713, 47.378656962644484], [8.579532725930767, 47.378661446940654], [8.57938865905769, 47.37866253752856], [8.579246797942842, 47.37866070636617], [8.579110085304146, 47.37865659232783], [8.57897525518654, 47.37865129060193], [8.578840088195426, 47.378644641340074], [8.578705153286991, 47.378636783060195], [8.5785704631023, 47.3786279205059], [8.578435635314081, 47.37861804753088], [8.578383414367881, 47.37861387781602], [8.578381450173618, 47.37862522719587], [8.578433711332684, 47.37862940012163]]]}}, {"type": "Feature", "properties": {"name": "ABAugeRechts 17"}, "geometry": {"type": "Polygon", "coordinates": [[[8.578431085907884, 47.37864522671017], [8.578431166356111, 47.378645232867306], [8.57856631799312, 47.37865512955688], [8.578566408529317, 47.37865513585014], [8.578701445359801, 47.37866402121381], [8.578701537835, 47.378664026948805], [8.578836858019125, 47.37867190766638], [8.578836968971046, 47.37867191362593], [8.5789725761499, 47.37867858454212], [8.578972697608638, 47.37867858991726], [8.5791079733979, 47.37868390916787], [8.579108087228594, 47.37868391311841], [8.579245417760585, 47.37868804575084], [8.579245630227316, 47.378688050318225], [8.579388374059217, 47.37868989287502], [8.57938862761733, 47.37868989355164], [8.57953373407612, 47.37868879509423], [8.579534029284929, 47.37868878933771], [8.579677713659155, 47.378684271657114], [8.579677978999653, 47.37868426045764], [8.579820154874843, 47.37867672579427], [8.579820394910753, 47.3786767107201], [8.579961991933727, 47.378666426535176], [8.579962207560262, 47.37866640895904], [8.580102610391881, 47.37865371353256], [8.580102812679598, 47.378653693539306], [8.580241855240537, 47.37863877709769], [8.580242013582685, 47.37863875905707], [8.580380846222749, 47.37862201435713], [8.580381018358933, 47.37862199233745], [8.580520158799699, 47.37860317242957], [8.580520304960569, 47.37860315174236], [8.580658928489303, 47.37858265773922], [8.580659066088307, 47.37858263657418], [8.580797072744268, 47.37856058071297], [8.58079721392699, 47.37856055727332], [8.580935034213143, 47.37853681688436], [8.580935172414426, 47.378536792227834], [8.581072105848182, 47.37851151541768], [8.581072213938233, 47.3785114949382], [8.581208938111462, 47.37848492125356], [8.58120906306911, 47.37848489625413], [8.58125001047805, 47.378476469594574], [8.581245132286611, 47.37846553299223], [8.581204247221587, 47.378473946821806], [8.58106763964074, 47.37850049784526], [8.580930829325137, 47.37852575192856], [8.58079314876305, 47.37854946824899], [8.58065528154376, 47.378571501825675], [8.580516799919016, 47.37859197484976], [8.580377818620965, 47.37861077323223], [8.5802391512905, 47.378627497994074], [8.580100289021672, 47.37864239509407], [8.57996009518867, 47.37865507162269], [8.579818726034619, 47.378665339257594], [8.57967680290698, 47.37867286052661], [8.579533398894089, 47.378677369392285], [8.579388566932154, 47.37867846577183], [8.579246056178063, 47.37867662622371], [8.579108888801796, 47.37867249850111], [8.578973730695303, 47.37866718387808], [8.578838239751464, 47.3786605186799], [8.578703021303927, 47.3786526438873], [8.5785680760085, 47.3786437645467], [8.578433009890505, 47.37863387411949], [8.57839965117668, 47.378631210510584], [8.578397686985223, 47.37864255989067], [8.578431085907884, 47.37864522671017]]]}}, {"type": "Feature", "properties": {"name": "ABAugeRechts 18"}, "geometry": {"type": "Polygon", "coordinates": [[[8.578428460481495, 47.37866105329857], [8.57842854092974, 47.378661059455716], [8.578563930899074, 47.37867097359768], [8.5785640214353, 47.378670979890956], [8.578699313373344, 47.37867988204068], [8.578699405848567, 47.37867988777569], [8.578835009573204, 47.37868778500608], [8.57883512052516, 47.37868779096562], [8.578971051657017, 47.37869447781812], [8.57897117311579, 47.37869448319327], [8.579106776893326, 47.378699815341015], [8.579106890724056, 47.378699819291555], [8.57924467599544, 47.378703965608324], [8.579244888462236, 47.378703970175714], [8.579388281933902, 47.378705821118245], [8.579388535492091, 47.37870582179484], [8.57953440703969, 47.37870471754583], [8.579534702248583, 47.37870471178929], [8.579679168060016, 47.37870016953915], [8.579679433400594, 47.37870015833966], [8.579822313742214, 47.378692586342986], [8.579822553778193, 47.37869257126882], [8.579964785923105, 47.37868224095518], [8.579965001549704, 47.37868222337904], [8.580105986901783, 47.378669475280326], [8.580106189189557, 47.37866945528708], [8.580245734257012, 47.37865448493684], [8.580245892599208, 47.37865446689621], [8.580385185984944, 47.378637666625416], [8.580385358121175, 47.37863764460573], [8.580524942117767, 47.37861876470321], [8.58052508827868, 47.378618744015995], [8.580664107310225, 47.378598191541904], [8.580664244909263, 47.37859817037685], [8.580802640193193, 47.378576052405975], [8.580802781375956, 47.37857602896631], [8.580940991092346, 47.37855222149537], [8.580941129293667, 47.378552196838825], [8.581078405871077, 47.3785268566868], [8.58107851396116, 47.37852683620732], [8.581169841826934, 47.378509085761415], [8.581165213564535, 47.378498099157014], [8.58107393966105, 47.37851583911465], [8.580936786201901, 47.37854115653979], [8.58079871620968, 47.378564939942216], [8.580660460362553, 47.378587035628534], [8.580521583235077, 47.37860756712356], [8.580382158381376, 47.37862642550066], [8.580243030305347, 47.378643205833335], [8.580103665530192, 47.37865815684193], [8.579962889176901, 47.37867088604276], [8.579820884901123, 47.37868119980637], [8.579678257307275, 47.378688758408686], [8.57953407185743, 47.378693291843916], [8.579388474806938, 47.37869439401507], [8.579245314413296, 47.37869254608124], [8.579107692297786, 47.3786884046743], [8.578972206203106, 47.378683077154115], [8.578836391306385, 47.37867639601965], [8.578700889318407, 47.37866850471424], [8.578565688915546, 47.378659608587576], [8.578430384465213, 47.37864970070797], [8.578415788067078, 47.37864853522373], [8.57841382387842, 47.378659884604076], [8.578428460481495, 47.37866105329857]]]}}, {"type": "Feature", "properties": {"name": "ABAugeRechts 19"}, "geometry": {"type": "Polygon", "coordinates": [[[8.578561543803568, 47.37868681763837], [8.578561634339822, 47.37868682393163], [8.578697181385584, 47.378695742867485], [8.578697273860836, 47.37869574860248], [8.57883316112706, 47.378703662345764], [8.578833272079049, 47.37870366830531], [8.578969527162327, 47.37871037109405], [8.578969648621142, 47.37871037646919], [8.579105580388918, 47.37871572151411], [8.57910569421968, 47.378715725464666], [8.57924393422982, 47.378719885465756], [8.57924414669668, 47.378719890033146], [8.57938818980809, 47.37872174936141], [8.579388443366353, 47.37872175003801], [8.579535080003627, 47.37872063999736], [8.579535375212613, 47.37872063424084], [8.57968062246172, 47.37871606742113], [8.579680887802379, 47.37871605622165], [8.579824472610849, 47.37870844689164], [8.579824712646897, 47.37870843181747], [8.579967579913651, 47.378698055375104], [8.579967795540313, 47.378698037798976], [8.580109363414662, 47.37868523702786], [8.580109565702497, 47.378685217034615], [8.580249613275765, 47.37867019277581], [8.580249771618005, 47.37867017473517], [8.580389525748544, 47.37865331889366], [8.580389697884826, 47.37865329687398], [8.580529725438614, 47.37863435697659], [8.580529871599566, 47.37863433628937], [8.580669286134166, 47.378613725344294], [8.58066942373324, 47.37861370417922], [8.58080820764669, 47.37859152409847], [8.580808348829493, 47.378591500658786], [8.5809469479743, 47.37856762610617], [8.58094708617566, 47.378567601449625], [8.580970712420571, 47.378563240248305], [8.58096630037528, 47.37855221267732], [8.580942743081394, 47.37855656115085], [8.58080428366086, 47.37858041163493], [8.580665639184375, 47.37860256943112], [8.580526366553956, 47.378623159397115], [8.58038649814315, 47.37864207776906], [8.580246909322513, 47.37865891367242], [8.580107042041675, 47.37867391858957], [8.579965683166298, 47.378686700462765], [8.579823043768892, 47.37869706035508], [8.579679711708408, 47.378704656290715], [8.579534744821146, 47.37870921429549], [8.579388382681229, 47.378710322258264], [8.57924457264805, 47.37870846593869], [8.579106495793921, 47.37870431084745], [8.578970681709132, 47.37869897043011], [8.578834542861077, 47.378692273359405], [8.578698757331606, 47.378684365541105], [8.578563301821095, 47.37867545262832], [8.57844119361586, 47.37866651107157], [8.578439390328505, 47.378677872766595], [8.578561543803568, 47.37868681763837]]]}}, {"type": "Feature", "properties": {"name": "ABAugeRechts 20"}, "geometry": {"type": "Polygon", "coordinates": [[[8.578559156705474, 47.37870266167887], [8.578559247241753, 47.378702667972156], [8.578695049396503, 47.37871160369417], [8.578695141871782, 47.37871160942917], [8.578831312679778, 47.37871953968535], [8.5788314236318, 47.378719545644906], [8.578968002668393, 47.378726264369966], [8.578968124127243, 47.37872626974512], [8.579104383882841, 47.37873162768716], [8.57910449771364, 47.378731631637706], [8.57924319246323, 47.378735805323124], [8.579243404930153, 47.378735809890514], [8.57938809768219, 47.378737677604505], [8.57938835124053, 47.37873767828112], [8.57953575296829, 47.37873656244881], [8.579536048177362, 47.37873655669227], [8.579682076864652, 47.37873196530303], [8.57968234220539, 47.37873195410355], [8.579826631480314, 47.378724307440265], [8.579826871516435, 47.378724292366094], [8.579970373905839, 47.37871386979494], [8.579970589532564, 47.378713852218795], [8.58011273992952, 47.37870099877525], [8.580112942217411, 47.37870097878199], [8.580253492296167, 47.37868590061468], [8.580253650638454, 47.37868588257403], [8.580393865515244, 47.37866897116161], [8.580394037651574, 47.378668949141904], [8.58053450876226, 47.37864994924973], [8.580534654923252, 47.37864992856251], [8.580674464961806, 47.37862925914634], [8.580674602560926, 47.37862923798128], [8.58073657547302, 47.378619333656246], [8.580732722240892, 47.378608209884774], [8.580670818009834, 47.37861810323336], [8.580531149875648, 47.37863875167041], [8.580390837908054, 47.37865773003713], [8.580250788341287, 47.378674621511415], [8.580110418555153, 47.378689680337054], [8.579968477157346, 47.378702514882676], [8.579825202637476, 47.378712920903766], [8.579681166110783, 47.37872055417266], [8.57953541778559, 47.378725136746965], [8.579388290555427, 47.37872625050141], [8.579243830881834, 47.378724385796104], [8.579105299288408, 47.37872021702054], [8.578969157215896, 47.37871486370607], [8.578832694414633, 47.37870815069904], [8.578696625343472, 47.378700226367854], [8.578560914724052, 47.378691296668904], [8.57848400094595, 47.378685664557494], [8.578482197667109, 47.37869702625318], [8.578559156705474, 47.37870266167887]]]}}, {"type": "Feature", "properties": {"name": "ABAugeRechts 21"}, "geometry": {"type": "Polygon", "coordinates": [[[8.578556769605921, 47.3787185057193], [8.578556860142227, 47.37871851201257], [8.578692917406109, 47.37872746452079], [8.578693009881416, 47.378727470255804], [8.578829464230427, 47.37873541702482], [8.578829575182484, 47.37873542298437], [8.578966478172665, 47.37874215764579], [8.578966599631547, 47.378742163020924], [8.579103187376017, 47.37874753386013], [8.57910330120685, 47.378747537810675], [8.579242450696649, 47.378751725180436], [8.579242663163637, 47.37875172974783], [8.57938800555661, 47.37875360584759], [8.579388259115026, 47.378753606524185], [8.579536425932975, 47.37875248490027], [8.579536721142137, 47.37875247914375], [8.579683531268042, 47.378747863184884], [8.579683796608856, 47.37874785198541], [8.57982879035147, 47.37874016798875], [8.579829030387666, 47.37874015291458], [8.579973167899666, 47.37872968421467], [8.579973383526452, 47.378729666638506], [8.580116116446359, 47.37871676052253], [8.58011631873431, 47.37871674052926], [8.580257371319469, 47.37870160845331], [8.580257529661804, 47.37870159041266], [8.580398205283911, 47.378684623429436], [8.580398377420293, 47.37868460140972], [8.580539292089366, 47.37866554152257], [8.580539438250401, 47.37866552083534], [8.580560047754828, 47.37866247395271], [8.58055646975523, 47.37865130784562], [8.580535933200748, 47.378654343943424], [8.580395177674946, 47.37867338230508], [8.58025466736298, 47.37869032935017], [8.580113795070588, 47.37870544208443], [8.579971271150036, 47.37871832930246], [8.57982736150776, 47.37872878145231], [8.579682620513609, 47.37873645205456], [8.579536090750047, 47.378741059198454], [8.57938819842995, 47.37874217874452], [8.57924308911563, 47.37874030565346], [8.579104102782143, 47.37873612319355], [8.578967632720852, 47.37873075698192], [8.578830845966124, 47.37872402803857], [8.578694493354048, 47.37871608719456], [8.57855852762556, 47.37870714070941], [8.578526808307112, 47.37870481802745], [8.57852500503678, 47.37871617972381], [8.578556769605921, 47.3787185057193]]]}}, {"type": "Feature", "properties": {"name": "ABAugeRechts 22"}, "geometry": {"type": "Polygon", "coordinates": [[[8.578690785414407, 47.37874332534732], [8.578690877889738, 47.37874333108234], [8.578827615779936, 47.378751294364235], [8.578827726732026, 47.37875130032379], [8.578964953675985, 47.37875805092153], [8.578965075134903, 47.37875805629668], [8.579101990869347, 47.37876344003307], [8.579102104700215, 47.37876344398362], [8.579241708929104, 47.3787676450377], [8.579241921396154, 47.3787676496051], [8.579387913430942, 47.378769534090615], [8.579388166989435, 47.37876953476723], [8.579537098898031, 47.37876840735166], [8.579537394107282, 47.37876840159513], [8.579684985672273, 47.37876376106669], [8.579685251013169, 47.378763749867204], [8.57983094922389, 47.378756028537175], [8.579831189260153, 47.37875601346298], [8.579975961895132, 47.37874549863427], [8.579976177521983, 47.37874548105812], [8.580119492965176, 47.37873252226967], [8.580119695253192, 47.37873250227641], [8.580261250344416, 47.37871731629184], [8.580261408686791, 47.37871729825118], [8.580402545055694, 47.37870027569699], [8.580402717192127, 47.37870025367727], [8.580474568430459, 47.37869053522009], [8.580471282769267, 47.37867932773615], [8.580399517444908, 47.3786890345728], [8.580258546386355, 47.3787060371888], [8.580117171587995, 47.37872120383167], [8.57997406514436, 47.37873414372214], [8.579829520379317, 47.378744642000775], [8.579684074917273, 47.37875234993639], [8.579536763714882, 47.37875698164988], [8.579388106304384, 47.37875810698758], [8.579242347348458, 47.37875622551076], [8.579102906276031, 47.37875202936654], [8.578966108224867, 47.37874665025773], [8.578828997516487, 47.37873990537805], [8.578692361363276, 47.37873194802114], [8.578570182151227, 47.37872390869022], [8.578568559962202, 47.37873528297378], [8.578690785414407, 47.37874332534732]]]}}, {"type": "Feature", "properties": {"name": "ABAugeRechts 23"}, "geometry": {"type": "Polygon", "coordinates": [[[8.578688653420288, 47.37875918617372], [8.57868874589565, 47.37875919190873], [8.578825767329235, 47.37876717170358], [8.578825878281355, 47.378767177663136], [8.578963429178353, 47.37877394419721], [8.57896355063731, 47.37877394957236], [8.57910079436102, 47.37877934620593], [8.579100908191922, 47.378779350156485], [8.579240967161565, 47.37878356489493], [8.57924117962868, 47.37878356946233], [8.57938782130478, 47.37878546233359], [8.579388074863346, 47.37878546301019], [8.57953777186381, 47.37878432980299], [8.579538067073152, 47.37878432404646], [8.579686440077735, 47.37877965894842], [8.579686705418709, 47.378779647748914], [8.579833108097148, 47.37877188908554], [8.579833348133482, 47.37877187401135], [8.57997875589224, 47.37876131305378], [8.579978971519154, 47.37876129547763], [8.580122869485482, 47.37874828401671], [8.580123071773555, 47.37874826402343], [8.580265129372266, 47.37873302413014], [8.58026528771469, 47.37873300608948], [8.580392559608432, 47.37871765574759], [8.580389618235897, 47.378706404222015], [8.58026242541257, 47.37872174502723], [8.580120548106914, 47.3787369655788], [8.579976859140325, 47.37874995814173], [8.5798316792517, 47.378760502549206], [8.57968552932217, 47.378768247818165], [8.57953743668044, 47.37877290410124], [8.579388014178322, 47.378774035230585], [8.579241605581297, 47.37877214536802], [8.579101709768263, 47.378767935539436], [8.578964583727942, 47.37876254353346], [8.578827149066592, 47.37875578271745], [8.578690229370125, 47.3787478088476], [8.578616359592647, 47.37874294826913], [8.57861473741294, 47.37875432255332], [8.578688653420288, 47.37875918617372]]]}}, {"type": "Feature", "properties": {"name": "ABAugeRechts 24"}, "geometry": {"type": "Polygon", "coordinates": [[[8.578686521427075, 47.37877504700015], [8.578686613902466, 47.378775052735165], [8.578823918876456, 47.378783049042816], [8.57882402982861, 47.37878305500238], [8.578961904680625, 47.37878983747289], [8.57896202613962, 47.37878984284803], [8.57909959785194, 47.37879525237872], [8.579099711682876, 47.37879525632927], [8.579240225393063, 47.378799484752065], [8.579240437860241, 47.37879948931947], [8.579387729178935, 47.37880139057652], [8.57938798273758, 47.37880139125313], [8.579538444829616, 47.378800252254294], [8.579538740039046, 47.378800246497754], [8.57968789448365, 47.3787955568301], [8.579688159824702, 47.37879554563059], [8.579835266972095, 47.37878774963379], [8.5798355070085, 47.378787734559594], [8.57998154989098, 47.37877712747318], [8.57998176551796, 47.37877710989702], [8.580126246008273, 47.37876404576356], [8.580126448296404, 47.378764025770266], [8.580269008402386, 47.378748731968265], [8.580269166744852, 47.37874871392761], [8.58031765391122, 47.37874286587831], [8.580314712553273, 47.3787316143509], [8.580266304441112, 47.378737452865465], [8.580123924628314, 47.37875272732574], [8.579979653137913, 47.37876577256121], [8.579833838125781, 47.37877636309751], [8.579686983727521, 47.37878414569989], [8.579538109646021, 47.37878882655257], [8.57938792205258, 47.378789963473544], [8.579240863813167, 47.378788065225194], [8.579100513259734, 47.378783841712284], [8.57896305923092, 47.37877843680918], [8.578825300614646, 47.37877166005674], [8.578688097377881, 47.37876366967409], [8.578662410861888, 47.37876197952524], [8.578660788691465, 47.37877335381007], [8.578686521427075, 47.37877504700015]]]}}, {"type": "Feature", "properties": {"name": "ABAugeRechts 25"}, "geometry": {"type": "Polygon", "coordinates": [[[8.578822070423465, 47.37879892638204], [8.578822181375655, 47.3787989323416], [8.578960380180252, 47.37880573074837], [8.57896050163928, 47.37880573612353], [8.579098401343012, 47.37881115855149], [8.579098515173982, 47.378811162502046], [8.579239483624077, 47.37881540460919], [8.579239696091319, 47.3788154091766], [8.579387637053003, 47.378817318819436], [8.579387890611727, 47.37881731949604], [8.579539117795793, 47.378816174705534], [8.579539413005309, 47.37881616894901], [8.579689348890406, 47.37881145471172], [8.579689614231542, 47.37881144351221], [8.579837425848305, 47.37880361018196], [8.579837665884783, 47.37880359510776], [8.57998434389184, 47.37879294189244], [8.579984559518882, 47.378792924316265], [8.580129622532539, 47.37877980751032], [8.58012982482073, 47.37877978751703], [8.580272887434148, 47.37876443980632], [8.580273045776662, 47.378764421765645], [8.580301604756457, 47.378760977262615], [8.580298663400944, 47.378749725734835], [8.580270183471244, 47.378753160703624], [8.580127301151196, 47.3787684890726], [8.579982447137633, 47.37878158698053], [8.579835997001117, 47.37879222364574], [8.579688438133713, 47.37880004358155], [8.579538782611975, 47.37880474900386], [8.57938782992675, 47.378805891716496], [8.579240122044558, 47.378803985082364], [8.57909931675137, 47.378799747885104], [8.578961534731233, 47.37879433008472], [8.57882345216251, 47.378787537396015], [8.578707448327073, 47.378780781625835], [8.578706011116573, 47.37879216738129], [8.578822070423465, 47.37879892638204]]]}}, {"type": "Feature", "properties": {"name": "ABAugeRechts 26"}, "geometry": {"type": "Polygon", "coordinates": [[[8.578820221968403, 47.37881480372113], [8.578820332920628, 47.37881480968069], [8.578958855679781, 47.37882162402385], [8.578958977138845, 47.37882162939902], [8.57909720483243, 47.37882706472418], [8.579097318663433, 47.37882706867473], [8.579238741855104, 47.37883132446626], [8.579238954322408, 47.37883132903368], [8.579387544926574, 47.37883324706227], [8.579387798485374, 47.37883324773888], [8.579539790762691, 47.37883209715674], [8.579540085972297, 47.37883209140019], [8.579690803298393, 47.37882735259326], [8.579691068639608, 47.378827341393766], [8.579839584725354, 47.378819470730086], [8.579839824761901, 47.378819455655886], [8.579987137893864, 47.378808756311635], [8.57998735352097, 47.37880873873545], [8.580132999059286, 47.3787955692569], [8.580133201347536, 47.378795549263614], [8.580276766468822, 47.37878014764411], [8.580276924811386, 47.37878012960343], [8.580285751819718, 47.378779064977394], [8.58028281046659, 47.378767813449244], [8.580274062504271, 47.37876886854155], [8.580130677676545, 47.37878425081928], [8.579985241138509, 47.378797401399794], [8.579838155877301, 47.37880808419391], [8.579689892541131, 47.378815941463145], [8.579539455578653, 47.37882067145509], [8.579387737800422, 47.37882181995938], [8.57923938027596, 47.378819904939476], [8.579098120241342, 47.37881565405781], [8.578960010231455, 47.37881022336025], [8.578821603708288, 47.37880341473515], [8.57875260424896, 47.37879939639543], [8.578751167047644, 47.37881078215143], [8.578820221968403, 47.37881480372113]]]}}, {"type": "Feature", "properties": {"name": "ABAugeRechts 27"}, "geometry": {"type": "Polygon", "coordinates": [[[8.578818373513133, 47.37883068106017], [8.578818484465387, 47.37883068701973], [8.578957331178358, 47.37883751729927], [8.578957452637459, 47.37883752267443], [8.579096008321999, 47.37884297089682], [8.579096122153036, 47.37884297484737], [8.579238000085164, 47.37884724432328], [8.579238212552534, 47.37884724889069], [8.57938745280047, 47.37884917530507], [8.579387706359343, 47.37884917598169], [8.579540463729614, 47.37884801960789], [8.579540758939311, 47.37884801385135], [8.579692257706833, 47.378843250474766], [8.579692523048127, 47.37884323927524], [8.579841743604517, 47.37883533127807], [8.579841983641137, 47.378835316203855], [8.579989931897055, 47.37882457073075], [8.579990147524224, 47.378824553154566], [8.58013637558802, 47.37881133100335], [8.580136577876328, 47.378811311010054], [8.580269705559456, 47.378797029122296], [8.58026708089394, 47.37878574151245], [8.580134054203887, 47.37880001256582], [8.579988035140559, 47.37881321581897], [8.579840314755591, 47.37882394474195], [8.579691346949009, 47.37883183934466], [8.57954012854535, 47.37883659390627], [8.579387645674418, 47.37883774820221], [8.579238638506396, 47.37883582479652], [8.57909692373147, 47.378831560230495], [8.578958485730741, 47.378826116635715], [8.578819755253829, 47.378819292074255], [8.578797530394823, 47.37881799776388], [8.578796093202646, 47.378829383520454], [8.578818373513133, 47.37883068106017]]]}}, {"type": "Feature", "properties": {"name": "ABAugeRechts 28"}, "geometry": {"type": "Polygon", "coordinates": [[[8.578955806676834, 47.378853410574656], [8.57895592813597, 47.37885341594981], [8.579094811809002, 47.37885887706935], [8.579094925640073, 47.3788588810199], [8.57923725831523, 47.37886316418027], [8.579237470782665, 47.37886316874766], [8.579387360674275, 47.378865103547824], [8.579387614233225, 47.37886510422444], [8.579541136696912, 47.37886394205899], [8.579541431906696, 47.37886393630246], [8.57969371211612, 47.37885914835618], [8.579693977457492, 47.37885913715667], [8.579843902484514, 47.37885119182601], [8.579844142521207, 47.37885117675179], [8.57999272590236, 47.378840385149715], [8.579992941529593, 47.37884036757353], [8.580139752118233, 47.378827092749695], [8.580139954406603, 47.3788270727564], [8.580253789324559, 47.378814860599626], [8.580251164661579, 47.37880357298946], [8.580137430732693, 47.37881577431228], [8.579990829144721, 47.37882903023803], [8.579842473634715, 47.37883980528994], [8.579692801357734, 47.37884773722614], [8.579540801512424, 47.378852516357405], [8.57938755354832, 47.37885367644499], [8.57923789673684, 47.37885174465353], [8.579095727219023, 47.378847466403066], [8.578956961229917, 47.37884200991116], [8.578841566706222, 47.37883633332602], [8.578840351427578, 47.37884773100221], [8.578955806676834, 47.378853410574656]]]}}, {"type": "Feature", "properties": {"name": "ABAugeRechts 29"}, "geometry": {"type": "Polygon", "coordinates": [[[8.578954282173516, 47.37886930384993], [8.578954403632688, 47.378869309225095], [8.579093615297067, 47.378874783241876], [8.579093729128173, 47.37887478719243], [8.579236516544329, 47.37887908403716], [8.579236729011829, 47.37887908860457], [8.579387268547583, 47.37888103179055], [8.57938752210661, 47.37888103246716], [8.579541809664928, 47.37887986451005], [8.579542104874802, 47.37887985875351], [8.579695166526632, 47.37887504623757], [8.579695431868085, 47.37887503503806], [8.579846061365352, 47.37886705237389], [8.579846301402114, 47.37886703729967], [8.579995519909303, 47.37885619956859], [8.579995735536599, 47.3788561819924], [8.58014312865092, 47.37884285449587], [8.580143330939348, 47.37884283450258], [8.580237873078891, 47.378832692074695], [8.580235248418454, 47.37882140446421], [8.580140807263996, 47.37883153605854], [8.579993623150513, 47.37884484465699], [8.579844632514686, 47.37885566583789], [8.579694255767679, 47.378863635107564], [8.57954147448022, 47.3788684388085], [8.579387461421733, 47.37886960468775], [8.579237154966316, 47.37886766451047], [8.579094530707648, 47.37886337257564], [8.578955436727298, 47.378857903186486], [8.57888573732437, 47.37885447448849], [8.5788845220548, 47.37886587216516], [8.578954282173516, 47.37886930384993]]]}}, {"type": "Feature", "properties": {"name": "ABAugeRechts 30"}, "geometry": {"type": "Polygon", "coordinates": [[[8.5789527576684, 47.378885197125115], [8.578952879127609, 47.378885202500285], [8.579092418783477, 47.378890689414305], [8.579092532614617, 47.378890693364866], [8.57923577477344, 47.37889500389402], [8.579235987241002, 47.37889500846144], [8.579387176421212, 47.378896960033224], [8.579387429980317, 47.378896960709824], [8.579542482632974, 47.37889578696105], [8.579542777842935, 47.37889578120451], [8.579696620937602, 47.378890944118886], [8.579696886279134, 47.378890932919354], [8.579848220247873, 47.37888291292166], [8.579848460284708, 47.37888289784743], [8.579998313917885, 47.37887201398736], [8.579998529545245, 47.37887199641116], [8.580146505185596, 47.37885861624193], [8.580146707474086, 47.37885859624861], [8.580221956822477, 47.37885052354747], [8.58021933216458, 47.37883923593665], [8.580144183797277, 47.378847297804676], [8.579996417157956, 47.37886065907582], [8.579846791396337, 47.37887152638571], [8.579695710178088, 47.37887953298892], [8.57954214744804, 47.37888436125954], [8.579387369295464, 47.37888553293045], [8.579236413195801, 47.37888358436737], [8.579093334194614, 47.378879278748116], [8.578953912222868, 47.378873796461704], [8.578929652896687, 47.37887260308617], [8.578928437636138, 47.378884000763286], [8.5789527576684, 47.378885197125115]]]}}, {"type": "Feature", "properties": {"name": "ABAugeRechts 31"}, "geometry": {"type": "Polygon", "coordinates": [[[8.579091222270039, 47.37890659558673], [8.579091336101213, 47.37890659953728], [8.579235033002073, 47.37891092375085], [8.579235245469699, 47.37891092831827], [8.579387084294344, 47.37891288827585], [8.579387337853525, 47.378912888952456], [8.579543155601383, 47.37891170941204], [8.579543450811434, 47.37891170365549], [8.579698075349413, 47.37890684200014], [8.579698340691023, 47.37890683080062], [8.579850379131662, 47.37889877346936], [8.579850619168568, 47.378898758395124], [8.580001107928107, 47.37888782840602], [8.580001323555532, 47.378887810829816], [8.580149881722253, 47.37887437798781], [8.580150084010798, 47.37887435799449], [8.580206040555291, 47.37886835501793], [8.58020341589994, 47.37885706740679], [8.58014756033256, 47.37886305955066], [8.57999921116702, 47.37887647349456], [8.579848950279256, 47.37888738693346], [8.579697164589332, 47.378895430870216], [8.57954282041623, 47.37890028371055], [8.579387277168696, 47.3789014611731], [8.579235671424808, 47.37889950422425], [8.579092137681732, 47.37889518492058], [8.578972553471788, 47.37889048269596], [8.578971581138541, 47.37890189112382], [8.579091222270039, 47.37890659558673]]]}}, {"type": "Feature", "properties": {"name": "ABAugeRechts 32"}, "geometry": {"type": "Polygon", "coordinates": [[[8.579090025754946, 47.378922501759035], [8.579090139586151, 47.37892250570961], [8.579234291229733, 47.37892684360762], [8.579234503697425, 47.378926848175034], [8.579386992167388, 47.378928816518425], [8.579387245726645, 47.37892881719503], [8.57954382857052, 47.37892763186294], [8.579544123780657, 47.378927626106396], [8.579699529762452, 47.37892273988134], [8.579699795104146, 47.378922728681815], [8.579852538016288, 47.37891463401699], [8.579852778053265, 47.378914618942765], [8.580003901940437, 47.37890364282453], [8.580004117567924, 47.37890362524832], [8.580153258260399, 47.378890139733635], [8.580153460549003, 47.378890119740305], [8.580190208319918, 47.37888617747006], [8.580187583667088, 47.37887488985861], [8.580150936869314, 47.378878821296574], [8.580002005178216, 47.37889228791314], [8.579851109163007, 47.37890324748116], [8.579698619001807, 47.378911328751464], [8.579543493385142, 47.37891620616149], [8.579387185041842, 47.37891738941571], [8.579234929652849, 47.37891542408104], [8.579090941167186, 47.378911091092945], [8.579015598473715, 47.378908128523605], [8.579014626149405, 47.37891953695183], [8.579090025754946, 47.378922501759035]]]}}, {"type": "Feature", "properties": {"name": "ABAugeRechts 33"}, "geometry": {"type": "Polygon", "coordinates": [[[8.579088829239096, 47.3789384079313], [8.579088943070339, 47.378938411881876], [8.579233549457408, 47.37894276346433], [8.579233761925163, 47.37894276803174], [8.579386900040754, 47.378944744760965], [8.579387153600088, 47.37894474543757], [8.579544501539681, 47.37894355431383], [8.57954479674991, 47.37894354855729], [8.579700984175949, 47.37893863776245], [8.579701249517717, 47.37893862656293], [8.5798546969026, 47.37893049456452], [8.57985493693965, 47.37893047949028], [8.580006695953939, 47.378919457242965], [8.58000691158149, 47.37891943966675], [8.58015663480052, 47.378905901479285], [8.580156837089184, 47.37890588148596], [8.580174609757734, 47.378903974850495], [8.580171985107372, 47.378892687238725], [8.580154313408018, 47.37889458304233], [8.580004799190567, 47.378908102331664], [8.579853268048451, 47.378919108028725], [8.579700073414742, 47.37892722663262], [8.579544166354076, 47.37893212861241], [8.579387092915312, 47.37893331765828], [8.579234187880896, 47.3789313439378], [8.579089744651899, 47.37892699726525], [8.579058547934366, 47.3789257705772], [8.579057575618966, 47.378937179005774], [8.579088829239096, 47.3789384079313]]]}}, {"type": "Feature", "properties": {"name": "ABAugeRechts 34"}, "geometry": {"type": "Polygon", "coordinates": [[[8.579232807684113, 47.378958683320995], [8.579233020151934, 47.37895868788842], [8.579386807914034, 47.37896067300345], [8.579387061473444, 47.378960673680076], [8.579545174509214, 47.37895947676464], [8.57954546971953, 47.378959471008095], [8.579702438590285, 47.37895453564355], [8.579702703932137, 47.37895452444402], [8.579856855790181, 47.37894635511196], [8.5798570958273, 47.378946340037714], [8.580009489969079, 47.37893527166129], [8.580009705596696, 47.378935254085086], [8.580156576200816, 47.37892197383753], [8.580154356130805, 47.37891064623876], [8.580007593204558, 47.37892391675007], [8.579855426935168, 47.37893496857622], [8.579701527828506, 47.37894312451375], [8.57954483932339, 47.378948051063254], [8.579387000788687, 47.378949245900806], [8.57923344610798, 47.3789472637945], [8.579100292405226, 47.37894325685996], [8.579099547761034, 47.37895467319001], [8.579232807684113, 47.378958683320995]]]}}, {"type": "Feature", "properties": {"name": "ABAugeRechts 35"}, "geometry": {"type": "Polygon", "coordinates": [[[8.579232065910826, 47.378974603177596], [8.57923227837871, 47.37897460774502], [8.579386715786814, 47.37897660124591], [8.5793869693463, 47.37897660192252], [8.579545847479471, 47.378975399215406], [8.579546142689875, 47.37897539345886], [8.579703893005853, 47.37897043352456], [8.579704158347784, 47.37897042232501], [8.579859014678595, 47.37896221565936], [8.579859254715785, 47.37896220058512], [8.580012283985855, 47.37895108607953], [8.580012499613536, 47.3789510685033], [8.58013722307691, 47.37893979084445], [8.580135003010328, 47.37892846324534], [8.580010387220199, 47.378939731168366], [8.57985758582271, 47.37895082912369], [8.579702982243514, 47.378959022394795], [8.57954551229342, 47.378963973514054], [8.57938690866157, 47.37896517414328], [8.579232704335066, 47.37896318365114], [8.579142172380037, 47.37896045933076], [8.579141427744617, 47.378971875661065], [8.579232065910826, 47.378974603177596]]]}}, {"type": "Feature", "properties": {"name": "ABAugeRechts 36"}, "geometry": {"type": "Polygon", "coordinates": [[[8.579231324136577, 47.37899052303415], [8.57923153660452, 47.37899052760158], [8.579386623659916, 47.3789925294883], [8.579386877219479, 47.378992530164915], [8.579546520449744, 47.37899132166614], [8.579546815660239, 47.378991315909595], [8.579705347421873, 47.37898633140552], [8.579705612763883, 47.37898632020597], [8.5798611735687, 47.37897807620664], [8.579861413605963, 47.37897806113241], [8.580015078004278, 47.378966900497645], [8.58001529363202, 47.37896688292141], [8.580117869939958, 47.378957607847966], [8.580115649876802, 47.37894628024851], [8.580013181237485, 47.378955545586535], [8.579859744711936, 47.37896668967103], [8.579704436658972, 47.378974920275795], [8.579546185263476, 47.37897989596482], [8.579386816534775, 47.37898110238571], [8.579231962561186, 47.378979103507724], [8.579184052382184, 47.378977661786294], [8.579183307755539, 47.37898907811687], [8.579231324136577, 47.37899052303415]]]}}, {"type": "Feature", "properties": {"name": "ABAugeRechts 37"}, "geometry": {"type": "Polygon", "coordinates": [[[8.579230582361854, 47.379006442890656], [8.579230794829854, 47.37900644745808], [8.579386531532519, 47.37900845773067], [8.57938678509216, 47.37900845840728], [8.579547193420748, 47.37900724411682], [8.57954748863133, 47.37900723836026], [8.57970680183874, 47.3790022292864], [8.579707067180829, 47.37900221808686], [8.579863332460064, 47.378993936753844], [8.5798635724974, 47.378993921679594], [8.580017872024337, 47.378982714915644], [8.580018087652142, 47.378982697339424], [8.580098516789949, 47.37897542484813], [8.580096296730218, 47.37896409724836], [8.580015975256396, 47.37897136000462], [8.579861903602435, 47.37898255021829], [8.579705891075275, 47.37899081815672], [8.579546858234252, 47.37899581841553], [8.57938672440748, 47.37899703062812], [8.57923122078682, 47.378995023364276], [8.579225077736032, 47.378994838507666], [8.579224333117985, 47.379006254838494], [8.579230582361854, 47.379006442890656]]]}}, {"type": "Feature", "properties": {"name": "ABAugeRechts 38"}, "geometry": {"type": "Polygon", "coordinates": [[[8.579386439405448, 47.37902438597298], [8.579386692965164, 47.3790243866496], [8.579547866391772, 47.379023166567485], [8.579548161602444, 47.379023160810924], [8.579708256256836, 47.379018127167235], [8.579708521599002, 47.37901811596768], [8.579865491352692, 47.379009797300995], [8.5798657313901, 47.37900978222674], [8.580020666045568, 47.3789985293336], [8.580020881673438, 47.378998511757366], [8.580079163626896, 47.37899324184493], [8.580076943570589, 47.37898191424483], [8.580018769276476, 47.37898717442267], [8.579864062494188, 47.3789984107655], [8.579707345492807, 47.379006716037594], [8.579547531205051, 47.37901174086623], [8.579386632280512, 47.37901295887047], [8.579265726372055, 47.37901139821756], [8.579265406698665, 47.37902282368335], [8.579386439405448, 47.37902438597298]]]}}]}