{"type": "FeatureCollection", "features": [{"type": "Feature", "properties": {"name": "Forsthaus_Oben 2"}, "geometry": {"type": "Polygon", "coordinates": [[[8.585943227573594, 47.37406958589252], [8.585956763484777, 47.37407637126004], [8.587292897280792, 47.372846377230175], [8.587279361510866, 47.3728395920194], [8.585943227573594, 47.37406958589252]]]}}, {"type": "Feature", "properties": {"name": "Forsthaus_Oben 3"}, "geometry": {"type": "Polygon", "coordinates": [[[8.585949148596677, 47.374090958050424], [8.585962684514076, 47.37409774341723], [8.587339044737197, 47.37283071764931], [8.587325508965309, 47.37282393244397], [8.585949148596677, 47.374090958050424]]]}}, {"type": "Feature", "properties": {"name": "Forsthaus_Oben 4"}, "geometry": {"type": "Polygon", "coordinates": [[[8.585955069624486, 47.37411233020794], [8.5859686055481, 47.37411911557404], [8.587385192166359, 47.37281505804974], [8.58737165639251, 47.37280827284982], [8.585955069624486, 47.37411233020794]]]}}, {"type": "Feature", "properties": {"name": "Forsthaus_Oben 5"}, "geometry": {"type": "Polygon", "coordinates": [[[8.58596099065703, 47.37413370236509], [8.58597452658686, 47.3741404877305], [8.587431339568319, 47.37279939843145], [8.587417803792508, 47.37279261323697], [8.58596099065703, 47.37413370236509]]]}}, {"type": "Feature", "properties": {"name": "Forsthaus_Oben 6"}, "geometry": {"type": "Polygon", "coordinates": [[[8.585966911694298, 47.37415507452186], [8.585980447630343, 47.37416185988656], [8.58747470106459, 47.372786303460444], [8.587461165286522, 47.37277951827105], [8.585966911694298, 47.37415507452186]]]}}, {"type": "Feature", "properties": {"name": "Forsthaus_Oben 7"}, "geometry": {"type": "Polygon", "coordinates": [[[8.585973925540644, 47.37417544071554], [8.585987461482787, 47.374182226079405], [8.58750352701325, 47.37278658982064], [8.58748999123139, 47.372779804634646], [8.585973925540644, 47.37417544071554]]]}}, {"type": "Feature", "properties": {"name": "Forsthaus_Oben 8"}, "geometry": {"type": "Polygon", "coordinates": [[[8.585986553127686, 47.37419063927907], [8.586000089075336, 47.374197424641416], [8.587532352962263, 47.372786876173585], [8.587518817176612, 47.372780090990986], [8.585986553127686, 47.37419063927907]]]}}, {"type": "Feature", "properties": {"name": "Forsthaus_Oben 9"}, "geometry": {"type": "Polygon", "coordinates": [[[8.585999180721966, 47.37420583784118], [8.586012716675121, 47.37421262320206], [8.587561178911649, 47.372787162519295], [8.587547643122202, 47.37278037734008], [8.585999180721966, 47.37420583784118]]]}}, {"type": "Feature", "properties": {"name": "Forsthaus_Oben 10"}, "geometry": {"type": "Polygon", "coordinates": [[[8.58601180832348, 47.37422103640187], [8.586025344282142, 47.37422782176126], [8.587590004861385, 47.37278744885774], [8.587576469068146, 47.37278066368192], [8.58601180832348, 47.37422103640187]]]}}, {"type": "Feature", "properties": {"name": "Forsthaus_Oben 11"}, "geometry": {"type": "Polygon", "coordinates": [[[8.586024435932238, 47.374236234961174], [8.586037971896406, 47.37424302031907], [8.587618830811492, 47.372787735188936], [8.587605295014459, 47.372780950016526], [8.586024435932238, 47.374236234961174]]]}}, {"type": "Feature", "properties": {"name": "Forsthaus_Oben 12"}, "geometry": {"type": "Polygon", "coordinates": [[[8.586037063548224, 47.37425143351904], [8.586050599517897, 47.37425821887544], [8.587647656761945, 47.372788021512896], [8.58763412096112, 47.37278123634386], [8.586037063548224, 47.37425143351904]]]}}, {"type": "Feature", "properties": {"name": "Forsthaus_Oben 13"}, "geometry": {"type": "Polygon", "coordinates": [[[8.58604969117145, 47.37426663207553], [8.58606322714663, 47.37427341743044], [8.587676482712764, 47.3727883078296], [8.587662946908146, 47.372781522663956], [8.58604969117145, 47.37426663207553]]]}}, {"type": "Feature", "properties": {"name": "Forsthaus_Oben 14"}, "geometry": {"type": "Polygon", "coordinates": [[[8.586062318801913, 47.37428183063059], [8.586075854782601, 47.37428861598402], [8.587705308663944, 47.37278859413906], [8.58769177285553, 47.37278180897681], [8.586062318801913, 47.37428183063059]]]}}, {"type": "Feature", "properties": {"name": "Forsthaus_Oben 15"}, "geometry": {"type": "Polygon", "coordinates": [[[8.586074946439616, 47.37429702918425], [8.586088482425808, 47.37430381453617], [8.587734134615488, 47.37278888044126], [8.587720598803285, 47.37278209528241], [8.586074946439616, 47.37429702918425]]]}}, {"type": "Feature", "properties": {"name": "Forsthaus_Oben 16"}, "geometry": {"type": "Polygon", "coordinates": [[[8.586087199824501, 47.37431257225548], [8.586100735816238, 47.374319357605955], [8.5877629605674, 47.37278916673623], [8.587749424751403, 47.37278238158076], [8.586087199824501, 47.37431257225548]]]}}, {"type": "Feature", "properties": {"name": "Forsthaus_Oben 17"}, "geometry": {"type": "Polygon", "coordinates": [[[8.586099275303724, 47.374328279100105], [8.586112811301026, 47.374335064449156], [8.587791786519656, 47.372789453023955], [8.587778250699865, 47.372782667871896], [8.586099275303724, 47.374328279100105]]]}}, {"type": "Feature", "properties": {"name": "Forsthaus_Oben 18"}, "geometry": {"type": "Polygon", "coordinates": [[[8.5861113507901, 47.37434398594344], [8.586124886792968, 47.37435077129108], [8.587820261006733, 47.37279006286484], [8.587806725183112, 47.37278327771611], [8.5861113507901, 47.37434398594344]]]}}, {"type": "Feature", "properties": {"name": "Forsthaus_Oben 19"}, "geometry": {"type": "Polygon", "coordinates": [[[8.58613269753932, 47.37435115828052], [8.58614623354677, 47.374357943625625], [8.587848594442207, 47.37279080255199], [8.587835058614742, 47.3727840174066], [8.58613269753932, 47.37435115828052]]]}}, {"type": "Feature", "properties": {"name": "Forsthaus_Oben 20"}, "geometry": {"type": "Polygon", "coordinates": [[[8.586174984478824, 47.37433905444297], [8.586188520488646, 47.374345839783096], [8.587876927878513, 47.37279154223214], [8.587863392047202, 47.372784757090095], [8.586174984478824, 47.37433905444297]]]}}, {"type": "Feature", "properties": {"name": "Forsthaus_Oben 21"}, "geometry": {"type": "Polygon", "coordinates": [[[8.586217271399068, 47.37432695058971], [8.586230807411262, 47.37433373592488], [8.58790526131567, 47.3727922819053], [8.587891725480514, 47.37278549676659], [8.586217271399068, 47.37432695058971]]]}}, {"type": "Feature", "properties": {"name": "Forsthaus_Oben 22"}, "geometry": {"type": "Polygon", "coordinates": [[[8.586259558300021, 47.37431484672079], [8.586273094314585, 47.37432163205098], [8.587933594753647, 47.372793021571454], [8.587920058914648, 47.37278623643606], [8.586259558300021, 47.37431484672079]]]}}, {"type": "Feature", "properties": {"name": "Forsthaus_Oben 23"}, "geometry": {"type": "Polygon", "coordinates": [[[8.586301845181715, 47.37430274283617], [8.586315381198649, 47.37430952816139], [8.587961928192467, 47.3727937612306], [8.58794839234962, 47.37278697609856], [8.586301845181715, 47.37430274283617]]]}}, {"type": "Feature", "properties": {"name": "Forsthaus_Oben 24"}, "geometry": {"type": "Polygon", "coordinates": [[[8.586344132044145, 47.37429063893589], [8.58635766806345, 47.37429742425613], [8.58799026163213, 47.37279450088276], [8.58797672578544, 47.37278771575405], [8.586344132044145, 47.37429063893589]]]}}, {"type": "Feature", "properties": {"name": "Forsthaus_Oben 25"}, "geometry": {"type": "Polygon", "coordinates": [[[8.586386418887308, 47.37427853501988], [8.586399954908982, 47.37428532033517], [8.588018595072633, 47.37279524052791], [8.588005059222098, 47.372788455402535], [8.586386418887308, 47.37427853501988]]]}}, {"type": "Feature", "properties": {"name": "Forsthaus_Oben 26"}, "geometry": {"type": "Polygon", "coordinates": [[[8.586428705711194, 47.37426643108823], [8.586442241735238, 47.374273216398535], [8.588046928513972, 47.372795980166046], [8.588033392659591, 47.372789195044014], [8.586428705711194, 47.37426643108823]]]}}, {"type": "Feature", "properties": {"name": "Forsthaus_Oben 27"}, "geometry": {"type": "Polygon", "coordinates": [[[8.586470992515848, 47.37425432714087], [8.586484528542263, 47.374261112446206], [8.588075261956169, 47.372796719797215], [8.588061726097942, 47.3727899346785], [8.586470992515848, 47.37425432714087]]]}}, {"type": "Feature", "properties": {"name": "Forsthaus_Oben 28"}, "geometry": {"type": "Polygon", "coordinates": [[[8.5865132793012, 47.37424222317784], [8.586526815329986, 47.374249008478195], [8.588103595399183, 47.37279745942136], [8.588090059537114, 47.37279067430599], [8.5865132793012, 47.37424222317784]]]}}, {"type": "Feature", "properties": {"name": "Forsthaus_Oben 29"}, "geometry": {"type": "Polygon", "coordinates": [[[8.586555566067293, 47.37423011919911], [8.58656910209845, 47.3742369044945], [8.588131928843039, 47.37279819903849], [8.588118392977123, 47.372791413926464], [8.586555566067293, 47.37423011919911]]]}}, {"type": "Feature", "properties": {"name": "Forsthaus_Oben 30"}, "geometry": {"type": "Polygon", "coordinates": [[[8.586597852814124, 47.37421801520471], [8.58661138884765, 47.37422480049512], [8.58816026228774, 47.37279893864866], [8.588146726417978, 47.37279215353994], [8.586597852814124, 47.37421801520471]]]}}, {"type": "Feature", "properties": {"name": "Forsthaus_Oben 31"}, "geometry": {"type": "Polygon", "coordinates": [[[8.586640139541686, 47.374205911194615], [8.586653675577583, 47.37421269648005], [8.588188595733278, 47.37279967825178], [8.588175059859672, 47.372792893146425], [8.586640139541686, 47.374205911194615]]]}}, {"type": "Feature", "properties": {"name": "Forsthaus_Oben 32"}, "geometry": {"type": "Polygon", "coordinates": [[[8.58668242624997, 47.37419380716884], [8.586695962288237, 47.37420059244931], [8.588216929179646, 47.37280041784793], [8.588203393302194, 47.3727936327459], [8.58668242624997, 47.37419380716884]]]}}, {"type": "Feature", "properties": {"name": "Forsthaus_Oben 33"}, "geometry": {"type": "Polygon", "coordinates": [[[8.586724712938988, 47.374181703127384], [8.586738248979627, 47.37418848840289], [8.58824526262686, 47.37280115743708], [8.588231726745564, 47.37279437233838], [8.586724712938988, 47.374181703127384]]]}}, {"type": "Feature", "properties": {"name": "Forsthaus_Oben 34"}, "geometry": {"type": "Polygon", "coordinates": [[[8.586766999608738, 47.37416959907024], [8.586780535651748, 47.37417638434077], [8.588273596074902, 47.37280189701922], [8.588260060189763, 47.37279511192386], [8.586766999608738, 47.37416959907024]]]}}, {"type": "Feature", "properties": {"name": "Forsthaus_Oben 35"}, "geometry": {"type": "Polygon", "coordinates": [[[8.586809286259244, 47.37415749499741], [8.586822822304624, 47.37416428026296], [8.588301929523805, 47.37280263659435], [8.588288393634818, 47.372795851502325], [8.586809286259244, 47.37415749499741]]]}}, {"type": "Feature", "properties": {"name": "Forsthaus_Oben 36"}, "geometry": {"type": "Polygon", "coordinates": [[[8.58685157289046, 47.3741453909089], [8.586865108938209, 47.37415217616948], [8.588330262973527, 47.3728033761625], [8.588316727080693, 47.37279659107381], [8.58685157289046, 47.3741453909089]]]}}, {"type": "Feature", "properties": {"name": "Forsthaus_Oben 37"}, "geometry": {"type": "Polygon", "coordinates": [[[8.586893859502409, 47.3741332868047], [8.586907395552531, 47.374140072060314], [8.588358596424092, 47.37280411572363], [8.588345060527415, 47.37279733063827], [8.586893859502409, 47.3741332868047]]]}}, {"type": "Feature", "properties": {"name": "Forsthaus_Oben 38"}, "geometry": {"type": "Polygon", "coordinates": [[[8.586936146095097, 47.374121182684824], [8.586949682147587, 47.37412796793546], [8.5883869298755, 47.372804855277764], [8.58837339397498, 47.37279807019574], [8.586936146095097, 47.374121182684824]]]}}, {"type": "Feature", "properties": {"name": "Forsthaus_Oben 39"}, "geometry": {"type": "Polygon", "coordinates": [[[8.586978432668513, 47.37410907854925], [8.586991968723373, 47.37411586379492], [8.588415263327741, 47.37280559482492], [8.588401727423376, 47.37279880974623], [8.586978432668513, 47.37410907854925]]]}}, {"type": "Feature", "properties": {"name": "Forsthaus_Oben 40"}, "geometry": {"type": "Polygon", "coordinates": [[[8.587020719222673, 47.374096974398], [8.587034255279905, 47.37410375963869], [8.58844359678083, 47.372806334365045], [8.588430060872621, 47.37279954928969], [8.587020719222673, 47.374096974398]]]}}, {"type": "Feature", "properties": {"name": "Forsthaus_Oben 41"}, "geometry": {"type": "Polygon", "coordinates": [[[8.58706300575753, 47.37408487023109], [8.587076541817131, 47.37409165546679], [8.588471930234736, 47.37280707389819], [8.58845839432268, 47.37280028882616], [8.58706300575753, 47.37408487023109]]]}}, {"type": "Feature", "properties": {"name": "Forsthaus_Oben 42"}, "geometry": {"type": "Polygon", "coordinates": [[[8.58710529227315, 47.374072766048464], [8.587118828335122, 47.374079551279216], [8.588500263689498, 47.372807813424316], [8.588486727773597, 47.37280102835564], [8.58710529227315, 47.374072766048464]]]}}, {"type": "Feature", "properties": {"name": "Forsthaus_Oben 43"}, "geometry": {"type": "Polygon", "coordinates": [[[8.587147578769486, 47.37406066185016], [8.587161114833828, 47.37406744707594], [8.58852859714509, 47.37280855294345], [8.588515061225344, 47.37280176787811], [8.587147578769486, 47.37406066185016]]]}}, {"type": "Feature", "properties": {"name": "Forsthaus_Oben 44"}, "geometry": {"type": "Polygon", "coordinates": [[[8.58718986524657, 47.374048557636165], [8.587203401313284, 47.37405534285697], [8.588556930601529, 47.372809292455585], [8.588543394677938, 47.37280250739356], [8.58718986524657, 47.374048557636165]]]}}, {"type": "Feature", "properties": {"name": "Forsthaus_Oben 45"}, "geometry": {"type": "Polygon", "coordinates": [[[8.587232151704372, 47.3740364534065], [8.587245687773454, 47.374043238622335], [8.588585264058798, 47.37281003196071], [8.588571728131363, 47.37280324690204], [8.587232151704372, 47.3740364534065]]]}}, {"type": "Feature", "properties": {"name": "Forsthaus_Oben 46"}, "geometry": {"type": "Polygon", "coordinates": [[[8.587274438142924, 47.37402434916113], [8.587287974214377, 47.374031134372], [8.588613597516911, 47.37281077145883], [8.58860006158563, 47.3728039864035], [8.587274438142924, 47.37402434916113]]]}}, {"type": "Feature", "properties": {"name": "Forsthaus_Oben 47"}, "geometry": {"type": "Polygon", "coordinates": [[[8.587316724562179, 47.37401224490011], [8.587330260636003, 47.374019030106], [8.588641930975854, 47.37281151094997], [8.588628395040729, 47.372804725897964], [8.587316724562179, 47.37401224490011]]]}}, {"type": "Feature", "properties": {"name": "Forsthaus_Oben 48"}, "geometry": {"type": "Polygon", "coordinates": [[[8.587359010962192, 47.37400014062339], [8.587372547038386, 47.374006925824304], [8.588670264435653, 47.37281225043409], [8.588656728496682, 47.37280546538543], [8.587359010962192, 47.37400014062339]]]}}, {"type": "Feature", "properties": {"name": "Forsthaus_Oben 49"}, "geometry": {"type": "Polygon", "coordinates": [[[8.587401297342927, 47.37398803633097], [8.587414833421493, 47.37399482152692], [8.588698597896272, 47.372812989911225], [8.588685061953456, 47.372806204865874], [8.587401297342927, 47.37398803633097]]]}}, {"type": "Feature", "properties": {"name": "Forsthaus_Oben 50"}, "geometry": {"type": "Polygon", "coordinates": [[[8.58744358370442, 47.37397593202288], [8.587457119785354, 47.373982717213856], [8.588726931357751, 47.37281372938135], [8.588713395411093, 47.372806944339345], [8.58744358370442, 47.37397593202288]]]}}, {"type": "Feature", "properties": {"name": "Forsthaus_Oben 51"}, "geometry": {"type": "Polygon", "coordinates": [[[8.587485870046603, 47.37396382769911], [8.587499406129908, 47.3739706128851], [8.588755264820046, 47.37281446884447], [8.588741728869541, 47.37280768380581], [8.587485870046603, 47.37396382769911]]]}}, {"type": "Feature", "properties": {"name": "Forsthaus_Oben 52"}, "geometry": {"type": "Polygon", "coordinates": [[[8.587528156369542, 47.373951723359646], [8.587541692455215, 47.373958508540674], [8.58878359828319, 47.372815208300594], [8.58877006232884, 47.372808423265255], [8.587528156369542, 47.373951723359646]]]}}, {"type": "Feature", "properties": {"name": "Forsthaus_Oben 53"}, "geometry": {"type": "Polygon", "coordinates": [[[8.587570442673206, 47.3739396190045], [8.58758397876125, 47.37394640418056], [8.588812127070762, 47.37281576792943], [8.588798591112585, 47.37280898289745], [8.587570442673206, 47.3739396190045]]]}}, {"type": "Feature", "properties": {"name": "Forsthaus_Oben 54"}, "geometry": {"type": "Polygon", "coordinates": [[[8.587612728957607, 47.373927514633664], [8.587626265048021, 47.37393429980475], [8.588841894195918, 47.37281518750313], [8.58882835823405, 47.37280840247466], [8.587612728957607, 47.373927514633664]]]}}, {"type": "Feature", "properties": {"name": "Forsthaus_Oben 55"}, "geometry": {"type": "Polygon", "coordinates": [[[8.587655015222737, 47.37391541024715], [8.58766855131552, 47.373922195413265], [8.588871661320464, 47.372814607069095], [8.588858125354902, 47.372807822044116], [8.587655015222737, 47.37391541024715]]]}}, {"type": "Feature", "properties": {"name": "Forsthaus_Oben 56"}, "geometry": {"type": "Polygon", "coordinates": [[[8.587697301468598, 47.37390330584496], [8.587710837563753, 47.3739100910061], [8.588901428444414, 47.37281402662731], [8.58888789247516, 47.372807241605855], [8.587697301468598, 47.37390330584496]]]}}, {"type": "Feature", "properties": {"name": "Forsthaus_Oben 57"}, "geometry": {"type": "Polygon", "coordinates": [[[8.587739587695197, 47.37389120142708], [8.587753123792721, 47.37389798658325], [8.58893119556776, 47.372813446177815], [8.588917659594811, 47.37280666115985], [8.587739587695197, 47.37389120142708]]]}}, {"type": "Feature", "properties": {"name": "Forsthaus_Oben 58"}, "geometry": {"type": "Polygon", "coordinates": [[[8.587781873902523, 47.37387909699351], [8.58779541000242, 47.373885882144705], [8.588960962690503, 47.37281286572059], [8.588947426713862, 47.37280608070613], [8.587781873902523, 47.37387909699351]]]}}, {"type": "Feature", "properties": {"name": "Forsthaus_Oben 59"}, "geometry": {"type": "Polygon", "coordinates": [[[8.587824160090578, 47.37386699254426], [8.587837696192842, 47.3738737776905], [8.588990729812641, 47.37281228525562], [8.588977193832308, 47.372805500244674], [8.587824160090578, 47.37386699254426]]]}}, {"type": "Feature", "properties": {"name": "Forsthaus_Oben 60"}, "geometry": {"type": "Polygon", "coordinates": [[[8.587866446259353, 47.373854888079336], [8.587879982363988, 47.37386167322059], [8.58902049693417, 47.37281170478292], [8.589006960950142, 47.37280491977547], [8.587866446259353, 47.373854888079336]]]}}, {"type": "Feature", "properties": {"name": "Forsthaus_Oben 61"}, "geometry": {"type": "Polygon", "coordinates": [[[8.587908732408891, 47.37384278359871], [8.587922268515896, 47.373849568735004], [8.589050264055123, 47.3728111243025], [8.589036728067402, 47.37280433929855], [8.587908732408891, 47.37384278359871]]]}}, {"type": "Feature", "properties": {"name": "Forsthaus_Oben 62"}, "geometry": {"type": "Polygon", "coordinates": [[[8.587951018539137, 47.37383067910241], [8.587964554648511, 47.37383746423372], [8.589079824328284, 47.37281073424493], [8.589066288336848, 47.372803949244464], [8.587951018539137, 47.37383067910241]]]}}, {"type": "Feature", "properties": {"name": "Forsthaus_Oben 63"}, "geometry": {"type": "Polygon", "coordinates": [[[8.587993304650128, 47.37381857459044], [8.588006840761873, 47.373825359716776], [8.589109224190516, 47.37281049185933], [8.589095688195346, 47.372803706862314], [8.587993304650128, 47.37381857459044]]]}}, {"type": "Feature", "properties": {"name": "Forsthaus_Oben 64"}, "geometry": {"type": "Polygon", "coordinates": [[[8.58803559074185, 47.37380647006275], [8.588049126855964, 47.37381325518413], [8.589138624052529, 47.37281024946617], [8.589125088053628, 47.372803464472625], [8.58803559074185, 47.37380647006275]]]}}, {"type": "Feature", "properties": {"name": "Forsthaus_Oben 65"}, "geometry": {"type": "Polygon", "coordinates": [[[8.588077876814284, 47.373794365519416], [8.588091412930767, 47.373801150635806], [8.589168023914308, 47.37281000706548], [8.589154487911674, 47.37280322207539], [8.588077876814284, 47.373794365519416]]]}}, {"type": "Feature", "properties": {"name": "Forsthaus_Oben 66"}, "geometry": {"type": "Polygon", "coordinates": [[[8.588120162867463, 47.373782260960375], [8.588133698986317, 47.37378904607181], [8.589197126473108, 47.37281003836524], [8.589183590466712, 47.372803253378585], [8.588120162867463, 47.373782260960375]]]}}, {"type": "Feature", "properties": {"name": "Forsthaus_Oben 67"}, "geometry": {"type": "Polygon", "coordinates": [[[8.588162448901375, 47.37377015638565], [8.5881759850226, 47.37377694149211], [8.589218590021535, 47.37281710241929], [8.589205054010568, 47.372810317435146], [8.588162448901375, 47.37377015638565]]]}}, {"type": "Feature", "properties": {"name": "Forsthaus_Oben 68"}, "geometry": {"type": "Polygon", "coordinates": [[[8.58820473491602, 47.37375805179526], [8.588218271039615, 47.37376483689674], [8.589240053575715, 47.372824166469314], [8.589226517560176, 47.372817381487714], [8.58820473491602, 47.37375805179526]]]}}, {"type": "Feature", "properties": {"name": "Forsthaus_Oben 69"}, "geometry": {"type": "Polygon", "coordinates": [[[8.588247020911403, 47.37374594718917], [8.588260557037367, 47.37375273228567], [8.589255787702093, 47.372836505251435], [8.589242251681378, 47.37282972027168], [8.588247020911403, 47.37374594718917]]]}}, {"type": "Feature", "properties": {"name": "Forsthaus_Oben 70"}, "geometry": {"type": "Polygon", "coordinates": [[[8.588289306887503, 47.3737338425674], [8.588302843015837, 47.37374062765893], [8.589264071440226, 47.37285570315033], [8.589250535413546, 47.37284891817155], [8.588289306887503, 47.3737338425674]]]}}, {"type": "Feature", "properties": {"name": "Forsthaus_Oben 71"}, "geometry": {"type": "Polygon", "coordinates": [[[8.588331592844341, 47.37372173792994], [8.588345128975044, 47.37372852301651], [8.589272355184331, 47.37287490104858], [8.589258819151684, 47.3728681160708], [8.588331592844341, 47.37372173792994]]]}}, {"type": "Feature", "properties": {"name": "Forsthaus_Oben 72"}, "geometry": {"type": "Polygon", "coordinates": [[[8.58837387878193, 47.373709633276796], [8.588387414915003, 47.3737164183584], [8.589278837050768, 47.372895757828324], [8.589265301011967, 47.37288897285131], [8.58837387878193, 47.373709633276796]]]}}, {"type": "Feature", "properties": {"name": "Forsthaus_Oben 73"}, "geometry": {"type": "Polygon", "coordinates": [[[8.58841616470023, 47.373697528607984], [8.588429700835672, 47.3737043136846], [8.589281695481219, 47.372919950483116], [8.589268159435877, 47.372913165506446], [8.58841616470023, 47.373697528607984]]]}}, {"type": "Feature", "properties": {"name": "Forsthaus_Oben 74"}, "geometry": {"type": "Polygon", "coordinates": [[[8.588458450599248, 47.373685423923476], [8.588471986737062, 47.373692208995124], [8.58928455391421, 47.37294414313773], [8.589271017862329, 47.37293735816141], [8.588458450599248, 47.373685423923476]]]}}, {"type": "Feature", "properties": {"name": "Forsthaus_Oben 75"}, "geometry": {"type": "Polygon", "coordinates": [[[8.588500736479029, 47.37367331922328], [8.588514272619209, 47.37368010428996], [8.589286548141832, 47.37296913141366], [8.589273012083321, 47.372962346437596], [8.588500736479029, 47.37367331922328]]]}}, {"type": "Feature", "properties": {"name": "Forsthaus_Oben 76"}, "geometry": {"type": "Polygon", "coordinates": [[[8.588543022339511, 47.373661214507415], [8.588556558482063, 47.373667999569115], [8.589288220067932, 47.37299441641357], [8.589274684002756, 47.37298763143769], [8.588543022339511, 47.373661214507415]]]}}, {"type": "Feature", "properties": {"name": "Forsthaus_Oben 77"}, "geometry": {"type": "Polygon", "coordinates": [[[8.588585308180749, 47.37364910977586], [8.58859884432567, 47.37365589483259], [8.589293148349752, 47.37301670349685], [8.589279612278256, 47.373009918521575], [8.588585308180749, 47.37364910977586]]]}}, {"type": "Feature", "properties": {"name": "Forsthaus_Oben 78"}, "geometry": {"type": "Polygon", "coordinates": [[[8.588627594002718, 47.37363700502861], [8.588641130150009, 47.37364379008037], [8.589300635821063, 47.373036634502384], [8.589287099743519, 47.373029849528], [8.588627594002718, 47.37363700502861]]]}}, {"type": "Feature", "properties": {"name": "Forsthaus_Oben 79"}, "geometry": {"type": "Polygon", "coordinates": [[[8.588669879805403, 47.373624900265696], [8.588683415955064, 47.37363168531248], [8.589313545558845, 47.37305157358039], [8.589300009475823, 47.37304478860752], [8.588669879805403, 47.373624900265696]]]}}, {"type": "Feature", "properties": {"name": "Forsthaus_Oben 80"}, "geometry": {"type": "Polygon", "coordinates": [[[8.588712165588817, 47.37361279548709], [8.588725701740847, 47.37361958052891], [8.589326455303896, 47.373066512656905], [8.589312919215399, 47.37305972768557], [8.588712165588817, 47.37361279548709]]]}}, {"type": "Feature", "properties": {"name": "Forsthaus_Oben 81"}, "geometry": {"type": "Polygon", "coordinates": [[[8.58875445135297, 47.3736006906928], [8.58876798750737, 47.37360747572964], [8.589339407595272, 47.373081412568986], [8.589325871501305, 47.37307462759919], [8.58875445135297, 47.3736006906928]]]}}, {"type": "Feature", "properties": {"name": "Forsthaus_Oben 82"}, "geometry": {"type": "Polygon", "coordinates": [[[8.588796737097848, 47.37358858588282], [8.58881027325462, 47.3735953709147], [8.589352857036948, 47.37309585479183], [8.589339320937558, 47.37308906982362], [8.588796737097848, 47.37358858588282]]]}}, {"type": "Feature", "properties": {"name": "Forsthaus_Oben 83"}, "geometry": {"type": "Polygon", "coordinates": [[[8.588839022823487, 47.373576481057164], [8.588852558982628, 47.37358326608406], [8.58936630648596, 47.37311029701309], [8.589352770381153, 47.373103512046455], [8.588839022823487, 47.373576481057164]]]}}, {"type": "Feature", "properties": {"name": "Forsthaus_Oben 84"}, "geometry": {"type": "Polygon", "coordinates": [[[8.588881308529848, 47.373564376215825], [8.588894844691357, 47.373571161237756], [8.589381736383746, 47.37312291596665], [8.58936820027373, 47.37311613100183], [8.588881308529848, 47.373564376215825]]]}}, {"type": "Feature", "properties": {"name": "Forsthaus_Oben 85"}, "geometry": {"type": "Polygon", "coordinates": [[[8.588923594216919, 47.3735522713588], [8.588937130380797, 47.37355905637576], [8.589399554712681, 47.373133336048106], [8.589386018597708, 47.373126551085406], [8.588923594216919, 47.3735522713588]]]}}, {"type": "Feature", "properties": {"name": "Forsthaus_Oben 86"}, "geometry": {"type": "Polygon", "coordinates": [[[8.588965879884725, 47.37354016648608], [8.588979416050972, 47.37354695149808], [8.58941737304864, 47.373143756126815], [8.589403836928708, 47.37313697116621], [8.588965879884725, 47.37354016648608]]]}}, {"type": "Feature", "properties": {"name": "Forsthaus_Oben 87"}, "geometry": {"type": "Polygon", "coordinates": [[[8.589008165533269, 47.373528061597696], [8.589021701701885, 47.37353484660471], [8.589435191391628, 47.37315417620274], [8.589421655266738, 47.37314739124424], [8.589008165533269, 47.373528061597696]]]}}, {"type": "Feature", "properties": {"name": "Forsthaus_Oben 88"}, "geometry": {"type": "Polygon", "coordinates": [[[8.58905045116254, 47.37351595669362], [8.589063987333526, 47.37352274169567], [8.589453009741636, 47.3731645962759], [8.589439473611792, 47.373157811319494], [8.58905045116254, 47.37351595669362]]]}}, {"type": "Feature", "properties": {"name": "Forsthaus_Oben 89"}, "geometry": {"type": "Polygon", "coordinates": [[[8.589092736772537, 47.37350385177387], [8.589106272945894, 47.373510636770945], [8.58947082809867, 47.37317501634629], [8.58945729196387, 47.37316823139198], [8.589092736772537, 47.37350385177387]]]}}, {"type": "Feature", "properties": {"name": "Forsthaus_Oben 90"}, "geometry": {"type": "Polygon", "coordinates": [[[8.589135022363271, 47.37349174683844], [8.589148558538996, 47.37349853183053], [8.58948864646273, 47.37318543641393], [8.58947511032297, 47.373178651461714], [8.589135022363271, 47.37349174683844]]]}}, {"type": "Feature", "properties": {"name": "Forsthaus_Oben 91"}, "geometry": {"type": "Polygon", "coordinates": [[[8.58917730793475, 47.37347964188729], [8.589190844112846, 47.37348642687443], [8.58950646483382, 47.37319585647877], [8.589492928689106, 47.37318907152869], [8.58917730793475, 47.37347964188729]]]}}, {"type": "Feature", "properties": {"name": "Forsthaus_Oben 92"}, "geometry": {"type": "Polygon", "coordinates": [[[8.58921959348696, 47.373467536920494], [8.589233129667425, 47.37347432190265], [8.589524283211937, 47.373206276540884], [8.589510747062263, 47.373199491592885], [8.58921959348696, 47.373467536920494]]]}}, {"type": "Feature", "properties": {"name": "Forsthaus_Oben 93"}, "geometry": {"type": "Polygon", "coordinates": [[[8.589261879019896, 47.373455431937984], [8.58927541520273, 47.37346221691518], [8.58954210159707, 47.37321669660021], [8.589528565442441, 47.373209911654314], [8.589261879019896, 47.373455431937984]]]}}, {"type": "Feature", "properties": {"name": "Forsthaus_Oben 94"}, "geometry": {"type": "Polygon", "coordinates": [[[8.589304164533564, 47.373443326939835], [8.589317700718768, 47.373450111912035], [8.589559919989233, 47.37322711665677], [8.589546383829648, 47.37322033171298], [8.589304164533564, 47.373443326939835]]]}}, {"type": "Feature", "properties": {"name": "Forsthaus_Oben 95"}, "geometry": {"type": "Polygon", "coordinates": [[[8.589346450027936, 47.37343122192597], [8.58935998621551, 47.37343800689322], [8.589577738388408, 47.37323753671055], [8.589564202223865, 47.37323075176886], [8.589346450027936, 47.37343122192597]]]}}, {"type": "Feature", "properties": {"name": "Forsthaus_Oben 96"}, "geometry": {"type": "Polygon", "coordinates": [[[8.589388735503068, 47.37341911689642], [8.58940227169301, 47.37342590185871], [8.58959555679462, 47.37324795676158], [8.58958202062512, 47.37324117182198], [8.589388735503068, 47.37341911689642]]]}}, {"type": "Feature", "properties": {"name": "Forsthaus_Oben 97"}, "geometry": {"type": "Polygon", "coordinates": [[[8.589431020958937, 47.37340701185119], [8.58944455715125, 47.37341379680849], [8.58961337520786, 47.373258376809844], [8.589599839033403, 47.373251591872354], [8.589431020958937, 47.37340701185119]]]}}, {"type": "Feature", "properties": {"name": "Forsthaus_Oben 98"}, "geometry": {"type": "Polygon", "coordinates": [[[8.589473306395517, 47.373394906790296], [8.589486842590198, 47.37340169174262], [8.589631193628115, 47.37326879685533], [8.589617657448702, 47.37326201191994], [8.589473306395517, 47.373394906790296]]]}}, {"type": "Feature", "properties": {"name": "Forsthaus_Oben 99"}, "geometry": {"type": "Polygon", "coordinates": [[[8.589515591812843, 47.3733828017137], [8.589529128009893, 47.373389586661055], [8.5896490120554, 47.37327921689805], [8.58963547587103, 47.373272431964764], [8.589515591812843, 47.3733828017137]]]}}, {"type": "Feature", "properties": {"name": "Forsthaus_Oben 100"}, "geometry": {"type": "Polygon", "coordinates": [[[8.589557877210876, 47.373370696621436], [8.589571413410297, 47.3733774815638], [8.589666830489701, 47.373289636938004], [8.589653294300373, 47.37328285200682], [8.589557877210876, 47.373370696621436]]]}}, {"type": "Feature", "properties": {"name": "Forsthaus_Oben 101"}, "geometry": {"type": "Polygon", "coordinates": [[[8.589600162589663, 47.37335859151347], [8.589613698791453, 47.37336537645088], [8.589684648931037, 47.373300056975175], [8.589671112736752, 47.373293272046105], [8.589600162589663, 47.37335859151347]]]}}, {"type": "Feature", "properties": {"name": "Forsthaus_Oben 102"}, "geometry": {"type": "Polygon", "coordinates": [[[8.589642447949178, 47.373346486389835], [8.589655984153337, 47.373353271322266], [8.589702467379395, 47.3733104770096], [8.589688931180152, 47.37330369208262], [8.589642447949178, 47.373346486389835]]]}}]}