{"type": "FeatureCollection", "features": [{"type": "Feature", "properties": {"name": "MarketGarden 5"}, "geometry": {"type": "Polygon", "coordinates": [[[8.73667651739932, 47.312304154433214], [8.73668696350276, 47.31229520341892], [8.736445476703528, 47.31216484894322], [8.736435030585188, 47.312173799935685], [8.73667651739932, 47.312304154433214]]]}}, {"type": "Feature", "properties": {"name": "MarketGarden 6"}, "geometry": {"type": "Polygon", "coordinates": [[[8.736691803704597, 47.31229207213408], [8.736702249803072, 47.31228312111836], [8.736451982833502, 47.312148027112116], [8.736441536719584, 47.31215697810521], [8.736691803704597, 47.31229207213408]]]}}, {"type": "Feature", "properties": {"name": "MarketGarden 7"}, "geometry": {"type": "Polygon", "coordinates": [[[8.736707090002893, 47.31227998983286], [8.736717536096405, 47.31227103881571], [8.736458488959324, 47.31213120528058], [8.736448042849826, 47.3121401562743], [8.736707090002893, 47.31227998983286]]]}}, {"type": "Feature", "properties": {"name": "MarketGarden 8"}, "geometry": {"type": "Polygon", "coordinates": [[[8.736722376294225, 47.312267907529545], [8.736732822382772, 47.31225895651098], [8.736464995080997, 47.312114383448616], [8.736454548975923, 47.31212333444297], [8.736722376294225, 47.312267907529545]]]}}, {"type": "Feature", "properties": {"name": "MarketGarden 9"}, "geometry": {"type": "Polygon", "coordinates": [[[8.736737662578578, 47.31225582522417], [8.73674810866216, 47.312246874204185], [8.736471501198517, 47.31209756161624], [8.736461055097864, 47.312106512611216], [8.736737662578578, 47.31225582522417]]]}}, {"type": "Feature", "properties": {"name": "MarketGarden 10"}, "geometry": {"type": "Polygon", "coordinates": [[[8.73675294885597, 47.312243742916706], [8.736763394934588, 47.312234791895285], [8.73647800731189, 47.31208073978342], [8.736467561215663, 47.312089690779025], [8.73675294885597, 47.312243742916706]]]}}, {"type": "Feature", "properties": {"name": "MarketGarden 11"}, "geometry": {"type": "Polygon", "coordinates": [[[8.736768235126386, 47.31223166060717], [8.736778681200038, 47.31222270958433], [8.73637593044886, 47.31200530447926], [8.736365484350355, 47.31201425546568], [8.736768235126386, 47.31223166060717]]]}}, {"type": "Feature", "properties": {"name": "MarketGarden 12"}, "geometry": {"type": "Polygon", "coordinates": [[[8.736783521389826, 47.312219578295554], [8.736793967458516, 47.3122106272713], [8.736273146567681, 47.311929487273765], [8.736262700466856, 47.31193843825092], [8.736783521389826, 47.312219578295554]]]}}, {"type": "Feature", "properties": {"name": "MarketGarden 13"}, "geometry": {"type": "Polygon", "coordinates": [[[8.736798807646306, 47.31220749598186], [8.736809253710032, 47.312198544956175], [8.73628199422488, 47.31191392941057], [8.73627154812862, 47.311922880388565], [8.736798807646306, 47.31220749598186]]]}}, {"type": "Feature", "properties": {"name": "MarketGarden 14"}, "geometry": {"type": "Polygon", "coordinates": [[[8.736814093895807, 47.312195413666075], [8.736824539954567, 47.312186462638984], [8.736290841876864, 47.311898371546654], [8.73628039578517, 47.3119073225255], [8.736814093895807, 47.312195413666075]]]}}, {"type": "Feature", "properties": {"name": "MarketGarden 15"}, "geometry": {"type": "Polygon", "coordinates": [[[8.736829380138337, 47.31218333134823], [8.73683982619213, 47.31217438031972], [8.736299689523637, 47.31188281368202], [8.736289243436513, 47.311891764661695], [8.736829380138337, 47.31218333134823]]]}}, {"type": "Feature", "properties": {"name": "MarketGarden 16"}, "geometry": {"type": "Polygon", "coordinates": [[[8.736844666373901, 47.3121712490283], [8.73685511242273, 47.31216229799837], [8.736308537165204, 47.31186725581663], [8.736298091082647, 47.31187620679715], [8.736844666373901, 47.3121712490283]]]}}, {"type": "Feature", "properties": {"name": "MarketGarden 17"}, "geometry": {"type": "Polygon", "coordinates": [[[8.736859952602495, 47.312159166706294], [8.736870398646358, 47.31215021567493], [8.736317384801563, 47.3118516979505], [8.736306938723574, 47.311860648931884], [8.736859952602495, 47.312159166706294]]]}}, {"type": "Feature", "properties": {"name": "MarketGarden 18"}, "geometry": {"type": "Polygon", "coordinates": [[[8.736875238824107, 47.31214708438221], [8.736885684863005, 47.312138133349436], [8.736326232432706, 47.311836140083656], [8.736315786359283, 47.31184509106586], [8.736875238824107, 47.31214708438221]]]}}, {"type": "Feature", "properties": {"name": "MarketGarden 19"}, "geometry": {"type": "Polygon", "coordinates": [[[8.73689052503876, 47.31213500205605], [8.736900971072696, 47.31212605102184], [8.736335080058646, 47.311820582216065], [8.73632463398979, 47.3118295331991], [8.73689052503876, 47.31213500205605]]]}}, {"type": "Feature", "properties": {"name": "MarketGarden 20"}, "geometry": {"type": "Polygon", "coordinates": [[[8.736905811246436, 47.312122919727805], [8.736916257275404, 47.31211396869218], [8.736343927679371, 47.31180502434775], [8.736333481615086, 47.31181397533162], [8.736905811246436, 47.312122919727805]]]}}, {"type": "Feature", "properties": {"name": "MarketGarden 21"}, "geometry": {"type": "Polygon", "coordinates": [[[8.736921097447135, 47.3121108373975], [8.736931543471142, 47.312101886360445], [8.736352775294886, 47.31178946647868], [8.736342329235168, 47.3117984174634], [8.736921097447135, 47.3121108373975]]]}}, {"type": "Feature", "properties": {"name": "MarketGarden 22"}, "geometry": {"type": "Polygon", "coordinates": [[[8.736936383640872, 47.312098755065094], [8.736946829659912, 47.31208980402663], [8.736361622905196, 47.311773908608885], [8.736351176850041, 47.311782859594445], [8.736936383640872, 47.312098755065094]]]}}, {"type": "Feature", "properties": {"name": "MarketGarden 23"}, "geometry": {"type": "Polygon", "coordinates": [[[8.736951669827635, 47.31208667273063], [8.73696211584171, 47.31207772169071], [8.736370470510293, 47.31175835073835], [8.736360024459708, 47.311767301724764], [8.736951669827635, 47.31208667273063]]]}}, {"type": "Feature", "properties": {"name": "MarketGarden 24"}, "geometry": {"type": "Polygon", "coordinates": [[[8.736966956007429, 47.312074590394076], [8.73697740201654, 47.31206563935275], [8.736379318110181, 47.31174279286709], [8.736368872064164, 47.31175174385432], [8.736966956007429, 47.312074590394076]]]}}, {"type": "Feature", "properties": {"name": "MarketGarden 25"}, "geometry": {"type": "Polygon", "coordinates": [[[8.736982242180257, 47.31206250805543], [8.736992688184403, 47.3120535570127], [8.736388165704865, 47.311727234995075], [8.736377719663414, 47.31173618598316], [8.736982242180257, 47.31206250805543]]]}}, {"type": "Feature", "properties": {"name": "MarketGarden 26"}, "geometry": {"type": "Polygon", "coordinates": [[[8.736997528346112, 47.31205042571472], [8.737007974345296, 47.31204147467056], [8.736397013294338, 47.31171167712233], [8.736386567257455, 47.311720628111246], [8.736997528346112, 47.31205042571472]]]}}, {"type": "Feature", "properties": {"name": "MarketGarden 27"}, "geometry": {"type": "Polygon", "coordinates": [[[8.737012814504991, 47.31203834337193], [8.73702326049921, 47.312029392326366], [8.736406892338033, 47.31169667603822], [8.736396446305779, 47.31170562702806], [8.737012814504991, 47.31203834337193]]]}}, {"type": "Feature", "properties": {"name": "MarketGarden 28"}, "geometry": {"type": "Polygon", "coordinates": [[[8.7370281006569, 47.312026261027064], [8.73703854664615, 47.312017309980064], [8.736419062868398, 47.31168291191744], [8.736408616840919, 47.311691862908425], [8.7370281006569, 47.312026261027064]]]}}, {"type": "Feature", "properties": {"name": "MarketGarden 29"}, "geometry": {"type": "Polygon", "coordinates": [[[8.737043386801838, 47.312014178680144], [8.737053832786126, 47.31200522763171], [8.736431233392434, 47.31166914779532], [8.736420787369726, 47.31167809878745], [8.737043386801838, 47.312014178680144]]]}}, {"type": "Feature", "properties": {"name": "MarketGarden 30"}, "geometry": {"type": "Polygon", "coordinates": [[[8.737058672939805, 47.312002096331106], [8.737069118919127, 47.311993145281264], [8.73644340391014, 47.31165538367188], [8.736432957892205, 47.31166433466515], [8.737058672939805, 47.312002096331106]]]}}, {"type": "Feature", "properties": {"name": "MarketGarden 31"}, "geometry": {"type": "Polygon", "coordinates": [[[8.737073959070797, 47.31199001398001], [8.737084405045156, 47.31198106292874], [8.736455574421516, 47.311641619547096], [8.736445128408352, 47.3116505705415], [8.737073959070797, 47.31199001398001]]]}}, {"type": "Feature", "properties": {"name": "MarketGarden 32"}, "geometry": {"type": "Polygon", "coordinates": [[[8.737089245194822, 47.31197793162684], [8.737099691164216, 47.31196898057415], [8.736467744926564, 47.311627855420966], [8.736457298918172, 47.31163680641651], [8.737089245194822, 47.31197793162684]]]}}, {"type": "Feature", "properties": {"name": "MarketGarden 33"}, "geometry": {"type": "Polygon", "coordinates": [[[8.737104531311882, 47.31196584927158], [8.737114977276313, 47.311956898217474], [8.736479915425287, 47.31161409129349], [8.736469469421667, 47.311623042290186], [8.737104531311882, 47.31196584927158]]]}}, {"type": "Feature", "properties": {"name": "MarketGarden 34"}, "geometry": {"type": "Polygon", "coordinates": [[[8.737119817421965, 47.311953766914236], [8.73713026338143, 47.31194481585871], [8.736492085917675, 47.311600327164705], [8.736481639918829, 47.31160927816252], [8.737119817421965, 47.311953766914236]]]}}, {"type": "Feature", "properties": {"name": "MarketGarden 35"}, "geometry": {"type": "Polygon", "coordinates": [[[8.737135103525077, 47.31194168455484], [8.737145549479576, 47.311932733497876], [8.736504256403736, 47.31158656303455], [8.73649381040966, 47.31159551403353], [8.737135103525077, 47.31194168455484]]]}}, {"type": "Feature", "properties": {"name": "MarketGarden 36"}, "geometry": {"type": "Polygon", "coordinates": [[[8.737150389621217, 47.311929602193345], [8.737160835570755, 47.31192065113496], [8.736516426883465, 47.31157279890308], [8.736505980894163, 47.311581749903176], [8.737150389621217, 47.311929602193345]]]}}, {"type": "Feature", "properties": {"name": "MarketGarden 37"}, "geometry": {"type": "Polygon", "coordinates": [[[8.737165675710383, 47.311917519829784], [8.737176121654953, 47.31190856876998], [8.73652859735686, 47.31155903477026], [8.73651815137233, 47.31156798577151], [8.737165675710383, 47.311917519829784]]]}}, {"type": "Feature", "properties": {"name": "MarketGarden 38"}, "geometry": {"type": "Polygon", "coordinates": [[[8.737180961792578, 47.311905437464134], [8.737191407732185, 47.31189648640292], [8.736540767823927, 47.31154527063611], [8.736530321844171, 47.3115542216385], [8.737180961792578, 47.311905437464134]]]}}, {"type": "Feature", "properties": {"name": "MarketGarden 39"}, "geometry": {"type": "Polygon", "coordinates": [[[8.737196247867814, 47.31189335509641], [8.737206693802458, 47.31188440403376], [8.736552938284676, 47.31153150650061], [8.736542492309692, 47.31154045750413], [8.737196247867814, 47.31189335509641]]]}}, {"type": "Feature", "properties": {"name": "MarketGarden 40"}, "geometry": {"type": "Polygon", "coordinates": [[[8.737211533936073, 47.3118812727266], [8.737221979865751, 47.31187232166255], [8.73656510873909, 47.311517742363776], [8.736554662768876, 47.31152669336845], [8.737211533936073, 47.3118812727266]]]}}, {"type": "Feature", "properties": {"name": "MarketGarden 41"}, "geometry": {"type": "Polygon", "coordinates": [[[8.737226819997352, 47.31186919035473], [8.737237265922065, 47.311860239289246], [8.736577279187166, 47.311503978225616], [8.736566833221726, 47.31151292923143], [8.737226819997352, 47.31186919035473]]]}}, {"type": "Feature", "properties": {"name": "MarketGarden 42"}, "geometry": {"type": "Polygon", "coordinates": [[[8.737242106051673, 47.31185710798079], [8.737252551971421, 47.31184815691386], [8.736589449628921, 47.3114902140861], [8.736579003668252, 47.31149916509307], [8.737242106051673, 47.31185710798079]]]}}, {"type": "Feature", "properties": {"name": "MarketGarden 43"}, "geometry": {"type": "Polygon", "coordinates": [[[8.737257392099016, 47.31184502560474], [8.7372678380138, 47.3118360745364], [8.736601620064347, 47.31147644994527], [8.736591174108451, 47.31148540095335], [8.737257392099016, 47.31184502560474]]]}}, {"type": "Feature", "properties": {"name": "MarketGarden 44"}, "geometry": {"type": "Polygon", "coordinates": [[[8.737272678139389, 47.31183294322664], [8.73728312404921, 47.31182399215687], [8.736613790493438, 47.31146268580309], [8.736603344542315, 47.311471636812314], [8.737272678139389, 47.31183294322664]]]}}, {"type": "Feature", "properties": {"name": "MarketGarden 45"}, "geometry": {"type": "Polygon", "coordinates": [[[8.737287964172793, 47.31182086084643], [8.737298410077647, 47.31181190977525], [8.736625960916202, 47.31144892165956], [8.736615514969852, 47.31145787266993], [8.737287964172793, 47.31182086084643]]]}}, {"type": "Feature", "properties": {"name": "MarketGarden 46"}, "geometry": {"type": "Polygon", "coordinates": [[[8.73730325019923, 47.31180877846416], [8.737313696099118, 47.31179982739157], [8.73663813133264, 47.3114351575147], [8.736627685391062, 47.31144410852621], [8.73730325019923, 47.31180877846416]]]}}, {"type": "Feature", "properties": {"name": "MarketGarden 47"}, "geometry": {"type": "Polygon", "coordinates": [[[8.737318536218686, 47.311796696079824], [8.73732898211361, 47.311787745005795], [8.736650301742744, 47.31142139336851], [8.736639855805937, 47.31143034438115], [8.737318536218686, 47.311796696079824]]]}}, {"type": "Feature", "properties": {"name": "MarketGarden 48"}, "geometry": {"type": "Polygon", "coordinates": [[[8.737333822231177, 47.31178461369339], [8.73734426812114, 47.311775662617954], [8.736662472146522, 47.31140762922098], [8.736652026214486, 47.31141658023477], [8.737333822231177, 47.31178461369339]]]}}, {"type": "Feature", "properties": {"name": "MarketGarden 49"}, "geometry": {"type": "Polygon", "coordinates": [[[8.737349108236694, 47.31177253130488], [8.73735955412169, 47.311763580228025], [8.736676828518004, 47.311395045075244], [8.736666382590876, 47.311403996090384], [8.737349108236694, 47.31177253130488]]]}}, {"type": "Feature", "properties": {"name": "MarketGarden 50"}, "geometry": {"type": "Polygon", "coordinates": [[[8.737364394235243, 47.31176044891431], [8.737374840115276, 47.31175149783603], [8.736691604946731, 47.311382687681], [8.736681159024537, 47.31139163869749], [8.737364394235243, 47.31176044891431]]]}}, {"type": "Feature", "properties": {"name": "MarketGarden 51"}, "geometry": {"type": "Polygon", "coordinates": [[[8.737379680226823, 47.31174836652165], [8.737390126101893, 47.31173941544194], [8.736706381368567, 47.311370330284774], [8.736695935451303, 47.31137928130267], [8.737379680226823, 47.31174836652165]]]}}, {"type": "Feature", "properties": {"name": "MarketGarden 52"}, "geometry": {"type": "Polygon", "coordinates": [[[8.737394966211435, 47.31173628412691], [8.737405412081536, 47.31172733304578], [8.736721157783508, 47.311357972886626], [8.73671071187118, 47.31136692390589], [8.737394966211435, 47.31173628412691]]]}}, {"type": "Feature", "properties": {"name": "MarketGarden 53"}, "geometry": {"type": "Polygon", "coordinates": [[[8.737410252189061, 47.311724201730115], [8.737420698054198, 47.311715250647566], [8.736735934191547, 47.31134561548654], [8.73672548828415, 47.31135456650717], [8.737410252189061, 47.311724201730115]]]}}, {"type": "Feature", "properties": {"name": "MarketGarden 54"}, "geometry": {"type": "Polygon", "coordinates": [[[8.737425538159725, 47.31171211933121], [8.737435984019898, 47.311703168247234], [8.7367507105927, 47.3113332580845], [8.736740264690239, 47.3113422091065], [8.737425538159725, 47.31171211933121]]]}}, {"type": "Feature", "properties": {"name": "MarketGarden 55"}, "geometry": {"type": "Polygon", "coordinates": [[[8.737440824123427, 47.31170003693023], [8.737451269978635, 47.31169108584484], [8.736765486986968, 47.311320900680506], [8.73675504108944, 47.31132985170389], [8.737440824123427, 47.31170003693023]]]}}, {"type": "Feature", "properties": {"name": "MarketGarden 56"}, "geometry": {"type": "Polygon", "coordinates": [[[8.737456110080146, 47.311687954527194], [8.737466555930391, 47.31167900344037], [8.736780263374333, 47.311308543274556], [8.736769817481736, 47.31131749429933], [8.737456110080146, 47.311687954527194]]]}}, {"type": "Feature", "properties": {"name": "MarketGarden 57"}, "geometry": {"type": "Polygon", "coordinates": [[[8.737471396029894, 47.311675872122066], [8.737481841875175, 47.31166692103382], [8.736795039754806, 47.311296185866695], [8.736784593867142, 47.31130513689282], [8.737471396029894, 47.311675872122066]]]}}, {"type": "Feature", "properties": {"name": "MarketGarden 58"}, "geometry": {"type": "Polygon", "coordinates": [[[8.737486681972683, 47.31166378971486], [8.737497127812999, 47.3116548386252], [8.736809816128394, 47.31128382845685], [8.736799370245663, 47.311292779484376], [8.737486681972683, 47.31166378971486]]]}}, {"type": "Feature", "properties": {"name": "MarketGarden 59"}, "geometry": {"type": "Polygon", "coordinates": [[[8.737501967908498, 47.31165170730558], [8.737512413743847, 47.311642756214496], [8.736824592495086, 47.31127147104509], [8.73681414661729, 47.31128042207398], [8.737501967908498, 47.31165170730558]]]}}, {"type": "Feature", "properties": {"name": "MarketGarden 60"}, "geometry": {"type": "Polygon", "coordinates": [[[8.737517253837327, 47.31163962489423], [8.737527699667714, 47.31163067380172], [8.736839368854875, 47.31125911363137], [8.73682892298201, 47.31126806466165], [8.737517253837327, 47.31163962489423]]]}}, {"type": "Feature", "properties": {"name": "MarketGarden 61"}, "geometry": {"type": "Polygon", "coordinates": [[[8.737532539759199, 47.31162754248078], [8.737542985584621, 47.31161859138686], [8.736854145207783, 47.31124675621572], [8.736843699339849, 47.31125570724736], [8.737532539759199, 47.31162754248078]]]}}, {"type": "Feature", "properties": {"name": "MarketGarden 62"}, "geometry": {"type": "Polygon", "coordinates": [[[8.737547825674106, 47.311615460065255], [8.737558271494564, 47.311606508969916], [8.736868921553802, 47.3112343987981], [8.736858475690804, 47.311243349831116], [8.737547825674106, 47.311615460065255]]]}}, {"type": "Feature", "properties": {"name": "MarketGarden 63"}, "geometry": {"type": "Polygon", "coordinates": [[[8.737563111582032, 47.31160337764767], [8.737573557397523, 47.3115944265509], [8.736883697892917, 47.31122204137856], [8.736873252034853, 47.31123099241295], [8.737563111582032, 47.31160337764767]]]}}, {"type": "Feature", "properties": {"name": "MarketGarden 64"}, "geometry": {"type": "Polygon", "coordinates": [[[8.737578397482988, 47.311591295228], [8.73758884329352, 47.31158234412981], [8.736898474225145, 47.31120968395706], [8.73688802837201, 47.31121863499283], [8.737578397482988, 47.311591295228]]]}}, {"type": "Feature", "properties": {"name": "MarketGarden 65"}, "geometry": {"type": "Polygon", "coordinates": [[[8.737593683376977, 47.311579212806244], [8.737604129182543, 47.31157026170663], [8.736913250550478, 47.3111973265336], [8.736902804702277, 47.31120627757076], [8.737593683376977, 47.311579212806244]]]}}, {"type": "Feature", "properties": {"name": "MarketGarden 66"}, "geometry": {"type": "Polygon", "coordinates": [[[8.737608969263993, 47.311567130382414], [8.737619415064591, 47.31155817928137], [8.736928026868918, 47.31118496910822], [8.73691758102565, 47.31119392014675], [8.737608969263993, 47.311567130382414]]]}}, {"type": "Feature", "properties": {"name": "MarketGarden 67"}, "geometry": {"type": "Polygon", "coordinates": [[[8.737624255144034, 47.31155504795652], [8.737634700939669, 47.31154609685406], [8.736942803180462, 47.31117261168089], [8.736932357342129, 47.31118156272079], [8.737624255144034, 47.31155504795652]]]}}, {"type": "Feature", "properties": {"name": "MarketGarden 68"}, "geometry": {"type": "Polygon", "coordinates": [[[8.73763954101711, 47.31154296552853], [8.737649986807781, 47.31153401442465], [8.736957579485118, 47.31116025425161], [8.736947133651718, 47.31116920529287], [8.73763954101711, 47.31154296552853]]]}}, {"type": "Feature", "properties": {"name": "MarketGarden 69"}, "geometry": {"type": "Polygon", "coordinates": [[[8.737654826883219, 47.31153088309846], [8.737665272668927, 47.31152193199317], [8.736972355782886, 47.31114789682037], [8.736961909954417, 47.31115684786303], [8.737654826883219, 47.31153088309846]]]}}, {"type": "Feature", "properties": {"name": "MarketGarden 70"}, "geometry": {"type": "Polygon", "coordinates": [[[8.737670112742345, 47.311518800666335], [8.737680558523087, 47.3115098495596], [8.736987132073748, 47.31113553938722], [8.736976686250213, 47.31114449043124], [8.737670112742345, 47.311518800666335]]]}}, {"type": "Feature", "properties": {"name": "MarketGarden 71"}, "geometry": {"type": "Polygon", "coordinates": [[[8.737685398594502, 47.31150671823211], [8.737695844370279, 47.311497767123974], [8.73700190835772, 47.31112318195211], [8.73699146253912, 47.31113213299751], [8.737685398594502, 47.31150671823211]]]}}, {"type": "Feature", "properties": {"name": "MarketGarden 72"}, "geometry": {"type": "Polygon", "coordinates": [[[8.737700684439693, 47.31149463579582], [8.737711130210508, 47.311485684686254], [8.737016684634805, 47.31111082451504], [8.737006238821134, 47.31111977556182], [8.737700684439693, 47.31149463579582]]]}}, {"type": "Feature", "properties": {"name": "MarketGarden 73"}, "geometry": {"type": "Polygon", "coordinates": [[[8.737715970277913, 47.31148255335744], [8.73772641604376, 47.311473602246444], [8.737031460904994, 47.31109846707604], [8.737021015096259, 47.31110741812419], [8.737715970277913, 47.31148255335744]]]}}, {"type": "Feature", "properties": {"name": "MarketGarden 74"}, "geometry": {"type": "Polygon", "coordinates": [[[8.737731256109166, 47.311470470917], [8.73774170187005, 47.31146151980459], [8.737046237168292, 47.3110861096351], [8.737035791364491, 47.31109506068462], [8.737731256109166, 47.311470470917]]]}}, {"type": "Feature", "properties": {"name": "MarketGarden 75"}, "geometry": {"type": "Polygon", "coordinates": [[[8.737746541933443, 47.31145838847446], [8.737756987689364, 47.31144943736062], [8.737061288407643, 47.31107390062918], [8.737050842608788, 47.31108285168012], [8.737746541933443, 47.31145838847446]]]}}, {"type": "Feature", "properties": {"name": "MarketGarden 76"}, "geometry": {"type": "Polygon", "coordinates": [[[8.737761827750747, 47.311446306029865], [8.737772273501703, 47.3114373549146], [8.73707695565166, 47.31106202414697], [8.737066509857796, 47.31107097519936], [8.737761827750747, 47.311446306029865]]]}}, {"type": "Feature", "properties": {"name": "MarketGarden 77"}, "geometry": {"type": "Polygon", "coordinates": [[[8.737777113561087, 47.31143422358316], [8.737787559307078, 47.311425272466494], [8.737092622888664, 47.311050147662556], [8.737082177099786, 47.311059098716406], [8.737777113561087, 47.31143422358316]]]}}, {"type": "Feature", "properties": {"name": "MarketGarden 78"}, "geometry": {"type": "Polygon", "coordinates": [[[8.73779239936445, 47.311422141134415], [8.737802845105477, 47.31141319001632], [8.737108290118643, 47.31103827117598], [8.737097844334752, 47.31104722223129], [8.73779239936445, 47.311422141134415]]]}}, {"type": "Feature", "properties": {"name": "MarketGarden 79"}, "geometry": {"type": "Polygon", "coordinates": [[[8.737807685160849, 47.31141005868357], [8.73781813089691, 47.31140110756406], [8.737123957341604, 47.311026394687225], [8.737113511562702, 47.31103534574397], [8.737807685160849, 47.31141005868357]]]}}, {"type": "Feature", "properties": {"name": "MarketGarden 80"}, "geometry": {"type": "Polygon", "coordinates": [[[8.737822970950273, 47.31139797623065], [8.73783341668137, 47.311389025109726], [8.737139624557537, 47.31101451819628], [8.737129178783622, 47.311023469254486], [8.737822970950273, 47.31139797623065]]]}}, {"type": "Feature", "properties": {"name": "MarketGarden 81"}, "geometry": {"type": "Polygon", "coordinates": [[[8.73783825673273, 47.31138589377566], [8.737848702458862, 47.3113769426533], [8.737155291766454, 47.31100264170315], [8.737144845997525, 47.31101159276282], [8.73783825673273, 47.31138589377566]]]}}, {"type": "Feature", "properties": {"name": "MarketGarden 82"}, "geometry": {"type": "Polygon", "coordinates": [[[8.737853542508205, 47.311373811318596], [8.737863988229371, 47.311364860194814], [8.737170958968335, 47.310990765207855], [8.737160513204397, 47.31099971626899], [8.737853542508205, 47.311373811318596]]]}}, {"type": "Feature", "properties": {"name": "MarketGarden 83"}, "geometry": {"type": "Polygon", "coordinates": [[[8.737868828276719, 47.31136172885943], [8.737879273992924, 47.31135277773423], [8.737186626163206, 47.31097888871037], [8.737176180404257, 47.310987839772956], [8.737868828276719, 47.31136172885943]]]}}, {"type": "Feature", "properties": {"name": "MarketGarden 84"}, "geometry": {"type": "Polygon", "coordinates": [[[8.73788411403826, 47.311349646398206], [8.737894559749499, 47.31134069527157], [8.737202293351055, 47.310967012210696], [8.737191847597094, 47.31097596327474], [8.73788411403826, 47.311349646398206]]]}}, {"type": "Feature", "properties": {"name": "MarketGarden 85"}, "geometry": {"type": "Polygon", "coordinates": [[[8.73789939979283, 47.3113375639349], [8.737909845499104, 47.311328612806854], [8.73721796053188, 47.310955135708866], [8.737207514782904, 47.31096408677436], [8.73789939979283, 47.3113375639349]]]}}, {"type": "Feature", "properties": {"name": "MarketGarden 86"}, "geometry": {"type": "Polygon", "coordinates": [[[8.737914685540431, 47.3113254814695], [8.737925131241742, 47.31131653034003], [8.737233627705685, 47.31094325920484], [8.7372231819617, 47.310952210271786], [8.737914685540431, 47.3113254814695]]]}}, {"type": "Feature", "properties": {"name": "MarketGarden 87"}, "geometry": {"type": "Polygon", "coordinates": [[[8.737929971281062, 47.31131339900205], [8.737940416977409, 47.31130444787116], [8.737249294872468, 47.310931382698634], [8.737238849133467, 47.31094033376705], [8.737929971281062, 47.31131339900205]]]}}, {"type": "Feature", "properties": {"name": "MarketGarden 88"}, "geometry": {"type": "Polygon", "coordinates": [[[8.737945257014717, 47.311301316532514], [8.7379557027061, 47.31129236540019], [8.737264962032224, 47.31091950619025], [8.737254516298211, 47.310928457260125], [8.737945257014717, 47.311301316532514]]]}}, {"type": "Feature", "properties": {"name": "MarketGarden 89"}, "geometry": {"type": "Polygon", "coordinates": [[[8.737960542741408, 47.311289234060894], [8.737970988427826, 47.31128028292714], [8.737280629184964, 47.31090762967969], [8.737270183455943, 47.31091658075101], [8.737960542741408, 47.311289234060894]]]}}, {"type": "Feature", "properties": {"name": "MarketGarden 90"}, "geometry": {"type": "Polygon", "coordinates": [[[8.73797582846113, 47.31127715158718], [8.737986274142584, 47.311268200452034], [8.737296296330683, 47.310895753166946], [8.737285850606648, 47.31090470423972], [8.73797582846113, 47.31127715158718]]]}}, {"type": "Feature", "properties": {"name": "MarketGarden 91"}, "geometry": {"type": "Polygon", "coordinates": [[[8.737991114173875, 47.311265069111414], [8.738001559850362, 47.311256117974835], [8.737311963469375, 47.31088387665203], [8.737301517750328, 47.31089282772625], [8.737991114173875, 47.311265069111414]]]}}, {"type": "Feature", "properties": {"name": "MarketGarden 92"}, "geometry": {"type": "Polygon", "coordinates": [[[8.738006399879646, 47.31125298663357], [8.738016845551172, 47.31124403549557], [8.737327630601046, 47.31087200013493], [8.737317184886983, 47.310880951210606], [8.738006399879646, 47.31125298663357]]]}}, {"type": "Feature", "properties": {"name": "MarketGarden 93"}, "geometry": {"type": "Polygon", "coordinates": [[[8.738021685578461, 47.311240904153635], [8.738032131245022, 47.311231953014214], [8.737343297725705, 47.31086012361564], [8.73733285201663, 47.310869074692775], [8.738021685578461, 47.311240904153635]]]}}, {"type": "Feature", "properties": {"name": "MarketGarden 94"}, "geometry": {"type": "Polygon", "coordinates": [[[8.73803697127029, 47.311228821671634], [8.738047416931888, 47.311219870530785], [8.737358964843327, 47.31084824709417], [8.737348519139243, 47.310857198172776], [8.73803697127029, 47.311228821671634]]]}}, {"type": "Feature", "properties": {"name": "MarketGarden 95"}, "geometry": {"type": "Polygon", "coordinates": [[[8.73805225695515, 47.31121673918755], [8.738062702611783, 47.31120778804527], [8.737374631953928, 47.31083637057053], [8.737364186254833, 47.31084532165059], [8.73805225695515, 47.31121673918755]]]}}, {"type": "Feature", "properties": {"name": "MarketGarden 96"}, "geometry": {"type": "Polygon", "coordinates": [[[8.73806754263305, 47.31120465670138], [8.738077988284719, 47.31119570555769], [8.737390299057521, 47.3108244940447], [8.737379853363413, 47.31083344512622], [8.73806754263305, 47.31120465670138]]]}}, {"type": "Feature", "properties": {"name": "MarketGarden 97"}, "geometry": {"type": "Polygon", "coordinates": [[[8.738082828303973, 47.31119257421313], [8.738093273950676, 47.31118362306802], [8.737405966154085, 47.3108126175167], [8.737395520464965, 47.31082156859966], [8.738082828303973, 47.31119257421313]]]}}, {"type": "Feature", "properties": {"name": "MarketGarden 98"}, "geometry": {"type": "Polygon", "coordinates": [[[8.738098113967933, 47.31118049172281], [8.738108559609673, 47.311171540576275], [8.737421633243633, 47.31080074098651], [8.7374111875595, 47.31080969207092], [8.738098113967933, 47.31118049172281]]]}}, {"type": "Feature", "properties": {"name": "MarketGarden 99"}, "geometry": {"type": "Polygon", "coordinates": [[[8.738113399624915, 47.31116840923041], [8.738123845261688, 47.31115945808244], [8.737437300326153, 47.310788864454146], [8.737426854647008, 47.31079781554002], [8.738113399624915, 47.31116840923041]]]}}, {"type": "Feature", "properties": {"name": "MarketGarden 100"}, "geometry": {"type": "Polygon", "coordinates": [[[8.738128685274923, 47.31115632673593], [8.738139130906733, 47.31114737558655], [8.737472784349983, 47.310787685140625], [8.737462338677048, 47.31079663622975], [8.738128685274923, 47.31115632673593]]]}}, {"type": "Feature", "properties": {"name": "MarketGarden 101"}, "geometry": {"type": "Polygon", "coordinates": [[[8.738143970917962, 47.31114424423939], [8.738154416544809, 47.31113529308859], [8.737535840238555, 47.31080138912802], [8.737525394573533, 47.31081034022289], [8.738143970917962, 47.31114424423939]]]}}, {"type": "Feature", "properties": {"name": "MarketGarden 102"}, "geometry": {"type": "Polygon", "coordinates": [[[8.738159256554033, 47.31113216174075], [8.738169702175915, 47.311123210588526], [8.737598896159865, 47.31081509308075], [8.737588450502756, 47.31082404418136], [8.738159256554033, 47.31113216174075]]]}}, {"type": "Feature", "properties": {"name": "MarketGarden 103"}, "geometry": {"type": "Polygon", "coordinates": [[[8.738174542183135, 47.31112007924004], [8.738184987800054, 47.31111112808641], [8.737627812694392, 47.310810368585855], [8.737617367043088, 47.310819319689124], [8.738174542183135, 47.31112007924004]]]}}, {"type": "Feature", "properties": {"name": "MarketGarden 104"}, "geometry": {"type": "Polygon", "coordinates": [[[8.738189827805257, 47.31110799673727], [8.73820027341721, 47.311099045582196], [8.737650746721666, 47.31080241473682], [8.737640301075798, 47.31081136584219], [8.738189827805257, 47.31110799673727]]]}}, {"type": "Feature", "properties": {"name": "MarketGarden 105"}, "geometry": {"type": "Polygon", "coordinates": [[[8.738205113420422, 47.31109591423239], [8.738215559027411, 47.3110869630759], [8.737673680742095, 47.31079446088316], [8.737663235101662, 47.31080341199065], [8.738205113420422, 47.31109591423239]]]}}, {"type": "Feature", "properties": {"name": "MarketGarden 106"}, "geometry": {"type": "Polygon", "coordinates": [[[8.73822039902861, 47.31108383172545], [8.738230844630634, 47.311074880567546], [8.737696614755642, 47.31078650702491], [8.737686169120648, 47.31079545813451], [8.73822039902861, 47.31108383172545]]]}}, {"type": "Feature", "properties": {"name": "MarketGarden 107"}, "geometry": {"type": "Polygon", "coordinates": [[[8.73823568462983, 47.31107174921644], [8.73824613022689, 47.3110627980571], [8.737720466327598, 47.31077904846192], [8.737710020698096, 47.31078799957372], [8.73823568462983, 47.31107174921644]]]}}, {"type": "Feature", "properties": {"name": "MarketGarden 108"}, "geometry": {"type": "Polygon", "coordinates": [[[8.738250970224074, 47.311059666705326], [8.738261415816169, 47.31105071554458], [8.73775142591906, 47.31077542678993], [8.737740980295488, 47.31078437790456], [8.738250970224074, 47.311059666705326]]]}}]}