{"type": "FeatureCollection", "features": [{"type": "Feature", "properties": {"name": "Forsthaus_Ecke 120"}, "geometry": {"type": "Polygon", "coordinates": [[[8.589725050170209, 47.37374615643607], [8.589738586486964, 47.37375294135862], [8.590021695178939, 47.37349230025198], [8.590008158892125, 47.37348551536265], [8.589725050170209, 47.37374615643607]]]}}, {"type": "Feature", "properties": {"name": "Forsthaus_Ecke 121"}, "geometry": {"type": "Polygon", "coordinates": [[[8.589765029655783, 47.37373617439581], [8.589778565975152, 47.37374295931365], [8.590040857110958, 47.37350148348227], [8.590027320819333, 47.37349469859521], [8.589765029655783, 47.37373617439581]]]}}, {"type": "Feature", "properties": {"name": "Forsthaus_Ecke 122"}, "geometry": {"type": "Polygon", "coordinates": [[[8.589805009126353, 47.37372619234152], [8.589818545448335, 47.37373297725467], [8.590060019049645, 47.37351066670938], [8.590046482753204, 47.373503881824554], [8.589805009126353, 47.37372619234152]]]}}, {"type": "Feature", "properties": {"name": "Forsthaus_Ecke 123"}, "geometry": {"type": "Polygon", "coordinates": [[[8.589844988581927, 47.373716210273244], [8.589858524906523, 47.37372299518167], [8.590079180995001, 47.37351984993326], [8.590065644693745, 47.37351306505072], [8.589844988581927, 47.373716210273244]]]}}, {"type": "Feature", "properties": {"name": "Forsthaus_Ecke 124"}, "geometry": {"type": "Polygon", "coordinates": [[[8.589884968022472, 47.373706228190954], [8.589898504349682, 47.3737130130947], [8.590098342947014, 47.37352903315397], [8.590084806640943, 47.37352224827367], [8.589884968022472, 47.373706228190954]]]}}, {"type": "Feature", "properties": {"name": "Forsthaus_Ecke 125"}, "geometry": {"type": "Polygon", "coordinates": [[[8.589924947448011, 47.37369624609464], [8.589938483777832, 47.37370303099369], [8.590117504905688, 47.37353821637147], [8.590103968594802, 47.37353143149344], [8.589924947448011, 47.37369624609464]]]}}, {"type": "Feature", "properties": {"name": "Forsthaus_Ecke 126"}, "geometry": {"type": "Polygon", "coordinates": [[[8.589964926858537, 47.37368626398434], [8.58997846319097, 47.37369304887869], [8.590136666871029, 47.373547399585775], [8.590123130555327, 47.37354061470998], [8.589964926858537, 47.37368626398434]]]}}, {"type": "Feature", "properties": {"name": "Forsthaus_Ecke 127"}, "geometry": {"type": "Polygon", "coordinates": [[[8.590004906254068, 47.37367628186003], [8.590018442589114, 47.37368306674968], [8.59015582884304, 47.37355658279688], [8.590142292522522, 47.37354979792336], [8.590004906254068, 47.37367628186003]]]}}, {"type": "Feature", "properties": {"name": "Forsthaus_Ecke 128"}, "geometry": {"type": "Polygon", "coordinates": [[[8.590044885634574, 47.37366629972173], [8.590058421972236, 47.37367308460665], [8.590174990821707, 47.37356576600479], [8.590161454496377, 47.37355898113353], [8.590044885634574, 47.37366629972173]]]}}, {"type": "Feature", "properties": {"name": "Forsthaus_Ecke 129"}, "geometry": {"type": "Polygon", "coordinates": [[[8.590084865000088, 47.373656317569385], [8.590098401340363, 47.37366310244962], [8.590194152807046, 47.373574949209505], [8.5901806164769, 47.3735681643405], [8.590084865000088, 47.373656317569385]]]}}, {"type": "Feature", "properties": {"name": "Forsthaus_Ecke 129"}, "geometry": {"type": "Polygon", "coordinates": [[[8.590124844350566, 47.37364633540306], [8.590138380693453, 47.37365312027858], [8.590213314799035, 47.37358413241101], [8.590199778464074, 47.37357734754428], [8.590124844350566, 47.37364633540306]]]}}]}