{"type": "FeatureCollection", "features": [{"type": "Feature", "properties": {"name": "DirkBoskop1 01"}, "geometry": {"type": "Polygon", "coordinates": [[[8.673853262692411, 47.36880756322961], [8.673842740408274, 47.368798647585265], [8.672021653518408, 47.36979059045157], [8.67203217569118, 47.369799506261266], [8.673853262692411, 47.36880756322961]]]}}, {"type": "Feature", "properties": {"name": "DirkBoskop1 02"}, "geometry": {"type": "Polygon", "coordinates": [[[8.67383744994552, 47.36879576273187], [8.67382692766639, 47.368786847086064], [8.671999717090163, 47.36978212521321], [8.672010239257553, 47.36979104102493], [8.67383744994552, 47.36879576273187]]]}}, {"type": "Feature", "properties": {"name": "DirkBoskop1 03"}, "geometry": {"type": "Polygon", "coordinates": [[[8.673821637205686, 47.36878396223196], [8.673811114931564, 47.36877504658471], [8.67197778066896, 47.36977365997067], [8.671988302830966, 47.369782575784384], [8.673821637205686, 47.36878396223196]]]}}, {"type": "Feature", "properties": {"name": "DirkBoskop1 04"}, "geometry": {"type": "Polygon", "coordinates": [[[8.673805824472902, 47.36877216172985], [8.67379530220379, 47.36876324608112], [8.671955844254795, 47.369765194723925], [8.671966366411418, 47.36977411053966], [8.673805824472902, 47.36877216172985]]]}}, {"type": "Feature", "properties": {"name": "DirkBoskop1 05"}, "geometry": {"type": "Polygon", "coordinates": [[[8.67379001174717, 47.368760361225554], [8.673779489483067, 47.36875144557539], [8.671933907847663, 47.369756729473], [8.671944429998902, 47.36976564529075], [8.67379001174717, 47.368760361225554]]]}}, {"type": "Feature", "properties": {"name": "DirkBoskop1 06"}, "geometry": {"type": "Polygon", "coordinates": [[[8.673774199028484, 47.36874856071906], [8.67376367676939, 47.36873964506744], [8.671911971447559, 47.36974826421786], [8.671922493593415, 47.36975718003763], [8.673774199028484, 47.36874856071906]]]}}, {"type": "Feature", "properties": {"name": "DirkBoskop1 07"}, "geometry": {"type": "Polygon", "coordinates": [[[8.673758386316853, 47.36873676021039], [8.673747864062769, 47.368727844557306], [8.671890035054494, 47.369739798958534], [8.671900557194967, 47.36974871478032], [8.673758386316853, 47.36873676021039]]]}}, {"type": "Feature", "properties": {"name": "DirkBoskop1 08"}, "geometry": {"type": "Polygon", "coordinates": [[[8.673742573612275, 47.36872495969953], [8.6737320513632, 47.368716044044994], [8.671868098668464, 47.36973133369503], [8.671878620803552, 47.36974024951883], [8.673742573612275, 47.36872495969953]]]}}, {"type": "Feature", "properties": {"name": "DirkBoskop1 09"}, "geometry": {"type": "Polygon", "coordinates": [[[8.673726760914755, 47.36871315918649], [8.673716238670687, 47.36870424353049], [8.671846162289484, 47.369722868427324], [8.671856684419188, 47.369731784253126], [8.673726760914755, 47.36871315918649]]]}}, {"type": "Feature", "properties": {"name": "DirkBoskop1 10"}, "geometry": {"type": "Polygon", "coordinates": [[[8.673710948224274, 47.36870135867125], [8.673700425985215, 47.36869244301378], [8.67182422591752, 47.36971440315542], [8.67183474804184, 47.36972331898323], [8.673710948224274, 47.36870135867125]]]}}, {"type": "Feature", "properties": {"name": "DirkBoskop1 11"}, "geometry": {"type": "Polygon", "coordinates": [[[8.673695135540852, 47.36868955815382], [8.6736846133068, 47.3686806424949], [8.671802289552593, 47.369705937879324], [8.671812811671531, 47.369714853709155], [8.673695135540852, 47.36868955815382]]]}}, {"type": "Feature", "properties": {"name": "DirkBoskop1 12"}, "geometry": {"type": "Polygon", "coordinates": [[[8.67367932286448, 47.3686777576342], [8.673668800635438, 47.36866884197383], [8.671780353194709, 47.369697472599036], [8.671790875308261, 47.369706388430885], [8.67367932286448, 47.3686777576342]]]}}, {"type": "Feature", "properties": {"name": "DirkBoskop1 13"}, "geometry": {"type": "Polygon", "coordinates": [[[8.67366351019517, 47.368665957112405], [8.673652987971135, 47.368657041450575], [8.671758416843867, 47.369689007314555], [8.671768938952038, 47.36969792314842], [8.67366351019517, 47.368665957112405]]]}}, {"type": "Feature", "properties": {"name": "DirkBoskop1 14"}, "geometry": {"type": "Polygon", "coordinates": [[[8.673647697532889, 47.368654156588406], [8.673637175313864, 47.36864524092512], [8.671736480500035, 47.36968054202588], [8.671747002602821, 47.36968945786175], [8.673647697532889, 47.368654156588406]]]}}, {"type": "Feature", "properties": {"name": "DirkBoskop1 15"}, "geometry": {"type": "Polygon", "coordinates": [[[8.673631884877675, 47.36864235606223], [8.673621362663662, 47.36863344039748], [8.671714544163262, 47.36967207673301], [8.671725066260665, 47.36968099257089], [8.673631884877675, 47.36864235606223]]]}}, {"type": "Feature", "properties": {"name": "DirkBoskop1 16"}, "geometry": {"type": "Polygon", "coordinates": [[[8.673616072229512, 47.36863055553386], [8.673605550020506, 47.368621639867655], [8.671692607833517, 47.369663611435946], [8.671703129925534, 47.369672527275846], [8.673616072229512, 47.36863055553386]]]}}, {"type": "Feature", "properties": {"name": "DirkBoskop1 17"}, "geometry": {"type": "Polygon", "coordinates": [[[8.673600259588403, 47.368618755003304], [8.673589737384408, 47.36860983933564], [8.67167067151081, 47.369655146134704], [8.671681193597445, 47.369664061976614], [8.673600259588403, 47.368618755003304]]]}}, {"type": "Feature", "properties": {"name": "DirkBoskop1 18"}, "geometry": {"type": "Polygon", "coordinates": [[[8.673584446954331, 47.36860695447056], [8.673573924755342, 47.36859803880143], [8.671648735195122, 47.36964668082924], [8.671659257276374, 47.36965559667318], [8.673584446954331, 47.36860695447056]]]}}, {"type": "Feature", "properties": {"name": "DirkBoskop1 19"}, "geometry": {"type": "Polygon", "coordinates": [[[8.673568634327323, 47.36859515393563], [8.673558112133342, 47.36858623826504], [8.671626798886484, 47.36963821551961], [8.671637320962352, 47.36964713136555], [8.673568634327323, 47.36859515393563]]]}}, {"type": "Feature", "properties": {"name": "DirkBoskop1 20"}, "geometry": {"type": "Polygon", "coordinates": [[[8.673552821707364, 47.36858335339849], [8.673542299518394, 47.36857443772646], [8.67160486258488, 47.36962975020579], [8.671615384655365, 47.36963866605374], [8.673552821707364, 47.36858335339849]]]}}, {"type": "Feature", "properties": {"name": "DirkBoskop1 21"}, "geometry": {"type": "Polygon", "coordinates": [[[8.673537009094451, 47.36857155285919], [8.67352648691049, 47.36856263718569], [8.671582926290302, 47.369621284887735], [8.671593448355402, 47.36963020073772], [8.673537009094451, 47.36857155285919]]]}}, {"type": "Feature", "properties": {"name": "DirkBoskop1 22"}, "geometry": {"type": "Polygon", "coordinates": [[[8.673521196488599, 47.36855975231769], [8.673510674309647, 47.36855083664273], [8.671560990002773, 47.369612819565525], [8.671571512062489, 47.36962173541751], [8.673521196488599, 47.36855975231769]]]}}, {"type": "Feature", "properties": {"name": "DirkBoskop1 23"}, "geometry": {"type": "Polygon", "coordinates": [[[8.673505383889793, 47.36854795177399], [8.673494861715849, 47.36853903609759], [8.67153905372227, 47.369604354239115], [8.671549575776604, 47.36961327009311], [8.673505383889793, 47.36854795177399]]]}}, {"type": "Feature", "properties": {"name": "DirkBoskop1 24"}, "geometry": {"type": "Polygon", "coordinates": [[[8.673489571298038, 47.36853615122811], [8.673479049129103, 47.368527235550246], [8.6715171174488, 47.3695958889085], [8.67152763949775, 47.3696048047645], [8.673489571298038, 47.36853615122811]]]}}, {"type": "Feature", "properties": {"name": "DirkBoskop1 25"}, "geometry": {"type": "Polygon", "coordinates": [[[8.673473758713339, 47.36852435068006], [8.673463236549411, 47.368515435000724], [8.671495181182376, 47.369587423573705], [8.671505703225941, 47.36959633943173], [8.673473758713339, 47.36852435068006]]]}}, {"type": "Feature", "properties": {"name": "DirkBoskop1 26"}, "geometry": {"type": "Polygon", "coordinates": [[[8.673457946135677, 47.368512550129786], [8.673447423976759, 47.368503634449006], [8.671473244922966, 47.3695789582347], [8.671483766961149, 47.369587874094734], [8.673457946135677, 47.368512550129786]]]}}, {"type": "Feature", "properties": {"name": "DirkBoskop1 27"}, "geometry": {"type": "Polygon", "coordinates": [[[8.673442133565082, 47.36850074957735], [8.673431611411175, 47.368491833895106], [8.671451308670612, 47.369570492891526], [8.671461830703409, 47.36957940875355], [8.673442133565082, 47.36850074957735]]]}}, {"type": "Feature", "properties": {"name": "DirkBoskop1 28"}, "geometry": {"type": "Polygon", "coordinates": [[[8.67342632100154, 47.368488949022726], [8.67341579885264, 47.36848003333902], [8.671429372425292, 47.36956202754414], [8.671439894452709, 47.3695709434082], [8.67342632100154, 47.368488949022726]]]}}, {"type": "Feature", "properties": {"name": "DirkBoskop1 29"}, "geometry": {"type": "Polygon", "coordinates": [[[8.673410508445041, 47.36847714846589], [8.673399986301149, 47.36846823278074], [8.671407436187001, 47.369553562192564], [8.671417958209032, 47.36956247805865], [8.673410508445041, 47.36847714846589]]]}}, {"type": "Feature", "properties": {"name": "DirkBoskop1 30"}, "geometry": {"type": "Polygon", "coordinates": [[[8.673394695895595, 47.368465347906884], [8.673384173756713, 47.36845643222028], [8.671385499955742, 47.369545096836795], [8.671396021972392, 47.369554012704874], [8.673394695895595, 47.368465347906884]]]}}, {"type": "Feature", "properties": {"name": "DirkBoskop1 31"}, "geometry": {"type": "Polygon", "coordinates": [[[8.6733788833532, 47.36845354734568], [8.673368361219326, 47.36844463165761], [8.671363563731521, 47.369536631476834], [8.671374085742785, 47.36954554734694], [8.6733788833532, 47.36845354734568]]]}}, {"type": "Feature", "properties": {"name": "DirkBoskop1 32"}, "geometry": {"type": "Polygon", "coordinates": [[[8.673363070817862, 47.3684417467823], [8.673352548688998, 47.368432831092775], [8.671341627514343, 47.36952816611268], [8.671352149520224, 47.36953708198479], [8.673363070817862, 47.3684417467823]]]}}, {"type": "Feature", "properties": {"name": "DirkBoskop1 33"}, "geometry": {"type": "Polygon", "coordinates": [[[8.673347258289567, 47.368429946216736], [8.673336736165712, 47.36842103052573], [8.671319691304186, 47.369519700744334], [8.671330213304683, 47.36952861661846], [8.673347258289567, 47.368429946216736]]]}}, {"type": "Feature", "properties": {"name": "DirkBoskop1 34"}, "geometry": {"type": "Polygon", "coordinates": [[[8.673331445768332, 47.36841814564897], [8.673320923649484, 47.36840922995652], [8.671297755101078, 47.36951123537178], [8.671308277096191, 47.369520151247926], [8.673331445768332, 47.36841814564897]]]}}, {"type": "Feature", "properties": {"name": "DirkBoskop1 35"}, "geometry": {"type": "Polygon", "coordinates": [[[8.673315633254143, 47.36840634507901], [8.673305111140305, 47.368397429385105], [8.671275818904995, 47.36950276999505], [8.671286340894726, 47.36951168587321], [8.673315633254143, 47.36840634507901]]]}}, {"type": "Feature", "properties": {"name": "DirkBoskop1 36"}, "geometry": {"type": "Polygon", "coordinates": [[[8.673299820747006, 47.36839454450687], [8.673289298638174, 47.3683856288115], [8.671266341009941, 47.36948751892717], [8.67127686299505, 47.3694964348062], [8.673299820747006, 47.36839454450687]]]}}, {"type": "Feature", "properties": {"name": "DirkBoskop1 37"}, "geometry": {"type": "Polygon", "coordinates": [[[8.673284008246926, 47.368382743932536], [8.673273486143104, 47.368373828235725], [8.671276717865993, 47.36946145352268], [8.671287239847695, 47.3694703694008], [8.673284008246926, 47.368382743932536]]]}}, {"type": "Feature", "properties": {"name": "DirkBoskop1 38"}, "geometry": {"type": "Polygon", "coordinates": [[[8.673268195753886, 47.36837094335603], [8.673257673655074, 47.36836202765774], [8.671290517316042, 47.3694335239161], [8.671301039294544, 47.36944243979299], [8.673268195753886, 47.36837094335603]]]}}, {"type": "Feature", "properties": {"name": "DirkBoskop1 39"}, "geometry": {"type": "Polygon", "coordinates": [[[8.673252383267904, 47.368359142777315], [8.6732418611741, 47.36835022707757], [8.671307004278129, 47.36940413048234], [8.671317526253599, 47.369413046357764], [8.673252383267904, 47.368359142777315]]]}}, {"type": "Feature", "properties": {"name": "DirkBoskop1 40"}, "geometry": {"type": "Polygon", "coordinates": [[[8.67323657078898, 47.36834734219642], [8.673226048700183, 47.36833842649523], [8.671327851349025, 47.3693723621963], [8.67133837332173, 47.36938127806984], [8.67323657078898, 47.36834734219642]]]}}, {"type": "Feature", "properties": {"name": "DirkBoskop1 41"}, "geometry": {"type": "Polygon", "coordinates": [[[8.673220758317107, 47.36833554161335], [8.673210236233322, 47.3683266259107], [8.671348698394796, 47.36934059390622], [8.671359220364735, 47.3693495097779], [8.673220758317107, 47.36833554161335]]]}}, {"type": "Feature", "properties": {"name": "DirkBoskop1 42"}, "geometry": {"type": "Polygon", "coordinates": [[[8.673204945852268, 47.36832374102807], [8.67319442377349, 47.36831482532396], [8.67136954541548, 47.36930882561209], [8.671380067382652, 47.36931774148189], [8.673204945852268, 47.36832374102807]]]}}, {"type": "Feature", "properties": {"name": "DirkBoskop1 43"}, "geometry": {"type": "Polygon", "coordinates": [[[8.673189133394494, 47.36831194044061], [8.673178611320724, 47.368303024735035], [8.671390392411029, 47.36927705731395], [8.671400914375434, 47.369285973181874], [8.673189133394494, 47.36831194044061]]]}}, {"type": "Feature", "properties": {"name": "DirkBoskop1 44"}, "geometry": {"type": "Polygon", "coordinates": [[[8.67317332094377, 47.36830013985095], [8.673162798875008, 47.368291224143945], [8.67141123938146, 47.36924528901178], [8.671421761343098, 47.36925420487784], [8.67317332094377, 47.36830013985095]]]}}, {"type": "Feature", "properties": {"name": "DirkBoskop1 45"}, "geometry": {"type": "Polygon", "coordinates": [[[8.673157508500097, 47.36828833925913], [8.673146986436345, 47.36827942355064], [8.671432086326776, 47.369213520705586], [8.671442608285647, 47.36922243656977], [8.673157508500097, 47.36828833925913]]]}}, {"type": "Feature", "properties": {"name": "DirkBoskop1 46"}, "geometry": {"type": "Polygon", "coordinates": [[[8.673141696063468, 47.3682765386651], [8.673131174004725, 47.368267622955145], [8.671452933246988, 47.369181752395335], [8.67146345520309, 47.36919066825765], [8.673141696063468, 47.3682765386651]]]}}, {"type": "Feature", "properties": {"name": "DirkBoskop1 47"}, "geometry": {"type": "Polygon", "coordinates": [[[8.673125883633897, 47.36826473806889], [8.673115361580162, 47.368255822357476], [8.671473780142067, 47.36914998408107], [8.671484302095406, 47.36915889994151], [8.673125883633897, 47.36826473806889]]]}}, {"type": "Feature", "properties": {"name": "DirkBoskop1 48"}, "geometry": {"type": "Polygon", "coordinates": [[[8.673110071211376, 47.36825293747048], [8.673099549162652, 47.36824402175761], [8.671494627012036, 47.36911821576278], [8.671505148962607, 47.36912713162136], [8.673110071211376, 47.36825293747048]]]}}, {"type": "Feature", "properties": {"name": "DirkBoskop1 49"}, "geometry": {"type": "Polygon", "coordinates": [[[8.673094258795917, 47.3682411368699], [8.673083736752199, 47.36823222115556], [8.671515473856875, 47.36908644744049], [8.67152599580468, 47.3690953632972], [8.673094258795917, 47.3682411368699]]]}}, {"type": "Feature", "properties": {"name": "DirkBoskop1 50"}, "geometry": {"type": "Polygon", "coordinates": [[[8.673078446387498, 47.36822933626711], [8.67306792434879, 47.368220420551346], [8.67153632067661, 47.369054679114136], [8.67154684262165, 47.369063594968964], [8.673078446387498, 47.36822933626711]]]}}, {"type": "Feature", "properties": {"name": "DirkBoskop1 51"}, "geometry": {"type": "Polygon", "coordinates": [[[8.673062633986133, 47.36821753566215], [8.673052111952432, 47.368208619944916], [8.671563653616886, 47.36901937790042], [8.671574175559554, 47.36902829375281], [8.673062633986133, 47.36821753566215]]]}}, {"type": "Feature", "properties": {"name": "DirkBoskop1 52"}, "geometry": {"type": "Polygon", "coordinates": [[[8.673046821591814, 47.36820573505497], [8.673036299563124, 47.36819681933629], [8.671615853404113, 47.36897053212261], [8.671626375345932, 47.36897944797027], [8.673046821591814, 47.36820573505497]]]}}, {"type": "Feature", "properties": {"name": "DirkBoskop1 53"}, "geometry": {"type": "Polygon", "coordinates": [[[8.673031009204557, 47.36819393444564], [8.673020487180876, 47.36818501872549], [8.671668053094818, 47.36892168632039], [8.671678575035788, 47.36893060216333], [8.673031009204557, 47.36819393444564]]]}}, {"type": "Feature", "properties": {"name": "DirkBoskop1 54"}, "geometry": {"type": "Polygon", "coordinates": [[[8.673015196824341, 47.368182133834104], [8.673004674805668, 47.368173218112496], [8.671720252689056, 47.36887284049371], [8.671730774629177, 47.36888175633194], [8.673015196824341, 47.368182133834104]]]}}]}