{"type": "FeatureCollection", "features": [{"type": "Feature", "properties": {"name": "HausMoor 01"}, "geometry": {"type": "Polygon", "coordinates": [[[8.734379872711177, 47.31345872859646], [8.734390330078247, 47.31344978354749], [8.733558386595995, 47.31299993167774], [8.733547929177934, 47.31300887665141], [8.734379872711177, 47.31345872859646]]]}}, {"type": "Feature", "properties": {"name": "HausMoor 02"}, "geometry": {"type": "Polygon", "coordinates": [[[8.73439141801395, 47.31344462397199], [8.734401875376284, 47.31343567892191], [8.733573933929312, 47.31298799109837], [8.733563476516233, 47.31299693607348], [8.73439141801395, 47.31344462397199]]]}}, {"type": "Feature", "properties": {"name": "HausMoor 03"}, "geometry": {"type": "Polygon", "coordinates": [[[8.734402963310563, 47.31343051934629], [8.734413420668163, 47.313421574295134], [8.733589481255619, 47.312976050516845], [8.73357902384752, 47.31298499549342], [8.734402963310563, 47.31343051934629]]]}}, {"type": "Feature", "properties": {"name": "HausMoor 04"}, "geometry": {"type": "Polygon", "coordinates": [[[8.734414508601022, 47.31341641471939], [8.734424965953885, 47.313407469667155], [8.733605028574917, 47.31296410993318], [8.7335945711718, 47.31297305491119], [8.734414508601022, 47.31341641471939]]]}}, {"type": "Feature", "properties": {"name": "HausMoor 05"}, "geometry": {"type": "Polygon", "coordinates": [[[8.734426053885326, 47.31340231009127], [8.73443651123345, 47.31339336503796], [8.733620575887207, 47.312952169347376], [8.733610118489072, 47.31296111432683], [8.734426053885326, 47.31340231009127]]]}}, {"type": "Feature", "properties": {"name": "HausMoor 06"}, "geometry": {"type": "Polygon", "coordinates": [[[8.73443759916348, 47.313388205461955], [8.734448056506869, 47.313379260407544], [8.7336361231925, 47.312940228759416], [8.733625665799348, 47.31294917374032], [8.73443759916348, 47.313388205461955]]]}}, {"type": "Feature", "properties": {"name": "HausMoor 07"}, "geometry": {"type": "Polygon", "coordinates": [[[8.734449144435473, 47.31337410083142], [8.734459601774127, 47.31336515577593], [8.733651670490778, 47.3129282881693], [8.733641213102606, 47.312937233151665], [8.734449144435473, 47.31337410083142]]]}}, {"type": "Feature", "properties": {"name": "HausMoor 08"}, "geometry": {"type": "Polygon", "coordinates": [[[8.734460689701317, 47.31335999619967], [8.734471147035233, 47.313351051143094], [8.733667217782056, 47.312916347577044], [8.733656760398864, 47.31292529256085], [8.734460689701317, 47.31335999619967]]]}}, {"type": "Feature", "properties": {"name": "HausMoor 09"}, "geometry": {"type": "Polygon", "coordinates": [[[8.734472234960998, 47.31334589156671], [8.734482692290179, 47.31333694650907], [8.73368276506632, 47.31290440698264], [8.73367230768811, 47.312913351967886], [8.734472234960998, 47.31334589156671]]]}}, {"type": "Feature", "properties": {"name": "HausMoor 10"}, "geometry": {"type": "Polygon", "coordinates": [[[8.73448378021453, 47.313331786932565], [8.734494237538973, 47.31332284187382], [8.73369831234358, 47.31289246638609], [8.733687854970354, 47.31290141137279], [8.73448378021453, 47.313331786932565]]]}}, {"type": "Feature", "properties": {"name": "HausMoor 11"}, "geometry": {"type": "Polygon", "coordinates": [[[8.734495325461904, 47.31331768229719], [8.73450578278161, 47.313308737237364], [8.733713859613832, 47.3128805257874], [8.733703402245585, 47.312889470775545], [8.734495325461904, 47.31331768229719]]]}}, {"type": "Feature", "properties": {"name": "HausMoor 12"}, "geometry": {"type": "Polygon", "coordinates": [[[8.73450687070313, 47.313303577660605], [8.7345173280181, 47.3132946325997], [8.733729406877087, 47.31286858518656], [8.733718949513822, 47.312877530176145], [8.73450687070313, 47.313303577660605]]]}}, {"type": "Feature", "properties": {"name": "HausMoor 13"}, "geometry": {"type": "Polygon", "coordinates": [[[8.734518415938194, 47.31328947302281], [8.73452887324843, 47.31328052796082], [8.733744954133325, 47.31285664458354], [8.73373449677504, 47.31286558957458], [8.734518415938194, 47.31328947302281]]]}}, {"type": "Feature", "properties": {"name": "HausMoor 14"}, "geometry": {"type": "Polygon", "coordinates": [[[8.734529961167102, 47.31327536838382], [8.7345404184726, 47.31326642332074], [8.733760501382555, 47.31284470397841], [8.733750044029255, 47.3128536489709], [8.734529961167102, 47.31327536838382]]]}}, {"type": "Feature", "properties": {"name": "HausMoor 15"}, "geometry": {"type": "Polygon", "coordinates": [[[8.734541506389862, 47.3132612637436], [8.734551963690624, 47.31325231867943], [8.73377604862479, 47.31283276337111], [8.733765591276471, 47.31284170836505], [8.734541506389862, 47.3132612637436]]]}}, {"type": "Feature", "properties": {"name": "HausMoor 16"}, "geometry": {"type": "Polygon", "coordinates": [[[8.73455305160646, 47.313247159102175], [8.734563508902486, 47.31323821403693], [8.733791595860009, 47.31282082276167], [8.733781138516672, 47.312829767757066], [8.73455305160646, 47.313247159102175]]]}}, {"type": "Feature", "properties": {"name": "HausMoor 17"}, "geometry": {"type": "Polygon", "coordinates": [[[8.734564596816904, 47.313233054459545], [8.734575054108193, 47.31322410939321], [8.733807143088223, 47.312808882150094], [8.733796685749864, 47.31281782714692], [8.734564596816904, 47.313233054459545]]]}}, {"type": "Feature", "properties": {"name": "HausMoor 18"}, "geometry": {"type": "Polygon", "coordinates": [[[8.734576142021195, 47.313218949815706], [8.73458659930775, 47.31321000474827], [8.733822690309433, 47.312796941536355], [8.733812232976057, 47.31280588653463], [8.734576142021195, 47.313218949815706]]]}}, {"type": "Feature", "properties": {"name": "HausMoor 19"}, "geometry": {"type": "Polygon", "coordinates": [[[8.734587687219332, 47.31320484517066], [8.73459814450115, 47.313195900102144], [8.733838237523633, 47.31278500092048], [8.73382778019524, 47.3127939459202], [8.734587687219332, 47.31320484517066]]]}}, {"type": "Feature", "properties": {"name": "HausMoor 20"}, "geometry": {"type": "Polygon", "coordinates": [[[8.734599232411316, 47.313190740524384], [8.734609689688398, 47.31318179545479], [8.733853784730833, 47.31277306030245], [8.733843327407419, 47.31278200530362], [8.734599232411316, 47.313190740524384]]]}}, {"type": "Feature", "properties": {"name": "HausMoor 21"}, "geometry": {"type": "Polygon", "coordinates": [[[8.73461077759715, 47.31317663587691], [8.734621234869493, 47.31316769080623], [8.733869331931029, 47.31276111968226], [8.733858874612595, 47.31277006468487], [8.73461077759715, 47.31317663587691]]]}}, {"type": "Feature", "properties": {"name": "HausMoor 22"}, "geometry": {"type": "Polygon", "coordinates": [[[8.734622322776826, 47.31316253122823], [8.734632780044434, 47.31315358615645], [8.733884879124217, 47.31274917905992], [8.733874421810768, 47.31275812406399], [8.734622322776826, 47.31316253122823]]]}}, {"type": "Feature", "properties": {"name": "HausMoor 23"}, "geometry": {"type": "Polygon", "coordinates": [[[8.734633867950338, 47.31314842657833], [8.73464432521321, 47.31313948150549], [8.733900426310388, 47.31273723843545], [8.733889969001918, 47.312746183440964], [8.734633867950338, 47.31314842657833]]]}}, {"type": "Feature", "properties": {"name": "HausMoor 24"}, "geometry": {"type": "Polygon", "coordinates": [[[8.734645413117699, 47.31313432192723], [8.734655870375835, 47.3131253768533], [8.733915973489557, 47.312725297808825], [8.73390551618607, 47.312734242815786], [8.734645413117699, 47.31313432192723]]]}}, {"type": "Feature", "properties": {"name": "HausMoor 25"}, "geometry": {"type": "Polygon", "coordinates": [[[8.734656958278908, 47.313120217274914], [8.734667415532309, 47.31311127219989], [8.733931520661724, 47.31271335718005], [8.733921063363217, 47.31272230218847], [8.734656958278908, 47.313120217274914]]]}}, {"type": "Feature", "properties": {"name": "HausMoor 26"}, "geometry": {"type": "Polygon", "coordinates": [[[8.734668503433959, 47.31310611262139], [8.734678960682622, 47.313097167545294], [8.733947067826877, 47.312701416549146], [8.733936610533354, 47.312710361559], [8.734668503433959, 47.31310611262139]]]}}, {"type": "Feature", "properties": {"name": "HausMoor 27"}, "geometry": {"type": "Polygon", "coordinates": [[[8.734680048582854, 47.313092007966674], [8.73469050582678, 47.313083062889476], [8.733962614985023, 47.31268947591608], [8.733952157696482, 47.31269842092738], [8.734680048582854, 47.313092007966674]]]}}, {"type": "Feature", "properties": {"name": "HausMoor 28"}, "geometry": {"type": "Polygon", "coordinates": [[[8.7346915937256, 47.31307790331072], [8.734702050964792, 47.313068958232435], [8.733978162136172, 47.31267753528087], [8.733967704852612, 47.31268648029361], [8.7346915937256, 47.31307790331072]]]}}, {"type": "Feature", "properties": {"name": "HausMoor 29"}, "geometry": {"type": "Polygon", "coordinates": [[[8.734703138862189, 47.31306379865357], [8.734713596096643, 47.313054853574215], [8.73399370928031, 47.31266559464349], [8.73398325200173, 47.312674539657685], [8.734703138862189, 47.31306379865357]]]}}, {"type": "Feature", "properties": {"name": "HausMoor 30"}, "geometry": {"type": "Polygon", "coordinates": [[[8.734714683992628, 47.3130496939952], [8.734725141222347, 47.31304074891475], [8.73400925641745, 47.31265365400399], [8.733998799143853, 47.31266259901963], [8.734714683992628, 47.3130496939952]]]}}, {"type": "Feature", "properties": {"name": "HausMoor 31"}, "geometry": {"type": "Polygon", "coordinates": [[[8.7347262291169, 47.31303558933564], [8.734736686341883, 47.313026644254094], [8.734024803547568, 47.31264171336233], [8.734014346278952, 47.31265065837942], [8.7347262291169, 47.31303558933564]]]}}, {"type": "Feature", "properties": {"name": "HausMoor 32"}, "geometry": {"type": "Polygon", "coordinates": [[[8.734737774235024, 47.31302148467485], [8.734748231455269, 47.31301253959224], [8.734040350670684, 47.31262977271853], [8.73402989340705, 47.31263871773708], [8.734737774235024, 47.31302148467485]]]}}, {"type": "Feature", "properties": {"name": "HausMoor 33"}, "geometry": {"type": "Polygon", "coordinates": [[[8.734749319346996, 47.31300738001285], [8.734759776562507, 47.312998434929156], [8.734055897786801, 47.312617832072576], [8.734045440528147, 47.312626777092554], [8.734749319346996, 47.31300738001285]]]}}, {"type": "Feature", "properties": {"name": "HausMoor 34"}, "geometry": {"type": "Polygon", "coordinates": [[[8.73476086445281, 47.31299327534965], [8.734771321663583, 47.312984330264875], [8.734071444895903, 47.31260589142447], [8.73406098764223, 47.31261483644591], [8.73476086445281, 47.31299327534965]]]}}, {"type": "Feature", "properties": {"name": "HausMoor 35"}, "geometry": {"type": "Polygon", "coordinates": [[[8.734772409552466, 47.31297917068525], [8.734782866758504, 47.31297022559938], [8.734086991998, 47.31259395077422], [8.73407653474931, 47.312602895797106], [8.734772409552466, 47.31297917068525]]]}}, {"type": "Feature", "properties": {"name": "HausMoor 36"}, "geometry": {"type": "Polygon", "coordinates": [[[8.734783954645973, 47.312965066019615], [8.734794411847275, 47.31295612093267], [8.734102539093094, 47.31258201012182], [8.734092081849386, 47.31259095514615], [8.734783954645973, 47.312965066019615]]]}}, {"type": "Feature", "properties": {"name": "HausMoor 37"}, "geometry": {"type": "Polygon", "coordinates": [[[8.734796299757766, 47.31295139393814], [8.734806756954283, 47.31294244885004], [8.73411808618118, 47.312570069467284], [8.734107628942454, 47.312579014493046], [8.734796299757766, 47.31295139393814]]]}}, {"type": "Feature", "properties": {"name": "HausMoor 38"}, "geometry": {"type": "Polygon", "coordinates": [[[8.734809933913922, 47.312938418864526], [8.734820391105574, 47.31292947377514], [8.734133633262259, 47.3125581288106], [8.734123176028515, 47.31256707383781], [8.734809933913922, 47.312938418864526]]]}}, {"type": "Feature", "properties": {"name": "HausMoor 39"}, "geometry": {"type": "Polygon", "coordinates": [[[8.734823568063396, 47.31292544378923], [8.734834025250183, 47.31291649869856], [8.73414918033633, 47.31254618815175], [8.734138723107566, 47.312555133180425], [8.734823568063396, 47.31292544378923]]]}}, {"type": "Feature", "properties": {"name": "HausMoor 40"}, "geometry": {"type": "Polygon", "coordinates": [[[8.734837202206196, 47.31291246871227], [8.734847659388118, 47.31290352362035], [8.734164727403403, 47.31253424749075], [8.73415427017962, 47.31254319252087], [8.734837202206196, 47.31291246871227]]]}}, {"type": "Feature", "properties": {"name": "HausMoor 41"}, "geometry": {"type": "Polygon", "coordinates": [[[8.734850836342305, 47.312899493633665], [8.734861293519364, 47.31289054854046], [8.73418027446346, 47.312522306827624], [8.734169817244657, 47.31253125185919], [8.734850836342305, 47.312899493633665]]]}}, {"type": "Feature", "properties": {"name": "HausMoor 42"}, "geometry": {"type": "Polygon", "coordinates": [[[8.734864470471738, 47.31288651855338], [8.734874927643933, 47.31287757345889], [8.734195821516515, 47.31251036616234], [8.734185364302695, 47.31251931119535], [8.734864470471738, 47.31288651855338]]]}}, {"type": "Feature", "properties": {"name": "HausMoor 43"}, "geometry": {"type": "Polygon", "coordinates": [[[8.734878104594488, 47.31287354347144], [8.734888561761817, 47.31286459837569], [8.73421136856256, 47.312498425494915], [8.734200911353721, 47.31250737052937], [8.734878104594488, 47.31287354347144]]]}}, {"type": "Feature", "properties": {"name": "HausMoor 44"}, "geometry": {"type": "Polygon", "coordinates": [[[8.734891738710555, 47.31286056838782], [8.73490219587302, 47.3128516232908], [8.734226915601596, 47.31248648482533], [8.73421645839774, 47.31249542986124], [8.734891738710555, 47.31286056838782]]]}}, {"type": "Feature", "properties": {"name": "HausMoor 45"}, "geometry": {"type": "Polygon", "coordinates": [[[8.734905372819952, 47.31284759330255], [8.734915829977556, 47.31283864820424], [8.734242462633642, 47.31247454415361], [8.734232005434764, 47.31248348919095], [8.734905372819952, 47.31284759330255]]]}}, {"type": "Feature", "properties": {"name": "HausMoor 46"}, "geometry": {"type": "Polygon", "coordinates": [[[8.734919006922658, 47.31283461821562], [8.734929464075394, 47.31282567311604], [8.734258009658664, 47.31246260347973], [8.734247552464769, 47.31247154851852], [8.734919006922658, 47.31283461821562]]]}}, {"type": "Feature", "properties": {"name": "HausMoor 47"}, "geometry": {"type": "Polygon", "coordinates": [[[8.734932641018688, 47.312821643127], [8.73494309816656, 47.31281269802616], [8.734273556676689, 47.31245066280371], [8.734263099487777, 47.312459607843955], [8.734932641018688, 47.312821643127]]]}}, {"type": "Feature", "properties": {"name": "HausMoor 48"}, "geometry": {"type": "Polygon", "coordinates": [[[8.73494627510803, 47.31280866803674], [8.73495673225104, 47.31279972293461], [8.734289103687702, 47.312438722125535], [8.73427864650377, 47.31244766716723], [8.73494627510803, 47.31280866803674]]]}}, {"type": "Feature", "properties": {"name": "HausMoor 49"}, "geometry": {"type": "Polygon", "coordinates": [[[8.7349599091907, 47.3127956929448], [8.734970366328843, 47.31278674784141], [8.734304650691714, 47.31242678144521], [8.734294193512763, 47.31243572648836], [8.7349599091907, 47.3127956929448]]]}}, {"type": "Feature", "properties": {"name": "HausMoor 50"}, "geometry": {"type": "Polygon", "coordinates": [[[8.73497354326668, 47.3127827178512], [8.73498400039996, 47.31277377274654], [8.734320197688712, 47.31241484076276], [8.734309740514743, 47.31242378580734], [8.73497354326668, 47.3127827178512]]]}}, {"type": "Feature", "properties": {"name": "HausMoor 51"}, "geometry": {"type": "Polygon", "coordinates": [[[8.734987177335983, 47.31276974275595], [8.734997634464401, 47.31276079765], [8.734335744678708, 47.31240290007815], [8.73432528750972, 47.31241184512419], [8.734987177335983, 47.31276974275595]]]}}, {"type": "Feature", "properties": {"name": "HausMoor 52"}, "geometry": {"type": "Polygon", "coordinates": [[[8.73500081139861, 47.312756767659], [8.735011268522163, 47.312747822551785], [8.734351291661701, 47.31239095939138], [8.734340834497695, 47.312399904438855], [8.73500081139861, 47.312756767659]]]}}, {"type": "Feature", "properties": {"name": "HausMoor 53"}, "geometry": {"type": "Polygon", "coordinates": [[[8.735014445454555, 47.31274379256041], [8.735024902573242, 47.31273484745192], [8.734366838637689, 47.31237901870247], [8.734356381478664, 47.31238796375139], [8.735014445454555, 47.31274379256041]]]}}, {"type": "Feature", "properties": {"name": "HausMoor 54"}, "geometry": {"type": "Polygon", "coordinates": [[[8.735028079503817, 47.312730817460164], [8.73503853661764, 47.3127218723504], [8.734382385606667, 47.31236707801141], [8.734371928452623, 47.31237602306178], [8.735028079503817, 47.312730817460164]]]}}, {"type": "Feature", "properties": {"name": "HausMoor 55"}, "geometry": {"type": "Polygon", "coordinates": [[[8.735041713546394, 47.31271784235824], [8.735052170655353, 47.312708897247205], [8.734397932568635, 47.312355137318214], [8.734387475419572, 47.312364082370046], [8.735041713546394, 47.31271784235824]]]}}, {"type": "Feature", "properties": {"name": "HausMoor 56"}, "geometry": {"type": "Polygon", "coordinates": [[[8.735055347582295, 47.31270486725466], [8.735065804686391, 47.31269592214234], [8.7344134795236, 47.31234319662286], [8.734403022379519, 47.31235214167613], [8.735055347582295, 47.31270486725466]]]}}, {"type": "Feature", "properties": {"name": "HausMoor 57"}, "geometry": {"type": "Polygon", "coordinates": [[[8.73506898161151, 47.3126918921494], [8.735079438710741, 47.31268294703582], [8.734429026471556, 47.31233125592536], [8.734418569332457, 47.31234020098007], [8.73506898161151, 47.3126918921494]]]}}, {"type": "Feature", "properties": {"name": "HausMoor 58"}, "geometry": {"type": "Polygon", "coordinates": [[[8.735082615634049, 47.31267891704249], [8.735093072728416, 47.31266997192763], [8.734444573412507, 47.31231931522572], [8.73443411627839, 47.31232826028188], [8.735082615634049, 47.31267891704249]]]}}, {"type": "Feature", "properties": {"name": "HausMoor 59"}, "geometry": {"type": "Polygon", "coordinates": [[[8.735096249649908, 47.3126659419339], [8.735106706739412, 47.31265699681777], [8.734460120346457, 47.31230737452391], [8.73444966321732, 47.31231631958153], [8.735096249649908, 47.3126659419339]]]}}, {"type": "Feature", "properties": {"name": "HausMoor 60"}, "geometry": {"type": "Polygon", "coordinates": [[[8.735109883659081, 47.31265296682367], [8.735120340743721, 47.31264402170626], [8.734475667273394, 47.31229543381997], [8.734465210149239, 47.31230437887903], [8.735109883659081, 47.31265296682367]]]}}, {"type": "Feature", "properties": {"name": "HausMoor 61"}, "geometry": {"type": "Polygon", "coordinates": [[[8.735123517661583, 47.312639991711755], [8.735133974741359, 47.31263104659307], [8.734491214193334, 47.31228349311387], [8.73448075707416, 47.31229243817437], [8.735123517661583, 47.312639991711755]]]}}, {"type": "Feature", "properties": {"name": "HausMoor 62"}, "geometry": {"type": "Polygon", "coordinates": [[[8.735137151657401, 47.31262701659818], [8.73514760873231, 47.31261807147821], [8.734506761106264, 47.312271552405626], [8.734496303992072, 47.31228049746757], [8.735137151657401, 47.31262701659818]]]}}, {"type": "Feature", "properties": {"name": "HausMoor 63"}, "geometry": {"type": "Polygon", "coordinates": [[[8.735150785646534, 47.312614041482945], [8.73516124271658, 47.312605096361715], [8.734522308012185, 47.31225961169524], [8.734511850902972, 47.31226855675864], [8.735150785646534, 47.312614041482945]]]}}, {"type": "Feature", "properties": {"name": "HausMoor 64"}, "geometry": {"type": "Polygon", "coordinates": [[[8.735164419628994, 47.31260106636603], [8.735174876694176, 47.31259212124352], [8.734537854911107, 47.31224767098271], [8.734527397806877, 47.31225661604754], [8.735164419628994, 47.31260106636603]]]}}, {"type": "Feature", "properties": {"name": "HausMoor 65"}, "geometry": {"type": "Polygon", "coordinates": [[[8.735178053604757, 47.31258809124748], [8.735188510665074, 47.312579146123696], [8.734553401803005, 47.31223573026803], [8.734542944703756, 47.31224467533432], [8.735178053604757, 47.31258809124748]]]}}, {"type": "Feature", "properties": {"name": "HausMoor 66"}, "geometry": {"type": "Polygon", "coordinates": [[[8.735191687573852, 47.312575116127235], [8.735202144629307, 47.31256617100218], [8.73456894868791, 47.3122237895512], [8.734558491593644, 47.312232734618924], [8.735191687573852, 47.312575116127235]]]}}, {"type": "Feature", "properties": {"name": "HausMoor 67"}, "geometry": {"type": "Polygon", "coordinates": [[[8.735205321536263, 47.31256214100535], [8.735215778586852, 47.31255319587902], [8.734584495565807, 47.31221184883222], [8.73457403847652, 47.312220793901396], [8.735205321536263, 47.31256214100535]]]}}, {"type": "Feature", "properties": {"name": "HausMoor 68"}, "geometry": {"type": "Polygon", "coordinates": [[[8.735218955491993, 47.31254916588178], [8.73522941253772, 47.31254022075417], [8.734600042436698, 47.31219990811109], [8.734589585352394, 47.31220885318172], [8.735218955491993, 47.31254916588178]]]}}, {"type": "Feature", "properties": {"name": "HausMoor 69"}, "geometry": {"type": "Polygon", "coordinates": [[[8.735232589441043, 47.312536190756546], [8.735243046481905, 47.31252724562767], [8.734615589300581, 47.31218796738781], [8.73460513222126, 47.312196912459896], [8.735232589441043, 47.312536190756546]]]}}, {"type": "Feature", "properties": {"name": "HausMoor 70"}, "geometry": {"type": "Polygon", "coordinates": [[[8.735246223383411, 47.31252321562967], [8.73525668041941, 47.31251427049951], [8.734631136157459, 47.31217602666239], [8.734620679083116, 47.31218497173591], [8.735246223383411, 47.31252321562967]]]}}]}