{"type": "FeatureCollection", "features": [{"type": "Feature", "properties": {"name": "UsterSandacher 01"}, "geometry": {"type": "Polygon", "coordinates": [[[8.74189398395453, 47.35804017876439], [8.741881256016121, 47.35803270947168], [8.739121757148112, 47.360203789370175], [8.739134485216637, 47.3602112589667], [8.74189398395453, 47.35804017876439]]]}}, {"type": "Feature", "properties": {"name": "UsterSandacher 02"}, "geometry": {"type": "Polygon", "coordinates": [[[8.7419091155918, 47.3580039058746], [8.741896387659951, 47.35799643658356], [8.739093842437718, 47.36020138434214], [8.739106570501713, 47.360208853941764], [8.7419091155918, 47.3580039058746]]]}}, {"type": "Feature", "properties": {"name": "UsterSandacher 03"}, "geometry": {"type": "Polygon", "coordinates": [[[8.74192424720824, 47.357967632982536], [8.741911519282953, 47.35796016369312], [8.73906592772988, 47.36019897930731], [8.739078655789346, 47.36020644891003], [8.74192424720824, 47.357967632982536]]]}}, {"type": "Feature", "properties": {"name": "UsterSandacher 04"}, "geometry": {"type": "Polygon", "coordinates": [[[8.741920843047934, 47.357945944261445], [8.74190811512833, 47.357938474971654], [8.739038013024594, 47.36019657426569], [8.739050741079529, 47.36020404387151], [8.741920843047934, 47.357945944261445]]]}}, {"type": "Feature", "properties": {"name": "UsterSandacher 05"}, "geometry": {"type": "Polygon", "coordinates": [[[8.741908590418412, 47.35793121763115], [8.741895862504077, 47.35792374833998], [8.739018195297643, 47.360187799169005], [8.739030923347663, 47.36019526877702], [8.741908590418412, 47.35793121763115]]]}}, {"type": "Feature", "properties": {"name": "UsterSandacher 06"}, "geometry": {"type": "Polygon", "coordinates": [[[8.741896337795692, 47.35791649099949], [8.741883609886624, 47.35790902170695], [8.739001737282308, 47.36017638092388], [8.739014465327259, 47.360183850533716], [8.741896337795692, 47.35791649099949]]]}}, {"type": "Feature", "properties": {"name": "UsterSandacher 07"}, "geometry": {"type": "Polygon", "coordinates": [[[8.74188408517978, 47.3579017643665], [8.74187135727598, 47.3578942950726], [8.738985279274077, 47.36016496267638], [8.738998007313958, 47.360172432288046], [8.74188408517978, 47.3579017643665]]]}}, {"type": "Feature", "properties": {"name": "UsterSandacher 08"}, "geometry": {"type": "Polygon", "coordinates": [[[8.74187183257068, 47.35788703773219], [8.741859104672148, 47.35787956843691], [8.738968821272953, 47.360153544426524], [8.738981549307766, 47.360161014040024], [8.74187183257068, 47.35788703773219]]]}}, {"type": "Feature", "properties": {"name": "UsterSandacher 09"}, "geometry": {"type": "Polygon", "coordinates": [[[8.74185957996838, 47.35787231109653], [8.741846852075115, 47.35786484179987], [8.738952363278921, 47.360142126174274], [8.738965091308664, 47.360149595789615], [8.74185957996838, 47.35787231109653]]]}}, {"type": "Feature", "properties": {"name": "UsterSandacher 10"}, "geometry": {"type": "Polygon", "coordinates": [[[8.741847327372888, 47.357857584459545], [8.741834599484891, 47.357850115161526], [8.738935905291994, 47.36013070791965], [8.738948633316667, 47.360138177536825], [8.741847327372888, 47.357857584459545]]]}}, {"type": "Feature", "properties": {"name": "UsterSandacher 11"}, "geometry": {"type": "Polygon", "coordinates": [[[8.741836256762719, 47.357841927825746], [8.741823528880044, 47.35783445852648], [8.738919447312167, 47.36011928966266], [8.738932175331769, 47.36012675928167], [8.741836256762719, 47.357841927825746]]]}}, {"type": "Feature", "properties": {"name": "UsterSandacher 12"}, "geometry": {"type": "Polygon", "coordinates": [[[8.741825498714766, 47.35782602526813], [8.74181277083743, 47.357818555967654], [8.738902989339447, 47.36010787140331], [8.738915717353981, 47.36011534102415], [8.741825498714766, 47.35782602526813]]]}}, {"type": "Feature", "properties": {"name": "UsterSandacher 13"}, "geometry": {"type": "Polygon", "coordinates": [[[8.741814740673256, 47.35781012270946], [8.741802012801259, 47.35780265340778], [8.738886531373819, 47.36009645314157], [8.738899259383283, 47.360103922764246], [8.741814740673256, 47.35781012270946]]]}}, {"type": "Feature", "properties": {"name": "UsterSandacher 14"}, "geometry": {"type": "Polygon", "coordinates": [[[8.741803982638201, 47.35779422014976], [8.74179125477154, 47.3577867508469], [8.738870222486524, 47.360084917600446], [8.738882950490908, 47.36009238722494], [8.741803982638201, 47.35779422014976]]]}}, {"type": "Feature", "properties": {"name": "UsterSandacher 15"}, "geometry": {"type": "Polygon", "coordinates": [[[8.741793224609593, 47.357778317589016], [8.741780496748271, 47.357770848284936], [8.73885472453711, 47.36007274408317], [8.738867452536379, 47.36008021370939], [8.741793224609593, 47.357778317589016]]]}}, {"type": "Feature", "properties": {"name": "UsterSandacher 16"}, "geometry": {"type": "Polygon", "coordinates": [[[8.741782466587434, 47.35776241502724], [8.741769738731449, 47.35775494572194], [8.738839226594822, 47.360060570563796], [8.738851954588977, 47.36006804019174], [8.741782466587434, 47.35776241502724]]]}}, {"type": "Feature", "properties": {"name": "UsterSandacher 17"}, "geometry": {"type": "Polygon", "coordinates": [[[8.74177170857172, 47.3577465124644], [8.741758980721075, 47.35773904315791], [8.738823728659655, 47.36004839704231], [8.738836456648697, 47.36005586667198], [8.74177170857172, 47.3577465124644]]]}}, {"type": "Feature", "properties": {"name": "UsterSandacher 18"}, "geometry": {"type": "Polygon", "coordinates": [[[8.741760950562465, 47.357730609900536], [8.74174822271716, 47.35772314059285], [8.738808230731632, 47.36003622351872], [8.738820958715557, 47.36004369315012], [8.741760950562465, 47.357730609900536]]]}}, {"type": "Feature", "properties": {"name": "UsterSandacher 19"}, "geometry": {"type": "Polygon", "coordinates": [[[8.74175019255965, 47.35771470733564], [8.74173746471968, 47.357707238026734], [8.738792732810719, 47.36002404999303], [8.738805460789528, 47.36003151962614], [8.74175019255965, 47.35771470733564]]]}}, {"type": "Feature", "properties": {"name": "UsterSandacher 20"}, "geometry": {"type": "Polygon", "coordinates": [[[8.741739434563286, 47.35769880476967], [8.741726706728654, 47.35769133545957], [8.738777234896936, 47.36001187646522], [8.73878996287063, 47.360019346100074], [8.741739434563286, 47.35769880476967]]]}}, {"type": "Feature", "properties": {"name": "UsterSandacher 21"}, "geometry": {"type": "Polygon", "coordinates": [[[8.741728676573366, 47.35768290220269], [8.741715948744075, 47.35767543289137], [8.738761736990277, 47.359999702935276], [8.738774464958857, 47.36000717257187], [8.741728676573366, 47.35768290220269]]]}}, {"type": "Feature", "properties": {"name": "UsterSandacher 22"}, "geometry": {"type": "Polygon", "coordinates": [[[8.741717918589908, 47.35766699963466], [8.741705190765954, 47.357659530322145], [8.738747092027458, 47.35998685838343], [8.73875981999088, 47.35999432802162], [8.741717918589908, 47.35766699963466]]]}}, {"type": "Feature", "properties": {"name": "UsterSandacher 23"}, "geometry": {"type": "Polygon", "coordinates": [[[8.741707160612894, 47.357651097065585], [8.741694432794276, 47.357643627751855], [8.738732849736198, 47.35997369704669], [8.738745577694448, 47.35998116668649], [8.741707160612894, 47.357651097065585]]]}}, {"type": "Feature", "properties": {"name": "UsterSandacher 24"}, "geometry": {"type": "Polygon", "coordinates": [[[8.741696402642322, 47.35763519449545], [8.741683674829043, 47.35762772518053], [8.738718607452013, 47.35996053570816], [8.738731335405086, 47.35996800534954], [8.741696402642322, 47.35763519449545]]]}}, {"type": "Feature", "properties": {"name": "UsterSandacher 25"}, "geometry": {"type": "Polygon", "coordinates": [[[8.741685644678206, 47.35761929192431], [8.741672916870266, 47.35761182260816], [8.738704365174911, 47.35994737436787], [8.738717093122814, 47.359954844010836], [8.741685644678206, 47.35761929192431]]]}}, {"type": "Feature", "properties": {"name": "UsterSandacher 26"}, "geometry": {"type": "Polygon", "coordinates": [[[8.741674886720537, 47.3576033893521], [8.741662158917935, 47.35759592003476], [8.738690122904886, 47.35993421302577], [8.738702850847613, 47.35994168267033], [8.741674886720537, 47.3576033893521]]]}}, {"type": "Feature", "properties": {"name": "UsterSandacher 27"}, "geometry": {"type": "Polygon", "coordinates": [[[8.741664128769317, 47.35758748677885], [8.741651400972051, 47.357580017460315], [8.738675880641937, 47.359921051681894], [8.738688608579489, 47.359928521328044], [8.741664128769317, 47.35758748677885]]]}}, {"type": "Feature", "properties": {"name": "UsterSandacher 28"}, "geometry": {"type": "Polygon", "coordinates": [[[8.741653370824553, 47.35757158420459], [8.741640643032625, 47.35756411488483], [8.738661638386073, 47.35990789033624], [8.738674366318453, 47.35991535998398], [8.741653370824553, 47.35757158420459]]]}}, {"type": "Feature", "properties": {"name": "UsterSandacher 29"}, "geometry": {"type": "Polygon", "coordinates": [[[8.74164261288623, 47.35755568162926], [8.741629885099643, 47.357548212308295], [8.73864739613728, 47.359894728988785], [8.738660124064483, 47.35990219863811], [8.74164261288623, 47.35755568162926]]]}}, {"type": "Feature", "properties": {"name": "UsterSandacher 30"}, "geometry": {"type": "Polygon", "coordinates": [[[8.741631854954356, 47.357539779052885], [8.741619127173106, 47.35753230973073], [8.738633153895563, 47.359881567639555], [8.738645881817593, 47.359889037290465], [8.741631854954356, 47.357539779052885]]]}}, {"type": "Feature", "properties": {"name": "UsterSandacher 31"}, "geometry": {"type": "Polygon", "coordinates": [[[8.741621097028931, 47.357523876475476], [8.741608369253019, 47.35751640715212], [8.738618911660922, 47.35986840628853], [8.738631639577777, 47.35987587594103], [8.741621097028931, 47.357523876475476]]]}}, {"type": "Feature", "properties": {"name": "UsterSandacher 32"}, "geometry": {"type": "Polygon", "coordinates": [[[8.74161033910996, 47.357507973897015], [8.741597611339385, 47.357500504572464], [8.738604669433364, 47.35985524493572], [8.738617397345045, 47.359862714589816], [8.74161033910996, 47.357507973897015]]]}}, {"type": "Feature", "properties": {"name": "UsterSandacher 33"}, "geometry": {"type": "Polygon", "coordinates": [[[8.741599581197434, 47.35749207131753], [8.741586853432198, 47.357484601991764], [8.73859042721288, 47.35984208358113], [8.738603155119387, 47.35984955323681], [8.741599581197434, 47.35749207131753]]]}}, {"type": "Feature", "properties": {"name": "UsterSandacher 34"}, "geometry": {"type": "Polygon", "coordinates": [[[8.741588823291353, 47.357476168736994], [8.741576095531457, 47.35746869941003], [8.738576184999472, 47.359828922224736], [8.738588912900804, 47.35983639188201], [8.741588823291353, 47.357476168736994]]]}}, {"type": "Feature", "properties": {"name": "UsterSandacher 35"}, "geometry": {"type": "Polygon", "coordinates": [[[8.74157806539173, 47.35746026615543], [8.741565337637171, 47.35745279682724], [8.738561942793147, 47.359815760866574], [8.738574670689305, 47.35982323052543], [8.74157806539173, 47.35746026615543]]]}}, {"type": "Feature", "properties": {"name": "UsterSandacher 36"}, "geometry": {"type": "Polygon", "coordinates": [[[8.74156730749855, 47.35744436357281], [8.741554579749327, 47.35743689424343], [8.738547700593893, 47.35980259950662], [8.738560428484877, 47.35981006916707], [8.74156730749855, 47.35744436357281]]]}}, {"type": "Feature", "properties": {"name": "UsterSandacher 37"}, "geometry": {"type": "Polygon", "coordinates": [[[8.74155654961182, 47.357428460989155], [8.741543821867937, 47.357420991658564], [8.73853345840172, 47.35978943814489], [8.73854618628753, 47.359796907806924], [8.74155654961182, 47.357428460989155]]]}}, {"type": "Feature", "properties": {"name": "UsterSandacher 38"}, "geometry": {"type": "Polygon", "coordinates": [[[8.741545791731545, 47.35741255840446], [8.741533063993, 47.357405089072664], [8.738519216216632, 47.35977627678137], [8.738531944097268, 47.359783746445], [8.741545791731545, 47.35741255840446]]]}}, {"type": "Feature", "properties": {"name": "UsterSandacher 39"}, "geometry": {"type": "Polygon", "coordinates": [[[8.74153503385771, 47.357396655818725], [8.741522306124502, 47.35738918648572], [8.738504974038607, 47.35976311541605], [8.738517701914068, 47.359770585081264], [8.74153503385771, 47.357396655818725]]]}}, {"type": "Feature", "properties": {"name": "UsterSandacher 40"}, "geometry": {"type": "Polygon", "coordinates": [[[8.741524275990328, 47.35738075323193], [8.741511548262457, 47.35737328389773], [8.738490731867666, 47.359749954048944], [8.73850345973795, 47.35975742371575], [8.741524275990328, 47.35738075323193]]]}}, {"type": "Feature", "properties": {"name": "UsterSandacher 41"}, "geometry": {"type": "Polygon", "coordinates": [[[8.74151351812939, 47.3573648506441], [8.741500790406857, 47.357357381308695], [8.738476489703796, 47.35973679268005], [8.738489217568908, 47.35974426234846], [8.74151351812939, 47.3573648506441]]]}}, {"type": "Feature", "properties": {"name": "UsterSandacher 42"}, "geometry": {"type": "Polygon", "coordinates": [[[8.741502760274908, 47.35734894805525], [8.741490032557714, 47.35734147871863], [8.738462247547014, 47.35972363130939], [8.738474975406954, 47.35973110097938], [8.741502760274908, 47.35734894805525]]]}}, {"type": "Feature", "properties": {"name": "UsterSandacher 43"}, "geometry": {"type": "Polygon", "coordinates": [[[8.741492002426876, 47.357333045465346], [8.741479274715019, 47.35732557612751], [8.738448005397307, 47.359710469936935], [8.738460733252072, 47.35971793960851], [8.741492002426876, 47.357333045465346]]]}}, {"type": "Feature", "properties": {"name": "UsterSandacher 44"}, "geometry": {"type": "Polygon", "coordinates": [[[8.741481244585284, 47.357317142874386], [8.741468516878765, 47.35730967353536], [8.73843376325467, 47.359697308562694], [8.73844649110426, 47.35970477823584], [8.741481244585284, 47.357317142874386]]]}}, {"type": "Feature", "properties": {"name": "UsterSandacher 45"}, "geometry": {"type": "Polygon", "coordinates": [[[8.741470486750147, 47.35730124028239], [8.741457759048966, 47.35729377094216], [8.738419521119122, 47.35968414718666], [8.738432248963536, 47.35969161686142], [8.741470486750147, 47.35730124028239]]]}}, {"type": "Feature", "properties": {"name": "UsterSandacher 46"}, "geometry": {"type": "Polygon", "coordinates": [[[8.741459728921459, 47.35728533768936], [8.741447001225618, 47.35727786834791], [8.738405278990642, 47.359670985808854], [8.738418006829884, 47.359678455485195], [8.741459728921459, 47.35728533768936]]]}}, {"type": "Feature", "properties": {"name": "UsterSandacher 47"}, "geometry": {"type": "Polygon", "coordinates": [[[8.741448971099222, 47.35726943509529], [8.741436243408717, 47.357261965752656], [8.738391036869247, 47.35965782442925], [8.738403764703314, 47.35966529410718], [8.741448971099222, 47.35726943509529]]]}}, {"type": "Feature", "properties": {"name": "UsterSandacher 48"}, "geometry": {"type": "Polygon", "coordinates": [[[8.741438213283427, 47.357253532500174], [8.741425485598262, 47.357246063156325], [8.73837679475492, 47.35964466304787], [8.738389522583812, 47.359652132727376], [8.741438213283427, 47.357253532500174]]]}}, {"type": "Feature", "properties": {"name": "UsterSandacher 49"}, "geometry": {"type": "Polygon", "coordinates": [[[8.741427455474089, 47.35723762990402], [8.74141472779426, 47.35723016055898], [8.73836255264768, 47.35963150166469], [8.738375280471395, 47.359638971345795], [8.741427455474089, 47.35723762990402]]]}}, {"type": "Feature", "properties": {"name": "UsterSandacher 50"}, "geometry": {"type": "Polygon", "coordinates": [[[8.741416697671191, 47.35722172730682], [8.7414039699967, 47.357214257960564], [8.738348310547508, 47.35961834027973], [8.738361038366051, 47.359625809962424], [8.741416697671191, 47.35722172730682]]]}}, {"type": "Feature", "properties": {"name": "UsterSandacher 51"}, "geometry": {"type": "Polygon", "coordinates": [[[8.741398648599542, 47.35721156158023], [8.741385920930044, 47.35720409223196], [8.738334068454416, 47.359605178892984], [8.738346796267784, 47.35961264857726], [8.741398648599542, 47.35721156158023]]]}}, {"type": "Feature", "properties": {"name": "UsterSandacher 52"}, "geometry": {"type": "Polygon", "coordinates": [[[8.741377339617776, 47.35720396079538], [8.74136461195312, 47.357196491444746], [8.73831982636841, 47.35959201750446], [8.738332554176605, 47.35959948719032], [8.741377339617776, 47.35720396079538]]]}}, {"type": "Feature", "properties": {"name": "UsterSandacher 53"}, "geometry": {"type": "Polygon", "coordinates": [[[8.741356030642125, 47.357196360006554], [8.741343302982308, 47.357188890653546], [8.73830558428947, 47.35957885611414], [8.738318312092492, 47.359586325801594], [8.741356030642125, 47.357196360006554]]]}}, {"type": "Feature", "properties": {"name": "UsterSandacher 54"}, "geometry": {"type": "Polygon", "coordinates": [[[8.741334721672608, 47.35718875921375], [8.741321994017634, 47.35718128985839], [8.73829134221761, 47.35956569472203], [8.738304070015456, 47.35957316441108], [8.741334721672608, 47.35718875921375]]]}}, {"type": "Feature", "properties": {"name": "UsterSandacher 55"}, "geometry": {"type": "Polygon", "coordinates": [[[8.741313412709241, 47.357181158417006], [8.741300685059105, 47.357173689059266], [8.73827730479403, 47.35955237233405], [8.738290032586693, 47.359559842024666], [8.741313412709241, 47.357181158417006]]]}}, {"type": "Feature", "properties": {"name": "UsterSandacher 56"}, "geometry": {"type": "Polygon", "coordinates": [[[8.741292103751992, 47.3571735576163], [8.741279376106696, 47.35716608825621], [8.738263518281535, 47.35953885255462], [8.738276246069004, 47.35954632224678], [8.741292103751992, 47.3571735576163]]]}}, {"type": "Feature", "properties": {"name": "UsterSandacher 57"}, "geometry": {"type": "Polygon", "coordinates": [[[8.741270794800872, 47.35716595681164], [8.74125806716042, 47.35715848744917], [8.738249731776078, 47.35952533277352], [8.73826245955835, 47.35953280246719], [8.741270794800872, 47.35716595681164]]]}}, {"type": "Feature", "properties": {"name": "UsterSandacher 58"}, "geometry": {"type": "Polygon", "coordinates": [[[8.741249485855887, 47.35715835600301], [8.741236758220275, 47.35715088663818], [8.738235945277653, 47.35951181299073], [8.738248673054729, 47.35951928268596], [8.741249485855887, 47.35715835600301]]]}}, {"type": "Feature", "properties": {"name": "UsterSandacher 59"}, "geometry": {"type": "Polygon", "coordinates": [[[8.741196852342418, 47.35717540167974], [8.741184124710166, 47.35716793230909], [8.73822215878627, 47.35949829320627], [8.73823488655815, 47.35950576290304], [8.741196852342418, 47.35717540167974]]]}}, {"type": "Feature", "properties": {"name": "UsterSandacher 60"}, "geometry": {"type": "Polygon", "coordinates": [[[8.741143429351157, 47.357193068473144], [8.74113070172223, 47.357185599096596], [8.738208372301917, 47.35948477342013], [8.738221100068602, 47.35949224311844], [8.741143429351157, 47.357193068473144]]]}}, {"type": "Feature", "properties": {"name": "UsterSandacher 61"}, "geometry": {"type": "Polygon", "coordinates": [[[8.741090006324356, 47.3572107352415], [8.741077278698757, 47.357203265859056], [8.738194585824612, 47.35947125363232], [8.7382073135861, 47.35947872333217], [8.741090006324356, 47.3572107352415]]]}}, {"type": "Feature", "properties": {"name": "UsterSandacher 62"}, "geometry": {"type": "Polygon", "coordinates": [[[8.741036583261938, 47.35722840198486], [8.741023855639664, 47.357220932596505], [8.738180799354334, 47.35945773384284], [8.738193527110628, 47.35946520354421], [8.741036583261938, 47.35722840198486]]]}}, {"type": "Feature", "properties": {"name": "UsterSandacher 63"}, "geometry": {"type": "Polygon", "coordinates": [[[8.740983160163925, 47.357246068703205], [8.740970432544978, 47.35723859930894], [8.73816701289109, 47.35944421405168], [8.738179740642186, 47.35945168375459], [8.740983160163925, 47.357246068703205]]]}}, {"type": "Feature", "properties": {"name": "UsterSandacher 64"}, "geometry": {"type": "Polygon", "coordinates": [[[8.74092973703032, 47.35726373539652], [8.7409170094147, 47.35725626599636], [8.73815322643488, 47.35943069425882], [8.738165954180781, 47.35943816396327], [8.74092973703032, 47.35726373539652]]]}}, {"type": "Feature", "properties": {"name": "UsterSandacher 65"}, "geometry": {"type": "Polygon", "coordinates": [[[8.740876313861172, 47.3572814020648], [8.740863586248876, 47.35727393265873], [8.738144937782986, 47.3594128492738], [8.738157665523433, 47.35942031897919], [8.740876313861172, 47.3572814020648]]]}}, {"type": "Feature", "properties": {"name": "UsterSandacher 66"}, "geometry": {"type": "Polygon", "coordinates": [[[8.740822890656428, 47.35729906870807], [8.74081016304746, 47.35729159929609], [8.738137010901019, 47.359394719683195], [8.738149738635995, 47.35940218938948], [8.740822890656428, 47.35729906870807]]]}}, {"type": "Feature", "properties": {"name": "UsterSandacher 67"}, "geometry": {"type": "Polygon", "coordinates": [[[8.740769467416088, 47.35731673532631], [8.740756739810443, 47.357309265908434], [8.738129084024457, 47.359376590092], [8.73814181175396, 47.35938405979918], [8.740769467416088, 47.35731673532631]]]}}, {"type": "Feature", "properties": {"name": "UsterSandacher 68"}, "geometry": {"type": "Polygon", "coordinates": [[[8.740716044140159, 47.35733440191953], [8.740703316537843, 47.35732693249576], [8.738121157153302, 47.35935846050021], [8.738133884877334, 47.359365930208284], [8.740716044140159, 47.35733440191953]]]}}, {"type": "Feature", "properties": {"name": "UsterSandacher 69"}, "geometry": {"type": "Polygon", "coordinates": [[[8.740674841968145, 47.35734245294234], [8.74066211436973, 47.357334983514], [8.738116262824711, 47.35933794516857], [8.73812899054313, 47.359345414877204], [8.740674841968145, 47.35734245294234]]]}}, {"type": "Feature", "properties": {"name": "UsterSandacher 70"}, "geometry": {"type": "Polygon", "coordinates": [[[8.74063368258837, 47.35735047027174], [8.74062095499386, 47.35734300083886], [8.738118201746534, 47.359312054023796], [8.738130929459015, 47.35931952373222], [8.74063368258837, 47.35735047027174]]]}}, {"type": "Feature", "properties": {"name": "UsterSandacher 71"}, "geometry": {"type": "Polygon", "coordinates": [[[8.740592523196197, 47.357358487586325], [8.740579795605592, 47.3573510181489], [8.738120140666403, 47.35928616287885], [8.738132868372947, 47.3592936325871], [8.740592523196197, 47.357358487586325]]]}}, {"type": "Feature", "properties": {"name": "UsterSandacher 72"}, "geometry": {"type": "Polygon", "coordinates": [[[8.740551363791601, 47.3573665048861], [8.740538636204901, 47.35735903544411], [8.738122079584324, 47.35926027173374], [8.738134807284931, 47.3592677414418], [8.740551363791601, 47.3573665048861]]]}}, {"type": "Feature", "properties": {"name": "UsterSandacher 73"}, "geometry": {"type": "Polygon", "coordinates": [[[8.740510204374589, 47.357374522171064], [8.740497476791793, 47.35736705272453], [8.738124018500294, 47.35923438058851], [8.738136746194964, 47.35924185029636], [8.740510204374589, 47.357374522171064]]]}}, {"type": "Feature", "properties": {"name": "UsterSandacher 74"}, "geometry": {"type": "Polygon", "coordinates": [[[8.740469044945158, 47.357382539441204], [8.740456317366265, 47.35737506999012], [8.738125957414313, 47.359208489443084], [8.73813868510305, 47.35921595915075], [8.740469044945158, 47.357382539441204]]]}}, {"type": "Feature", "properties": {"name": "UsterSandacher 75"}, "geometry": {"type": "Polygon", "coordinates": [[[8.740427885503333, 47.35739055669654], [8.740415157928346, 47.35738308724088], [8.738127896326382, 47.359182598297544], [8.738140624009182, 47.35919006800501], [8.740427885503333, 47.35739055669654]]]}}, {"type": "Feature", "properties": {"name": "UsterSandacher 76"}, "geometry": {"type": "Polygon", "coordinates": [[[8.740386726049092, 47.35739857393704], [8.74037399847801, 47.357391104476854], [8.738129835236503, 47.359156707151826], [8.738142562913364, 47.35916417685911], [8.740386726049092, 47.35739857393704]]]}}, {"type": "Feature", "properties": {"name": "UsterSandacher 77"}, "geometry": {"type": "Polygon", "coordinates": [[[8.740345566582425, 47.35740659116276], [8.740332839015247, 47.357399121698], [8.738131774144671, 47.359130816005944], [8.738144501815597, 47.35913828571304], [8.740345566582425, 47.35740659116276]]]}}, {"type": "Feature", "properties": {"name": "UsterSandacher 78"}, "geometry": {"type": "Polygon", "coordinates": [[[8.74030440710337, 47.357414608373624], [8.740291679540096, 47.357407138904335], [8.73813371305089, 47.35910492485994], [8.738146440715878, 47.359112394566836], [8.74030440710337, 47.357414608373624]]]}}, {"type": "Feature", "properties": {"name": "UsterSandacher 79"}, "geometry": {"type": "Polygon", "coordinates": [[[8.740263247611884, 47.357422625569704], [8.740250520052514, 47.35741515609584], [8.73813565195516, 47.35907903371377], [8.738148379614211, 47.35908650342048], [8.740263247611884, 47.357422625569704]]]}}, {"type": "Feature", "properties": {"name": "UsterSandacher 80"}, "geometry": {"type": "Polygon", "coordinates": [[[8.740222088107968, 47.35743064275095], [8.740209360552504, 47.35742317327256], [8.738137463338944, 47.35905324288864], [8.738150190992066, 47.359060712595166], [8.740222088107968, 47.35743064275095]]]}}, {"type": "Feature", "properties": {"name": "UsterSandacher 81"}, "geometry": {"type": "Polygon", "coordinates": [[[8.740180928591679, 47.3574386599174], [8.74016820104012, 47.35743119043445], [8.738136835133304, 47.35902937133356], [8.73814956278061, 47.35903684104018], [8.740180928591679, 47.3574386599174]]]}}, {"type": "Feature", "properties": {"name": "UsterSandacher 82"}, "geometry": {"type": "Polygon", "coordinates": [[[8.740139769062953, 47.35744667706903], [8.740127041515299, 47.35743920758151], [8.738136206928184, 47.35900549977837], [8.738148934569672, 47.359012969485065], [8.740139769062953, 47.35744667706903]]]}}, {"type": "Feature", "properties": {"name": "UsterSandacher 83"}, "geometry": {"type": "Polygon", "coordinates": [[[8.740098609521805, 47.357454694205835], [8.740085881978056, 47.35744722471377], [8.738135578723584, 47.35898162822307], [8.738148306359257, 47.35898909792986], [8.740098609521805, 47.357454694205835]]]}}, {"type": "Feature", "properties": {"name": "UsterSandacher 84"}, "geometry": {"type": "Polygon", "coordinates": [[[8.740057449968253, 47.357462711327834], [8.740044722428406, 47.357455241831225], [8.738134950519505, 47.35895775666767], [8.738147678149364, 47.35896522637454], [8.740057449968253, 47.357462711327834]]]}}, {"type": "Feature", "properties": {"name": "UsterSandacher 85"}, "geometry": {"type": "Polygon", "coordinates": [[[8.740016290402307, 47.357470728435004], [8.740003562866365, 47.35746325893384], [8.738134322315949, 47.35893388511217], [8.738147049939993, 47.35894135481915], [8.740016290402307, 47.357470728435004]]]}}, {"type": "Feature", "properties": {"name": "UsterSandacher 86"}, "geometry": {"type": "Polygon", "coordinates": [[[8.739961749441585, 47.357489273728405], [8.739949021908917, 47.357481804221216], [8.738133694112916, 47.358910013556574], [8.738146421731141, 47.35891748326363], [8.739961749441585, 47.357489273728405]]]}}, {"type": "Feature", "properties": {"name": "UsterSandacher 87"}, "geometry": {"type": "Polygon", "coordinates": [[[8.73990287011729, 47.35751123229514], [8.739890142587694, 47.35750376278145], [8.738133065910402, 47.35888614200085], [8.738145793522813, 47.358893611708005], [8.73990287011729, 47.35751123229514]]]}}, {"type": "Feature", "properties": {"name": "UsterSandacher 88"}, "geometry": {"type": "Polygon", "coordinates": [[[8.73984399074426, 47.35753319083143], [8.73983126321773, 47.357525721311234], [8.738133714817202, 47.3588612657161], [8.738146442423737, 47.35886873542319], [8.73984399074426, 47.35753319083143]]]}}, {"type": "Feature", "properties": {"name": "UsterSandacher 89"}, "geometry": {"type": "Polygon", "coordinates": [[[8.73978511132246, 47.357555149337315], [8.739772383799002, 47.357547679810615], [8.738145790223657, 47.358827399950805], [8.738158517823779, 47.358834869656604], [8.73978511132246, 47.357555149337315]]]}}]}