{"type": "FeatureCollection", "features": [{"type": "Feature", "properties": {"name": "Spannweid 01"}, "geometry": {"type": "Polygon", "coordinates": [[[8.73066839915029, 47.31373331002662], [8.73067999184989, 47.31374158261694], [8.732512319229157, 47.3125539390105], [8.732500726501735, 47.31254566660373], [8.73066839915029, 47.31373331002662]]]}}, {"type": "Feature", "properties": {"name": "Spannweid 02"}, "geometry": {"type": "Polygon", "coordinates": [[[8.730686955951759, 47.31374328397933], [8.73069854865644, 47.31375155656779], [8.732530816206129, 47.31256395140261], [8.732519223473627, 47.312555678997725], [8.730686955951759, 47.31374328397933]]]}}, {"type": "Feature", "properties": {"name": "Spannweid 03"}, "geometry": {"type": "Polygon", "coordinates": [[[8.730705512760228, 47.31375325792905], [8.730717105469987, 47.313761530515634], [8.7325493131901, 47.312573963791735], [8.732537720452521, 47.31256569138872], [8.730705512760228, 47.31375325792905]]]}}, {"type": "Feature", "properties": {"name": "Spannweid 04"}, "geometry": {"type": "Polygon", "coordinates": [[[8.730724069575679, 47.313763231875754], [8.730735662290517, 47.31377150446044], [8.732567810181058, 47.31258397617786], [8.732556217438402, 47.31257570377672], [8.730724069575679, 47.313763231875754]]]}}, {"type": "Feature", "properties": {"name": "Spannweid 05"}, "geometry": {"type": "Polygon", "coordinates": [[[8.730742626398133, 47.31377320581946], [8.730754219118047, 47.313781478402255], [8.732586307179021, 47.31259398856101], [8.732574714431289, 47.31258571616175], [8.730742626398133, 47.31377320581946]]]}}, {"type": "Feature", "properties": {"name": "Spannweid 06"}, "geometry": {"type": "Polygon", "coordinates": [[[8.730761183227544, 47.313783179760144], [8.73077277595254, 47.313791452341064], [8.73260480418395, 47.312604000941164], [8.73259321143114, 47.312595728543776], [8.730761183227544, 47.313783179760144]]]}}, {"type": "Feature", "properties": {"name": "Spannweid 07"}, "geometry": {"type": "Polygon", "coordinates": [[[8.730779740063968, 47.31379315369781], [8.73079133279404, 47.313801426276854], [8.73262330119589, 47.31261401331833], [8.732611708438004, 47.312605740922834], [8.730779740063968, 47.31379315369781]]]}}, {"type": "Feature", "properties": {"name": "Spannweid 08"}, "geometry": {"type": "Polygon", "coordinates": [[[8.730798296907372, 47.31380312763248], [8.730809889642522, 47.31381140020966], [8.732641798214816, 47.31262402569251], [8.732630205451853, 47.312615753298864], [8.730798296907372, 47.31380312763248]]]}}, {"type": "Feature", "properties": {"name": "Spannweid 09"}, "geometry": {"type": "Polygon", "coordinates": [[[8.73081685375777, 47.31381310156416], [8.730828446498, 47.31382137413943], [8.732660295240743, 47.312634038063706], [8.7326487024727, 47.31262576567194], [8.73081685375777, 47.31381310156416]]]}}, {"type": "Feature", "properties": {"name": "Spannweid 10"}, "geometry": {"type": "Polygon", "coordinates": [[[8.730835410615141, 47.31382307549281], [8.73084700336045, 47.313831348066216], [8.732678792273646, 47.3126440504319], [8.732667199500527, 47.31263577804201], [8.730835410615141, 47.31382307549281]]]}}, {"type": "Feature", "properties": {"name": "Spannweid 11"}, "geometry": {"type": "Polygon", "coordinates": [[[8.73085396747951, 47.31383304941846], [8.730865560229898, 47.313841321989976], [8.732697289313547, 47.312654062797115], [8.732685696535352, 47.3126457904091], [8.73085396747951, 47.31383304941846]]]}}, {"type": "Feature", "properties": {"name": "Spannweid 12"}, "geometry": {"type": "Polygon", "coordinates": [[[8.730872524350874, 47.31384302334109], [8.73088411710634, 47.31385129591074], [8.73271578636045, 47.31266407515933], [8.732704193577176, 47.31265580277319], [8.730872524350874, 47.31384302334109]]]}}, {"type": "Feature", "properties": {"name": "Spannweid 13"}, "geometry": {"type": "Polygon", "coordinates": [[[8.730891081229224, 47.313852997260746], [8.73090267398977, 47.3138612698285], [8.732734283414342, 47.312674087518566], [8.73272269062599, 47.31266581513432], [8.730891081229224, 47.313852997260746]]]}}, {"type": "Feature", "properties": {"name": "Spannweid 14"}, "geometry": {"type": "Polygon", "coordinates": [[[8.730909638114564, 47.31386297117736], [8.730921230880186, 47.313871243743236], [8.732752780475225, 47.312684099874815], [8.732741187681798, 47.31267582749243], [8.730909638114564, 47.31386297117736]]]}}, {"type": "Feature", "properties": {"name": "Spannweid 15"}, "geometry": {"type": "Polygon", "coordinates": [[[8.730928195006875, 47.313872945090964], [8.730939787777576, 47.313881217654966], [8.732771277543087, 47.31269411222808], [8.732759684744579, 47.31268583984755], [8.730928195006875, 47.313872945090964]]]}}, {"type": "Feature", "properties": {"name": "Spannweid 16"}, "geometry": {"type": "Polygon", "coordinates": [[[8.730946751906188, 47.31388291900158], [8.73095834468197, 47.3138911915637], [8.732789774617952, 47.31270412457834], [8.73277818181437, 47.31269585219971], [8.730946751906188, 47.31388291900158]]]}}, {"type": "Feature", "properties": {"name": "Spannweid 17"}, "geometry": {"type": "Polygon", "coordinates": [[[8.730965308812484, 47.31389289290918], [8.730976901593344, 47.31390116546941], [8.732808271699808, 47.312714136925614], [8.732796678891146, 47.31270586454885], [8.730965308812484, 47.31389289290918]]]}}, {"type": "Feature", "properties": {"name": "Spannweid 18"}, "geometry": {"type": "Polygon", "coordinates": [[[8.730983865725769, 47.31390286681377], [8.730995458511705, 47.31391113937211], [8.732826768788653, 47.312724149269904], [8.732815175974915, 47.31271587689502], [8.730983865725769, 47.31390286681377]]]}}, {"type": "Feature", "properties": {"name": "Spannweid 19"}, "geometry": {"type": "Polygon", "coordinates": [[[8.731002422646045, 47.31391284071535], [8.73101401543706, 47.313921113271824], [8.732845265884494, 47.3127341616112], [8.732833673065679, 47.31272588923819], [8.731002422646045, 47.31391284071535]]]}}, {"type": "Feature", "properties": {"name": "Spannweid 20"}, "geometry": {"type": "Polygon", "coordinates": [[[8.73102097957331, 47.31392281461393], [8.731032572369406, 47.313931087168534], [8.732863762987327, 47.31274417394952], [8.732852170163435, 47.31273590157838], [8.73102097957331, 47.31392281461393]]]}}, {"type": "Feature", "properties": {"name": "Spannweid 21"}, "geometry": {"type": "Polygon", "coordinates": [[[8.731039536507568, 47.313932788509504], [8.731051129308742, 47.313941061062216], [8.732882260097158, 47.31275418628485], [8.732870667268188, 47.312745913915585], [8.731039536507568, 47.313932788509504]]]}}, {"type": "Feature", "properties": {"name": "Spannweid 22"}, "geometry": {"type": "Polygon", "coordinates": [[[8.731058093448798, 47.31394276240206], [8.73106968625505, 47.313951034952886], [8.732900757213965, 47.31276419861717], [8.732889164379918, 47.31275592624979], [8.731058093448798, 47.31394276240206]]]}}, {"type": "Feature", "properties": {"name": "Spannweid 23"}, "geometry": {"type": "Polygon", "coordinates": [[[8.73107665039702, 47.3139527362916], [8.731088243208351, 47.31396100884055], [8.732919254337766, 47.312774210946515], [8.732907661498642, 47.31276593858101], [8.73107665039702, 47.3139527362916]]]}}, {"type": "Feature", "properties": {"name": "Spannweid 24"}, "geometry": {"type": "Polygon", "coordinates": [[[8.73109520735224, 47.31396271017816], [8.731106800168648, 47.31397098272522], [8.73293775146857, 47.31278422327287], [8.732926158624368, 47.31277595090924], [8.73109520735224, 47.31396271017816]]]}}, {"type": "Feature", "properties": {"name": "Spannweid 25"}, "geometry": {"type": "Polygon", "coordinates": [[[8.731113764314443, 47.3139726840617], [8.731125357135932, 47.313980956606876], [8.732956248606364, 47.312794235596236], [8.732944655757084, 47.31278596323448], [8.731113764314443, 47.3139726840617]]]}}, {"type": "Feature", "properties": {"name": "Spannweid 26"}, "geometry": {"type": "Polygon", "coordinates": [[[8.73113232128363, 47.31398265794222], [8.731143914110197, 47.31399093048552], [8.732974745751141, 47.31280424791661], [8.732963152896783, 47.312795975556725], [8.73113232128363, 47.31398265794222]]]}}, {"type": "Feature", "properties": {"name": "Spannweid 27"}, "geometry": {"type": "Polygon", "coordinates": [[[8.731150878259815, 47.31399263181974], [8.73116247109146, 47.31400090436116], [8.732993242902921, 47.312814260234006], [8.732981650043486, 47.312805987876], [8.731150878259815, 47.31399263181974]]]}}, {"type": "Feature", "properties": {"name": "Spannweid 28"}, "geometry": {"type": "Polygon", "coordinates": [[[8.731169435242983, 47.31400260569425], [8.731181028079709, 47.31401087823379], [8.73301174006169, 47.31282427254841], [8.733000147197178, 47.31281600019228], [8.731169435242983, 47.31400260569425]]]}}, {"type": "Feature", "properties": {"name": "Spannweid 29"}, "geometry": {"type": "Polygon", "coordinates": [[[8.731187992233133, 47.31401257956575], [8.731199585074936, 47.31402085210341], [8.733030237227444, 47.31283428485981], [8.733018644357854, 47.31282601250557], [8.731187992233133, 47.31401257956575]]]}}, {"type": "Feature", "properties": {"name": "Spannweid 30"}, "geometry": {"type": "Polygon", "coordinates": [[[8.731206549230276, 47.31402255343425], [8.731218142077159, 47.31403082597002], [8.733048734400194, 47.31284429716823], [8.733037141525527, 47.31283602481585], [8.731206549230276, 47.31402255343425]]]}}, {"type": "Feature", "properties": {"name": "Spannweid 31"}, "geometry": {"type": "Polygon", "coordinates": [[[8.731225106234414, 47.31403252729973], [8.731236699086374, 47.314040799833634], [8.733067231579941, 47.31285430947368], [8.733055638700197, 47.312846037123165], [8.731225106234414, 47.31403252729973]]]}}, {"type": "Feature", "properties": {"name": "Spannweid 32"}, "geometry": {"type": "Polygon", "coordinates": [[[8.73124366422638, 47.31404250052648], [8.73125525708342, 47.314050773058504], [8.733085729126048, 47.312864321543174], [8.733074136241227, 47.31285604919454], [8.73124366422638, 47.31404250052648]]]}}, {"type": "Feature", "properties": {"name": "Spannweid 33"}, "geometry": {"type": "Polygon", "coordinates": [[[8.731262223790289, 47.31405247273591], [8.73127381665241, 47.31406074526605], [8.73310422671845, 47.31287433358422], [8.73309263382855, 47.31286606123746], [8.731262223790289, 47.31405247273591]]]}}, {"type": "Feature", "properties": {"name": "Spannweid 34"}, "geometry": {"type": "Polygon", "coordinates": [[[8.731280783361179, 47.31406244494233], [8.731292376228376, 47.314070717470585], [8.733122725844664, 47.3128843446326], [8.733111132949684, 47.31287607228771], [8.731280783361179, 47.31406244494233]]]}}, {"type": "Feature", "properties": {"name": "Spannweid 35"}, "geometry": {"type": "Polygon", "coordinates": [[[8.73129934293906, 47.31407241714574], [8.731310935811337, 47.31408068967211], [8.733141225183527, 47.31289435554467], [8.733129632283472, 47.31288608320166], [8.73129934293906, 47.31407241714574]]]}}, {"type": "Feature", "properties": {"name": "Spannweid 36"}, "geometry": {"type": "Polygon", "coordinates": [[[8.731317902523935, 47.31408238934614], [8.73132949540129, 47.31409066187062], [8.733159722526127, 47.312904367752274], [8.733148129620995, 47.31289609541114], [8.731317902523935, 47.31408238934614]]]}}, {"type": "Feature", "properties": {"name": "Spannweid 37"}, "geometry": {"type": "Polygon", "coordinates": [[[8.731336459727826, 47.31409236309128], [8.73134805261026, 47.31410063561388], [8.73317821954738, 47.31291438016969], [8.73316662663717, 47.31290610783043], [8.731336459727826, 47.31409236309128]]]}}, {"type": "Feature", "properties": {"name": "Spannweid 38"}, "geometry": {"type": "Polygon", "coordinates": [[[8.731355016758835, 47.31410233694998], [8.731366609646347, 47.31411060947071], [8.73319671657562, 47.31292439258412], [8.733185123660334, 47.31291612024673], [8.731355016758835, 47.31410233694998]]]}}, {"type": "Feature", "properties": {"name": "Spannweid 39"}, "geometry": {"type": "Polygon", "coordinates": [[[8.731373573796839, 47.3141123108057], [8.731385166689428, 47.314120583324524], [8.733215213610864, 47.31293440499556], [8.733203620690498, 47.31292613266006], [8.731373573796839, 47.3141123108057]]]}}, {"type": "Feature", "properties": {"name": "Spannweid 40"}, "geometry": {"type": "Polygon", "coordinates": [[[8.731392130841828, 47.31412228465838], [8.731403723739497, 47.314130557175346], [8.733233710653096, 47.31294441740402], [8.733222117727653, 47.31293614507038], [8.731392130841828, 47.31412228465838]]]}}, {"type": "Feature", "properties": {"name": "Spannweid 41"}, "geometry": {"type": "Polygon", "coordinates": [[[8.731410687893808, 47.314132258508074], [8.731422280796556, 47.31414053102314], [8.73325220770232, 47.31295442980948], [8.733240614771802, 47.312946157477725], [8.731410687893808, 47.314132258508074]]]}}, {"type": "Feature", "properties": {"name": "Spannweid 42"}, "geometry": {"type": "Polygon", "coordinates": [[[8.731429244952768, 47.31414223235474], [8.731440837860596, 47.314150504867946], [8.73327070475853, 47.312964442211964], [8.733259111822933, 47.312956169882085], [8.731429244952768, 47.31414223235474]]]}}, {"type": "Feature", "properties": {"name": "Spannweid 43"}, "geometry": {"type": "Polygon", "coordinates": [[[8.731447802018725, 47.314152206198415], [8.73145939493163, 47.31416047870973], [8.733289201821739, 47.312974454611435], [8.733277608881064, 47.31296618228344], [8.731447802018725, 47.314152206198415]]]}}, {"type": "Feature", "properties": {"name": "Spannweid 44"}, "geometry": {"type": "Polygon", "coordinates": [[[8.731466359091668, 47.31416218003908], [8.731477952009653, 47.31417045254852], [8.73330769889194, 47.312984467007944], [8.733296105946188, 47.312976194681816], [8.731466359091668, 47.31416218003908]]]}}, {"type": "Feature", "properties": {"name": "Spannweid 45"}, "geometry": {"type": "Polygon", "coordinates": [[[8.7314849161716, 47.314172153876726], [8.731496509094663, 47.31418042638429], [8.733326195969134, 47.31299447940145], [8.733314603018304, 47.3129862070772], [8.7314849161716, 47.314172153876726]]]}}, {"type": "Feature", "properties": {"name": "Spannweid 46"}, "geometry": {"type": "Polygon", "coordinates": [[[8.731503473258517, 47.314182127711376], [8.73151506618666, 47.31419040021705], [8.733344693053317, 47.31300449179198], [8.73333310009741, 47.3129962194696], [8.731503473258517, 47.314182127711376]]]}}, {"type": "Feature", "properties": {"name": "Spannweid 47"}, "geometry": {"type": "Polygon", "coordinates": [[[8.73152203035242, 47.31419210154303], [8.73153362328564, 47.314200374046806], [8.733363190144486, 47.31301450417951], [8.733351597183503, 47.313006231859006], [8.73152203035242, 47.31419210154303]]]}}, {"type": "Feature", "properties": {"name": "Spannweid 48"}, "geometry": {"type": "Polygon", "coordinates": [[[8.73154058745332, 47.31420207537164], [8.731552180391619, 47.314210347873555], [8.733381687242659, 47.31302451656404], [8.733370094276596, 47.313016244245425], [8.73154058745332, 47.31420207537164]]]}}, {"type": "Feature", "properties": {"name": "Spannweid 49"}, "geometry": {"type": "Polygon", "coordinates": [[[8.731559144561203, 47.314212049197266], [8.731570737504581, 47.31422032169729], [8.73340018434782, 47.3130345289456], [8.733388591376682, 47.31302625662886], [8.731559144561203, 47.314212049197266]]]}}, {"type": "Feature", "properties": {"name": "Spannweid 50"}, "geometry": {"type": "Polygon", "coordinates": [[[8.73157770167607, 47.31422202301987], [8.731589294624527, 47.31423029551802], [8.733418681459968, 47.31304454132416], [8.73340708848375, 47.313036269009295], [8.73157770167607, 47.31422202301987]]]}}, {"type": "Feature", "properties": {"name": "Spannweid 51"}, "geometry": {"type": "Polygon", "coordinates": [[[8.731596258797932, 47.31423199683948], [8.731607851751468, 47.31424026933574], [8.733437178579111, 47.31305455369975], [8.733425585597818, 47.31304628138675], [8.731596258797932, 47.31423199683948]]]}}, {"type": "Feature", "properties": {"name": "Spannweid 52"}, "geometry": {"type": "Polygon", "coordinates": [[[8.731614815926777, 47.314241970656084], [8.731626408885392, 47.31425024315047], [8.733455675705246, 47.313064566072335], [8.733444082718876, 47.3130562937612], [8.731614815926777, 47.314241970656084]]]}}, {"type": "Feature", "properties": {"name": "Spannweid 53"}, "geometry": {"type": "Polygon", "coordinates": [[[8.731633373062616, 47.31425194446965], [8.731644966026309, 47.314260216962175], [8.733474172838376, 47.31307457844193], [8.733462579846925, 47.31306630613268], [8.731633373062616, 47.31425194446965]]]}}, {"type": "Feature", "properties": {"name": "Spannweid 54"}, "geometry": {"type": "Polygon", "coordinates": [[[8.731651930205437, 47.31426191828026], [8.731663523174209, 47.31427019077088], [8.733492674953704, 47.31308458758363], [8.733481081957176, 47.31307631527627], [8.731651930205437, 47.31426191828026]]]}}, {"type": "Feature", "properties": {"name": "Spannweid 55"}, "geometry": {"type": "Polygon", "coordinates": [[[8.731670487355254, 47.31427189208783], [8.731682080329104, 47.31428016457656], [8.73351117916631, 47.31309459536745], [8.733499586164704, 47.31308632306195], [8.731670487355254, 47.31427189208783]]]}}, {"type": "Feature", "properties": {"name": "Spannweid 56"}, "geometry": {"type": "Polygon", "coordinates": [[[8.731689044512057, 47.31428186589239], [8.731700637490986, 47.31429013837924], [8.733529683385905, 47.31310460314827], [8.733518090379222, 47.31309633084466], [8.731689044512057, 47.31428186589239]]]}}, {"type": "Feature", "properties": {"name": "Spannweid 57"}, "geometry": {"type": "Polygon", "coordinates": [[[8.731707601675845, 47.31429183969395], [8.731719194659851, 47.31430011217893], [8.73354818761249, 47.31311461092609], [8.733536594600729, 47.31310633862435], [8.731707601675845, 47.31429183969395]]]}}, {"type": "Feature", "properties": {"name": "Spannweid 58"}, "geometry": {"type": "Polygon", "coordinates": [[[8.731726158846621, 47.3143018134925], [8.731737751835709, 47.31431008597559], [8.733566691846066, 47.31312461870095], [8.73355509882923, 47.313116346401074], [8.731726158846621, 47.3143018134925]]]}}, {"type": "Feature", "properties": {"name": "Spannweid 59"}, "geometry": {"type": "Polygon", "coordinates": [[[8.731744716024386, 47.31431178728803], [8.731756309018552, 47.31432005976926], [8.733585196086633, 47.313134626472774], [8.73357360306472, 47.3131263541748], [8.731744716024386, 47.31431178728803]]]}}, {"type": "Feature", "properties": {"name": "Spannweid 60"}, "geometry": {"type": "Polygon", "coordinates": [[[8.731763273209136, 47.31432176108057], [8.731774866208381, 47.3143300335599], [8.733603700334191, 47.31314463424165], [8.7335921073072, 47.31313636194554], [8.731763273209136, 47.31432176108057]]]}}, {"type": "Feature", "properties": {"name": "Spannweid 61"}, "geometry": {"type": "Polygon", "coordinates": [[[8.73178183040088, 47.31433173487009], [8.731793423405204, 47.31434000734754], [8.733622204588745, 47.313154642007504], [8.733610611556674, 47.31314636971326], [8.73178183040088, 47.31433173487009]]]}}, {"type": "Feature", "properties": {"name": "Spannweid 62"}, "geometry": {"type": "Polygon", "coordinates": [[[8.731800387599609, 47.3143417086566], [8.73181198060901, 47.314349981132175], [8.733640708850285, 47.31316464977037], [8.733629115813137, 47.313156377478016], [8.731800387599609, 47.3143417086566]]]}}, {"type": "Feature", "properties": {"name": "Spannweid 63"}, "geometry": {"type": "Polygon", "coordinates": [[[8.731818944805326, 47.314351682440105], [8.731830537819807, 47.3143599549138], [8.733659213118816, 47.31317465753026], [8.733647620076594, 47.31316638523977], [8.731818944805326, 47.314351682440105]]]}}, {"type": "Feature", "properties": {"name": "Spannweid 64"}, "geometry": {"type": "Polygon", "coordinates": [[[8.731837502018035, 47.31436165622061], [8.731849095037596, 47.314369928692415], [8.733677717394349, 47.313184665287146], [8.733666124347046, 47.313176392998535], [8.731837502018035, 47.31436165622061]]]}}, {"type": "Feature", "properties": {"name": "Spannweid 65"}, "geometry": {"type": "Polygon", "coordinates": [[[8.731856059237726, 47.31437162999809], [8.731867652262363, 47.31437990246802], [8.733696221676862, 47.31319467304104], [8.733684628624482, 47.31318640075431], [8.731856059237726, 47.31437162999809]]]}}, {"type": "Feature", "properties": {"name": "Spannweid 66"}, "geometry": {"type": "Polygon", "coordinates": [[[8.731874616464406, 47.31438160377259], [8.731886209494125, 47.314389876240625], [8.733714725966369, 47.313204680791955], [8.733703132908913, 47.31319640850709], [8.731874616464406, 47.31438160377259]]]}}, {"type": "Feature", "properties": {"name": "Spannweid 67"}, "geometry": {"type": "Polygon", "coordinates": [[[8.731893173698083, 47.31439157754406], [8.731904766732878, 47.314399850010226], [8.733733230262875, 47.31321468853988], [8.73372163720034, 47.313206416256904], [8.731893173698083, 47.31439157754406]]]}}, {"type": "Feature", "properties": {"name": "Spannweid 68"}, "geometry": {"type": "Polygon", "coordinates": [[[8.731911730938739, 47.31440155131252], [8.731923323978615, 47.314409823776806], [8.733751734566367, 47.3132246962848], [8.733740141498751, 47.3132164240037], [8.731911730938739, 47.31440155131252]]]}}, {"type": "Feature", "properties": {"name": "Spannweid 69"}, "geometry": {"type": "Polygon", "coordinates": [[[8.731930288186392, 47.314411525077986], [8.731941881231347, 47.31441979754038], [8.733770238876854, 47.31323470402673], [8.733758645804164, 47.3132264317475], [8.731930288186392, 47.314411525077986]]]}}, {"type": "Feature", "properties": {"name": "Spannweid 70"}, "geometry": {"type": "Polygon", "coordinates": [[[8.731948845441025, 47.31442149884044], [8.731960438491058, 47.31442977130095], [8.733788743194328, 47.31324471176567], [8.73377715011656, 47.313236439488335], [8.731948845441025, 47.31442149884044]]]}}, {"type": "Feature", "properties": {"name": "Spannweid 71"}, "geometry": {"type": "Polygon", "coordinates": [[[8.731967402702644, 47.314431472599864], [8.731978995757755, 47.3144397450585], [8.733807247518788, 47.313254719501636], [8.733795654435943, 47.313246447226156], [8.731967402702644, 47.314431472599864]]]}}, {"type": "Feature", "properties": {"name": "Spannweid 72"}, "geometry": {"type": "Polygon", "coordinates": [[[8.731985959971267, 47.3144414463563], [8.731997553031455, 47.31444971881306], [8.733825751850256, 47.313264727234596], [8.733814158762334, 47.31325645496099], [8.731985959971267, 47.3144414463563]]]}}, {"type": "Feature", "properties": {"name": "Spannweid 73"}, "geometry": {"type": "Polygon", "coordinates": [[[8.732008635563432, 47.31444875081495], [8.732020228628762, 47.314457023269405], [8.733844256188698, 47.313274734964565], [8.733832663095697, 47.31326646269283], [8.732008635563432, 47.31444875081495]]]}}, {"type": "Feature", "properties": {"name": "Spannweid 74"}, "geometry": {"type": "Polygon", "coordinates": [[[8.73203827677487, 47.31445154049069], [8.732049869845449, 47.314459812942175], [8.733862760534139, 47.313284742691536], [8.73385116743606, 47.31327647042169], [8.73203827677487, 47.31445154049069]]]}}, {"type": "Feature", "properties": {"name": "Spannweid 75"}, "geometry": {"type": "Polygon", "coordinates": [[[8.732067917989466, 47.314454330158796], [8.732079511065292, 47.314462602607286], [8.733881264886575, 47.31329475041552], [8.733869671783419, 47.31328647814754], [8.732067917989466, 47.314454330158796]]]}}, {"type": "Feature", "properties": {"name": "Spannweid 76"}, "geometry": {"type": "Polygon", "coordinates": [[[8.732115624530755, 47.31444541071529], [8.732127217612101, 47.314453683158966], [8.733899769246, 47.313304758136525], [8.733888176137766, 47.31329648587042], [8.732115624530755, 47.31444541071529]]]}}, {"type": "Feature", "properties": {"name": "Spannweid 77"}, "geometry": {"type": "Polygon", "coordinates": [[[8.732173748469226, 47.31442973915527], [8.732185341556253, 47.31443801159311], [8.733918273612426, 47.31331476585453], [8.733906680499114, 47.31330649359031], [8.732173748469226, 47.31442973915527]]]}}, {"type": "Feature", "properties": {"name": "Spannweid 78"}, "geometry": {"type": "Polygon", "coordinates": [[[8.732231872373381, 47.31441406756567], [8.732243465466087, 47.31442233999766], [8.733936777985825, 47.31332477356953], [8.733925184867438, 47.31331650130719], [8.732231872373381, 47.31441406756567]]]}}, {"type": "Feature", "properties": {"name": "Spannweid 79"}, "geometry": {"type": "Polygon", "coordinates": [[[8.732289996243308, 47.314398395946476], [8.732301589341692, 47.31440666837263], [8.733955282366228, 47.31333478128156], [8.73394368924276, 47.313326509021095], [8.732289996243308, 47.314398395946476]]]}}, {"type": "Feature", "properties": {"name": "Spannweid 80"}, "geometry": {"type": "Polygon", "coordinates": [[[8.732348120078978, 47.31438272429771], [8.732359713183042, 47.314390996718004], [8.733973786753626, 47.31334478899059], [8.73396219362508, 47.313336516731994], [8.732348120078978, 47.31438272429771]]]}}, {"type": "Feature", "properties": {"name": "Spannweid 81"}, "geometry": {"type": "Polygon", "coordinates": [[[8.732406243880359, 47.31436705261933], [8.7324178369901, 47.31437532503379], [8.733992291148, 47.31335479669663], [8.73398069801438, 47.313346524439915], [8.732406243880359, 47.31436705261933]]]}}, {"type": "Feature", "properties": {"name": "Spannweid 82"}, "geometry": {"type": "Polygon", "coordinates": [[[8.732464367647454, 47.31435138091138], [8.732475960762876, 47.314359653320004], [8.734010795549366, 47.31336480439966], [8.733999202410667, 47.313356532144816], [8.732464367647454, 47.31435138091138]]]}}, {"type": "Feature", "properties": {"name": "Spannweid 83"}, "geometry": {"type": "Polygon", "coordinates": [[[8.732522491380367, 47.314335709173825], [8.732534084501468, 47.31434398157659], [8.734029299957744, 47.313374812099724], [8.734017706813965, 47.31336653984677], [8.732522491380367, 47.314335709173825]]]}}, {"type": "Feature", "properties": {"name": "Spannweid 84"}, "geometry": {"type": "Polygon", "coordinates": [[[8.732580615078996, 47.31432003740669], [8.732592208205777, 47.314328309803614], [8.734047804373107, 47.31338481979679], [8.73403621122425, 47.31337654754571], [8.732580615078996, 47.31432003740669]]]}}, {"type": "Feature", "properties": {"name": "Spannweid 85"}, "geometry": {"type": "Polygon", "coordinates": [[[8.732638738743338, 47.31430436560997], [8.732650331875798, 47.31431263800105], [8.734066308795454, 47.31339482749086], [8.734054715641522, 47.313386555241664], [8.732638738743338, 47.31430436560997]]]}}, {"type": "Feature", "properties": {"name": "Spannweid 86"}, "geometry": {"type": "Polygon", "coordinates": [[[8.73269686237339, 47.31428869378369], [8.732708455511528, 47.314296966168904], [8.734084813224783, 47.31340483518194], [8.734073220065772, 47.313396562934614], [8.73269686237339, 47.31428869378369]]]}}, {"type": "Feature", "properties": {"name": "Spannweid 87"}, "geometry": {"type": "Polygon", "coordinates": [[[8.732754985969231, 47.31427302192777], [8.73276657911305, 47.31428129430714], [8.734103317661122, 47.31341484287004], [8.734091724497032, 47.31340657062458], [8.732754985969231, 47.31427302192777]]]}}, {"type": "Feature", "properties": {"name": "Spannweid 88"}, "geometry": {"type": "Polygon", "coordinates": [[[8.732807664598457, 47.314260879271416], [8.732819257747872, 47.3142691516455], [8.73412182210445, 47.31342485055513], [8.734110228935284, 47.31341657831155], [8.732807664598457, 47.314260879271416]]]}}, {"type": "Feature", "properties": {"name": "Spannweid 89"}, "geometry": {"type": "Polygon", "coordinates": [[[8.732855157222243, 47.314252097980926], [8.732866750377175, 47.314260370350226], [8.734140326554769, 47.313434858237244], [8.734128733380526, 47.31342658599554], [8.732855157222243, 47.314252097980926]]]}}, {"type": "Feature", "properties": {"name": "Spannweid 90"}, "geometry": {"type": "Polygon", "coordinates": [[[8.732902649830324, 47.31424331667071], [8.732914242990773, 47.31425158903523], [8.734158831012062, 47.31344486591636], [8.73414723783274, 47.31343659367652], [8.732902649830324, 47.31424331667071]]]}}, {"type": "Feature", "properties": {"name": "Spannweid 91"}, "geometry": {"type": "Polygon", "coordinates": [[[8.732950142422805, 47.314234535340766], [8.732961735588772, 47.3142428077005], [8.734177335476366, 47.31345487359248], [8.734165742291967, 47.31344660135452], [8.732950142422805, 47.314234535340766]]]}}, {"type": "Feature", "properties": {"name": "Spannweid 92"}, "geometry": {"type": "Polygon", "coordinates": [[[8.732997634999633, 47.3142257539911], [8.733009228171118, 47.31423402634606], [8.734195839947665, 47.313464881265624], [8.73418424675819, 47.31345660902955], [8.732997634999633, 47.3142257539911]]]}}, {"type": "Feature", "properties": {"name": "Spannweid 93"}, "geometry": {"type": "Polygon", "coordinates": [[[8.733045127560787, 47.314216972621715], [8.733056720737789, 47.31422524497189], [8.73421434442595, 47.313474888935765], [8.734202751231397, 47.31346661670156], [8.733045127560787, 47.314216972621715]]]}}, {"type": "Feature", "properties": {"name": "Spannweid 94"}, "geometry": {"type": "Polygon", "coordinates": [[[8.733092620106248, 47.3142081912326], [8.733104213288769, 47.314216463577985], [8.734232848911214, 47.313484896602894], [8.734221255711581, 47.31347662437057], [8.733092620106248, 47.3142081912326]]]}}, {"type": "Feature", "properties": {"name": "Spannweid 95"}, "geometry": {"type": "Polygon", "coordinates": [[[8.7331401126361, 47.31419940982376], [8.733151705824138, 47.314207682164366], [8.734251353403485, 47.31349490426707], [8.734239760198776, 47.31348663203663], [8.7331401126361, 47.31419940982376]]]}}, {"type": "Feature", "properties": {"name": "Spannweid 96"}, "geometry": {"type": "Polygon", "coordinates": [[[8.733187605150285, 47.314190628395174], [8.733199198343838, 47.314198900731014], [8.734269857902742, 47.31350491192824], [8.734258264692956, 47.31349663969966], [8.733187605150285, 47.314190628395174]]]}}, {"type": "Feature", "properties": {"name": "Spannweid 97"}, "geometry": {"type": "Polygon", "coordinates": [[[8.733235097648803, 47.31418184694688], [8.733246690847876, 47.314190119277946], [8.734288362408991, 47.31351491958641], [8.734276769194127, 47.31350664735971], [8.733235097648803, 47.31418184694688]]]}}, {"type": "Feature", "properties": {"name": "Spannweid 98"}, "geometry": {"type": "Polygon", "coordinates": [[[8.733282590131644, 47.314173065478876], [8.733294183336234, 47.31418133780515], [8.734306866922225, 47.313524927241595], [8.734295273702282, 47.313516655016784], [8.733282590131644, 47.314173065478876]]]}}, {"type": "Feature", "properties": {"name": "Spannweid 99"}, "geometry": {"type": "Polygon", "coordinates": [[[8.733330082598856, 47.31416428399114], [8.733341675808964, 47.31417255631264], [8.73432537144246, 47.31353493489378], [8.734313778217437, 47.31352666267085], [8.733330082598856, 47.31416428399114]]]}}, {"type": "Feature", "properties": {"name": "Spannweid 100"}, "geometry": {"type": "Polygon", "coordinates": [[[8.73337757505042, 47.31415550248367], [8.733389168266044, 47.314163774800384], [8.734343875969689, 47.31354494254299], [8.73433228273959, 47.31353667032192], [8.73337757505042, 47.31415550248367]]]}}, {"type": "Feature", "properties": {"name": "Spannweid 101"}, "geometry": {"type": "Polygon", "coordinates": [[[8.733425067486326, 47.31414672095647], [8.733436660707468, 47.31415499326842], [8.734362380503908, 47.31355495018921], [8.734350787268731, 47.31354667797002], [8.733425067486326, 47.31414672095647]]]}}, {"type": "Feature", "properties": {"name": "Spannweid 102"}, "geometry": {"type": "Polygon", "coordinates": [[[8.73347255990654, 47.31413793940957], [8.733484153133201, 47.31414621171672], [8.734380885045107, 47.313564957832426], [8.734369291804855, 47.313556685615104], [8.73347255990654, 47.31413793940957]]]}}, {"type": "Feature", "properties": {"name": "Spannweid 103"}, "geometry": {"type": "Polygon", "coordinates": [[[8.73352005231113, 47.31412915784293], [8.733531645543309, 47.314137430145294], [8.734399389593314, 47.313574965472654], [8.734387796347981, 47.313566693257215], [8.73352005231113, 47.31412915784293]]]}}, {"type": "Feature", "properties": {"name": "Spannweid 104"}, "geometry": {"type": "Polygon", "coordinates": [[[8.733567544700046, 47.314120376256554], [8.733579137937742, 47.31412864855415], [8.734417894148502, 47.31358497310988], [8.734406300898094, 47.31357670089633], [8.733567544700046, 47.314120376256554]]]}}, {"type": "Feature", "properties": {"name": "Spannweid 105"}, "geometry": {"type": "Polygon", "coordinates": [[[8.733615037073333, 47.31411159465047], [8.733626630316547, 47.31411986694327], [8.734436398710693, 47.31359498074415], [8.734424805455207, 47.31358670853245], [8.733615037073333, 47.31411159465047]]]}}, {"type": "Feature", "properties": {"name": "Spannweid 106"}, "geometry": {"type": "Polygon", "coordinates": [[[8.7336625294309, 47.314102813024654], [8.73367412267963, 47.31411108531269], [8.734454903279852, 47.31360498837538], [8.734443310019289, 47.31359671616558], [8.7336625294309, 47.314102813024654]]]}}, {"type": "Feature", "properties": {"name": "Spannweid 107"}, "geometry": {"type": "Polygon", "coordinates": [[[8.733719019569289, 47.31408819914412], [8.73373061282367, 47.31409647142647], [8.734473407395082, 47.31361499630244], [8.73446181412944, 47.3136067240945], [8.733719019569289, 47.31408819914412]]]}}, {"type": "Feature", "properties": {"name": "Spannweid 108"}, "geometry": {"type": "Polygon", "coordinates": [[[8.733787170651507, 47.314066026752734], [8.733798763911718, 47.314074299028235], [8.734491910841927, 47.313625004664274], [8.734480317571206, 47.313616732458215], [8.733787170651507, 47.314066026752734]]]}}, {"type": "Feature", "properties": {"name": "Spannweid 109"}, "geometry": {"type": "Polygon", "coordinates": [[[8.733855321676856, 47.31404385432063], [8.733866914942901, 47.31405212658927], [8.734510414295766, 47.313635013023124], [8.734498821019969, 47.31362674081894], [8.733855321676856, 47.31404385432063]]]}}, {"type": "Feature", "properties": {"name": "Spannweid 110"}, "geometry": {"type": "Polygon", "coordinates": [[[8.733977895603006, 47.31398640544024], [8.733989488875705, 47.31399467769658], [8.734514565314603, 47.31365432468546], [8.734502972033946, 47.31364605248173], [8.733977895603006, 47.31398640544024]]]}}]}