{"type": "FeatureCollection", "features": [{"type": "Feature", "properties": {"name": "SaumHeiri 01"}, "geometry": {"type": "Polygon", "coordinates": [[[8.727291745444006, 47.31839151744767], [8.727305454059792, 47.31839812729052], [8.728619513546478, 47.31713781452992], [8.728605805091416, 47.31713120484311], [8.727291745444006, 47.31839151744767]]]}}, {"type": "Feature", "properties": {"name": "SaumHeiri 02"}, "geometry": {"type": "Polygon", "coordinates": [[[8.727311908303276, 47.31839971570971], [8.727325616923704, 47.31840632555015], [8.728639417418322, 47.317146260703005], [8.728625708958585, 47.31713965101859], [8.727311908303276, 47.31839971570971]]]}}, {"type": "Feature", "properties": {"name": "SaumHeiri 03"}, "geometry": {"type": "Polygon", "coordinates": [[[8.727332071168798, 47.3184079139682], [8.727345779793865, 47.318414523806226], [8.728659321296517, 47.31715470687263], [8.728645612832109, 47.31714809719058], [8.727332071168798, 47.3184079139682]]]}}, {"type": "Feature", "properties": {"name": "SaumHeiri 04"}, "geometry": {"type": "Polygon", "coordinates": [[[8.727352234040577, 47.31841611222315], [8.727365942670286, 47.31842272205876], [8.728679225181077, 47.31716315303881], [8.728665516711997, 47.31715654335913], [8.727352234040577, 47.31841611222315]]]}}, {"type": "Feature", "properties": {"name": "SaumHeiri 05"}, "geometry": {"type": "Polygon", "coordinates": [[[8.727372396918595, 47.318424310474555], [8.727386105552945, 47.318430920307755], [8.728699129071984, 47.31717159920152], [8.72868542059823, 47.31716498952423], [8.727372396918595, 47.318424310474555]]]}}, {"type": "Feature", "properties": {"name": "SaumHeiri 06"}, "geometry": {"type": "Polygon", "coordinates": [[[8.727392559802857, 47.3184325087224], [8.727406268441849, 47.318439118553194], [8.728719032969236, 47.31718004536077], [8.728705324490809, 47.31717343568588], [8.727392559802857, 47.3184325087224]]]}}, {"type": "Feature", "properties": {"name": "SaumHeiri 07"}, "geometry": {"type": "Polygon", "coordinates": [[[8.727412722693373, 47.318440706966705], [8.727426431337005, 47.31844731679509], [8.728738936872848, 47.31718849151658], [8.72872522838975, 47.317181881844064], [8.727412722693373, 47.318440706966705]]]}}, {"type": "Feature", "properties": {"name": "SaumHeiri 08"}, "geometry": {"type": "Polygon", "coordinates": [[[8.727432885590133, 47.318448905207454], [8.727446594238407, 47.31845551503343], [8.728758840782808, 47.317196937668925], [8.728745132295039, 47.31719032799877], [8.727432885590133, 47.318448905207454]]]}}, {"type": "Feature", "properties": {"name": "SaumHeiri 09"}, "geometry": {"type": "Polygon", "coordinates": [[[8.727453048493134, 47.31845710344468], [8.727466757146049, 47.31846371326823], [8.728778744699117, 47.317205383817814], [8.728765036206674, 47.31719877415005], [8.727453048493134, 47.31845710344468]]]}}, {"type": "Feature", "properties": {"name": "SaumHeiri 10"}, "geometry": {"type": "Polygon", "coordinates": [[[8.727473211402392, 47.318465301678344], [8.72748692005995, 47.318471911499486], [8.728798648621787, 47.31721382996325], [8.72878494012467, 47.317207220297874], [8.727473211402392, 47.318465301678344]]]}}, {"type": "Feature", "properties": {"name": "SaumHeiri 11"}, "geometry": {"type": "Polygon", "coordinates": [[[8.727493374317907, 47.31847349990846], [8.727507082980106, 47.3184801097272], [8.728818552550816, 47.317222276105234], [8.728804844049028, 47.31721566644223], [8.727493374317907, 47.31847349990846]]]}}, {"type": "Feature", "properties": {"name": "SaumHeiri 12"}, "geometry": {"type": "Polygon", "coordinates": [[[8.727513537239659, 47.318481698135045], [8.727527245906497, 47.31848830795136], [8.728838456486189, 47.317230722243735], [8.728824747979727, 47.31722411258313], [8.727513537239659, 47.318481698135045]]]}}, {"type": "Feature", "properties": {"name": "SaumHeiri 13"}, "geometry": {"type": "Polygon", "coordinates": [[[8.727533700167653, 47.318489896358074], [8.727547408839134, 47.31849650617198], [8.728858360427909, 47.317239168378805], [8.728844651916777, 47.31723255872057], [8.727533700167653, 47.318489896358074]]]}}, {"type": "Feature", "properties": {"name": "SaumHeiri 14"}, "geometry": {"type": "Polygon", "coordinates": [[[8.7275538631019, 47.31849809457755], [8.727567571778021, 47.31850470438904], [8.728878264375988, 47.317247614510414], [8.728864555860183, 47.317241004854566], [8.7275538631019, 47.31849809457755]]]}}, {"type": "Feature", "properties": {"name": "SaumHeiri 15"}, "geometry": {"type": "Polygon", "coordinates": [[[8.727574026042399, 47.31850629279349], [8.72758773472316, 47.31851290260258], [8.728898168330423, 47.31725606063857], [8.728884459809944, 47.3172494509851], [8.727574026042399, 47.31850629279349]]]}}, {"type": "Feature", "properties": {"name": "SaumHeiri 16"}, "geometry": {"type": "Polygon", "coordinates": [[[8.72759418898914, 47.31851449100588], [8.727607897674543, 47.318521100812546], [8.728918072291204, 47.317264506763266], [8.728904363766054, 47.31725789711218], [8.72759418898914, 47.31851449100588]]]}}]}