{"type": "FeatureCollection", "features": [{"type": "Feature", "properties": {"name": "SchopfMoor 01"}, "geometry": {"type": "Polygon", "coordinates": [[[8.734375579609024, 47.31111111878156], [8.734387547129902, 47.3111191403083], [8.736118026878621, 47.309924886880985], [8.73610605936396, 47.309916865533275], [8.734375579609024, 47.31111111878156]]]}}, {"type": "Feature", "properties": {"name": "SchopfMoor 02"}, "geometry": {"type": "Polygon", "coordinates": [[[8.734394027964044, 47.311121077447524], [8.734405995489963, 47.31112909897233], [8.736136449769907, 47.30993486278471], [8.736124482250206, 47.30992684143892], [8.734394027964044, 47.311121077447524]]]}}, {"type": "Feature", "properties": {"name": "SchopfMoor 03"}, "geometry": {"type": "Polygon", "coordinates": [[[8.73441247632598, 47.311131036110496], [8.73442444385694, 47.31113905763338], [8.736154872668113, 47.30994483868543], [8.736142905143371, 47.30993681734159], [8.73441247632598, 47.311131036110496]]]}}, {"type": "Feature", "properties": {"name": "SchopfMoor 04"}, "geometry": {"type": "Polygon", "coordinates": [[[8.734430924054147, 47.31114099521267], [8.734442891590149, 47.31114901673361], [8.736173295150271, 47.309954814875134], [8.736161327620488, 47.309946793533214], [8.734430924054147, 47.31114099521267]]]}}, {"type": "Feature", "properties": {"name": "SchopfMoor 05"}, "geometry": {"type": "Polygon", "coordinates": [[[8.73444937135887, 47.311150954608856], [8.734461338899914, 47.31115897612787], [8.736191717002018, 47.30996479150174], [8.736179749467192, 47.30995677016175], [8.73444937135887, 47.311150954608856]]]}}, {"type": "Feature", "properties": {"name": "SchopfMoor 06"}, "geometry": {"type": "Polygon", "coordinates": [[[8.734467818670522, 47.31116091400208], [8.734479786216605, 47.31116893551916], [8.736210138860693, 47.30997476812538], [8.73619817132083, 47.3099667467873], [8.734467818670522, 47.31116091400208]]]}}, {"type": "Feature", "properties": {"name": "SchopfMoor 07"}, "geometry": {"type": "Polygon", "coordinates": [[[8.734486261603044, 47.31117087641919], [8.734498229154168, 47.31117889793435], [8.736228564562404, 47.309984742098564], [8.7362165970175, 47.309976720762435], [8.734486261603044, 47.31117087641919]]]}}, {"type": "Feature", "properties": {"name": "SchopfMoor 08"}, "geometry": {"type": "Polygon", "coordinates": [[[8.73450470786101, 47.3111808365432], [8.734516675417177, 47.311188858056425], [8.736246989418143, 47.30999471665743], [8.736235021868197, 47.309986695323225], [8.73450470786101, 47.3111808365432]]]}}, {"type": "Feature", "properties": {"name": "SchopfMoor 09"}, "geometry": {"type": "Polygon", "coordinates": [[[8.734523154125903, 47.311190796664256], [8.734535121687111, 47.311198818175534], [8.736265413117835, 47.310004692015944], [8.736253445562847, 47.30999667068366], [8.734523154125903, 47.311190796664256]]]}}, {"type": "Feature", "properties": {"name": "SchopfMoor 10"}, "geometry": {"type": "Polygon", "coordinates": [[[8.734541600397737, 47.31120075678233], [8.734553567963987, 47.31120877829169], [8.736283836824466, 47.31001466737152], [8.736271869264437, 47.310006646041174], [8.734541600397737, 47.31120075678233]]]}}, {"type": "Feature", "properties": {"name": "SchopfMoor 11"}, "geometry": {"type": "Polygon", "coordinates": [[[8.734560046695014, 47.31121071688464], [8.734572014266305, 47.31121873839208], [8.736302260538029, 47.310024642724116], [8.736290292972958, 47.310016621395704], [8.734560046695014, 47.31121071688464]]]}}, {"type": "Feature", "properties": {"name": "SchopfMoor 12"}, "geometry": {"type": "Polygon", "coordinates": [[[8.734578493936707, 47.31122067633702], [8.73459046151304, 47.31122869784254], [8.736320684258537, 47.31003461807375], [8.736308716688427, 47.310026596747264], [8.734578493936707, 47.31122067633702]]]}}, {"type": "Feature", "properties": {"name": "SchopfMoor 13"}, "geometry": {"type": "Polygon", "coordinates": [[[8.734596941185332, 47.31123063578645], [8.734608908766706, 47.31123865729003], [8.73633910812702, 47.310044593323084], [8.736327140551868, 47.310036571998516], [8.734596941185332, 47.31123063578645]]]}}, {"type": "Feature", "properties": {"name": "SchopfMoor 14"}, "geometry": {"type": "Polygon", "coordinates": [[[8.734615388440904, 47.31124059523291], [8.73462735602732, 47.311248616734545], [8.73635753202546, 47.310054568553575], [8.736345564445267, 47.31004654723093], [8.734615388440904, 47.31124059523291]]]}}, {"type": "Feature", "properties": {"name": "SchopfMoor 15"}, "geometry": {"type": "Polygon", "coordinates": [[[8.734633835703391, 47.31125055467638], [8.734645803294848, 47.311258576176094], [8.73637595593082, 47.310064543781074], [8.736363988345584, 47.31005652246038], [8.734633835703391, 47.31125055467638]]]}}, {"type": "Feature", "properties": {"name": "SchopfMoor 16"}, "geometry": {"type": "Polygon", "coordinates": [[[8.734652282972831, 47.31126051411687], [8.73466425056933, 47.31126853561465], [8.736394379843132, 47.310074519005646], [8.736382412252855, 47.310066497686854], [8.734652282972831, 47.31126051411687]]]}}, {"type": "Feature", "properties": {"name": "SchopfMoor 17"}, "geometry": {"type": "Polygon", "coordinates": [[[8.734670730249189, 47.311270473554394], [8.73468269785073, 47.31127849505026], [8.736412803762365, 47.310084494227226], [8.736400836167048, 47.31007647291037], [8.734670730249189, 47.311270473554394]]]}}, {"type": "Feature", "properties": {"name": "SchopfMoor 18"}, "geometry": {"type": "Polygon", "coordinates": [[[8.734689177532502, 47.311280432988966], [8.734701145139082, 47.311288454482884], [8.736431227688554, 47.31009446944584], [8.736419260088194, 47.31008644813091], [8.734689177532502, 47.311280432988966]]]}}, {"type": "Feature", "properties": {"name": "SchopfMoor 19"}, "geometry": {"type": "Polygon", "coordinates": [[[8.734707624822747, 47.311290392420545], [8.73471959243437, 47.31129841391253], [8.736449651621676, 47.3101044446615], [8.736437684016279, 47.310096423348504], [8.734707624822747, 47.311290392420545]]]}}, {"type": "Feature", "properties": {"name": "SchopfMoor 20"}, "geometry": {"type": "Polygon", "coordinates": [[[8.734726072119914, 47.31130035184915], [8.734738039736579, 47.311308373339216], [8.736468075561724, 47.31011441987418], [8.736456107951286, 47.310106398563114], [8.734726072119914, 47.31130035184915]]]}}, {"type": "Feature", "properties": {"name": "SchopfMoor 21"}, "geometry": {"type": "Polygon", "coordinates": [[[8.73474451942403, 47.311310311274795], [8.734756487045734, 47.31131833276293], [8.736486499508722, 47.31012439508391], [8.736474531893242, 47.310116373774775], [8.73474451942403, 47.311310311274795]]]}}, {"type": "Feature", "properties": {"name": "SchopfMoor 22"}, "geometry": {"type": "Polygon", "coordinates": [[[8.734762966735087, 47.31132027069746], [8.734774934361832, 47.31132829218365], [8.736504923462661, 47.310134370290676], [8.73649295584214, 47.31012634898346], [8.734762966735087, 47.31132027069746]]]}}, {"type": "Feature", "properties": {"name": "SchopfMoor 23"}, "geometry": {"type": "Polygon", "coordinates": [[[8.73478141405306, 47.31133023011715], [8.734793381684847, 47.31133825160142], [8.736523347423523, 47.310144345494464], [8.736511379797959, 47.31013632418917], [8.73478141405306, 47.31133023011715]]]}}, {"type": "Feature", "properties": {"name": "SchopfMoor 24"}, "geometry": {"type": "Polygon", "coordinates": [[[8.734799861377988, 47.31134018953386], [8.734811829014816, 47.311348211016195], [8.736541771391337, 47.31015432069529], [8.736529803760734, 47.31014629939193], [8.734799861377988, 47.31134018953386]]]}}, {"type": "Feature", "properties": {"name": "SchopfMoor 25"}, "geometry": {"type": "Polygon", "coordinates": [[[8.73481830870984, 47.31135014894761], [8.73483027635171, 47.31135817042801], [8.736560195366078, 47.31016429589315], [8.736548227730433, 47.310156274591726], [8.73481830870984, 47.31135014894761]]]}}, {"type": "Feature", "properties": {"name": "SchopfMoor 26"}, "geometry": {"type": "Polygon", "coordinates": [[[8.734836756048637, 47.31136010835837], [8.73484872369555, 47.31136812983686], [8.736578619347767, 47.31017427108806], [8.736566651707081, 47.31016624978855], [8.734836756048637, 47.31136010835837]]]}}, {"type": "Feature", "properties": {"name": "SchopfMoor 27"}, "geometry": {"type": "Polygon", "coordinates": [[[8.734855203394366, 47.311370067766184], [8.73486717104632, 47.31137808924272], [8.736597043336388, 47.31018424627999], [8.73658507569066, 47.31017622498241], [8.734855203394366, 47.311370067766184]]]}}, {"type": "Feature", "properties": {"name": "SchopfMoor 28"}, "geometry": {"type": "Polygon", "coordinates": [[[8.734873650747026, 47.31138002717101], [8.734885618404022, 47.311388048645625], [8.736615467331946, 47.31019422146895], [8.736603499681177, 47.310186200173305], [8.734873650747026, 47.31138002717101]]]}}, {"type": "Feature", "properties": {"name": "SchopfMoor 29"}, "geometry": {"type": "Polygon", "coordinates": [[[8.734892098106636, 47.31138998657286], [8.734904065768673, 47.31139800804555], [8.73663389133445, 47.31020419665495], [8.736621923678639, 47.31019617536123], [8.734892098106636, 47.31138998657286]]]}}, {"type": "Feature", "properties": {"name": "SchopfMoor 30"}, "geometry": {"type": "Polygon", "coordinates": [[[8.734910545473165, 47.311399945971736], [8.734922513140242, 47.3114079674425], [8.736652315343878, 47.310214171837984], [8.736640347683027, 47.31020615054619], [8.734910545473165, 47.311399945971736]]]}}, {"type": "Feature", "properties": {"name": "SchopfMoor 31"}, "geometry": {"type": "Polygon", "coordinates": [[[8.73492899284664, 47.311409905367654], [8.73494096051876, 47.31141792683647], [8.736670739360253, 47.310224147018054], [8.73665877169436, 47.31021612572818], [8.73492899284664, 47.311409905367654]]]}}, {"type": "Feature", "properties": {"name": "SchopfMoor 32"}, "geometry": {"type": "Polygon", "coordinates": [[[8.734947440227051, 47.31141986476058], [8.734959407904213, 47.31142788622749], [8.736689163383566, 47.310234122195155], [8.736677195712634, 47.31022610090722], [8.734947440227051, 47.31141986476058]]]}}, {"type": "Feature", "properties": {"name": "SchopfMoor 33"}, "geometry": {"type": "Polygon", "coordinates": [[[8.73496588761439, 47.31142982415055], [8.734977855296592, 47.31143784561551], [8.73670758741381, 47.310244097369285], [8.736695619737835, 47.31023607608328], [8.73496588761439, 47.31142982415055]]]}}, {"type": "Feature", "properties": {"name": "SchopfMoor 34"}, "geometry": {"type": "Polygon", "coordinates": [[[8.73498433500867, 47.31143978353752], [8.734996302695913, 47.31144780500056], [8.736726011450996, 47.31025407254045], [8.736714043769979, 47.310246051256385], [8.73498433500867, 47.31143978353752]]]}}, {"type": "Feature", "properties": {"name": "SchopfMoor 35"}, "geometry": {"type": "Polygon", "coordinates": [[[8.735002782127506, 47.311449743116434], [8.73501474981979, 47.311457764577526], [8.736744435495124, 47.310264047708664], [8.736732467809066, 47.310256026426515], [8.735002782127506, 47.311449743116434]]]}}, {"type": "Feature", "properties": {"name": "SchopfMoor 36"}, "geometry": {"type": "Polygon", "coordinates": [[[8.735021229208389, 47.311459702723326], [8.735033196905716, 47.311467724182485], [8.736762859546184, 47.31027402287389], [8.736750891855085, 47.31026600159368], [8.735021229208389, 47.311459702723326]]]}}, {"type": "Feature", "properties": {"name": "SchopfMoor 37"}, "geometry": {"type": "Polygon", "coordinates": [[[8.735039676296205, 47.31146966232724], [8.735051643998572, 47.31147768378449], [8.736781283604175, 47.31028399803618], [8.736769315908036, 47.310275976757886], [8.735039676296205, 47.31146966232724]]]}}, {"type": "Feature", "properties": {"name": "SchopfMoor 38"}, "geometry": {"type": "Polygon", "coordinates": [[[8.735058123390976, 47.311479621928186], [8.735070091098386, 47.3114876433835], [8.736799707457283, 47.31029397334169], [8.736787739756103, 47.31028595206533], [8.735058123390976, 47.311479621928186]]]}}, {"type": "Feature", "properties": {"name": "SchopfMoor 39"}, "geometry": {"type": "Polygon", "coordinates": [[[8.73507657049266, 47.311489581526146], [8.735088538205112, 47.31149760297953], [8.736818131024894, 47.31030394884606], [8.736806163318672, 47.31029592757162], [8.73507657049266, 47.311489581526146]]]}}, {"type": "Feature", "properties": {"name": "SchopfMoor 40"}, "geometry": {"type": "Polygon", "coordinates": [[[8.735095017601296, 47.31149954112116], [8.735106985318787, 47.3115075625726], [8.736836554599455, 47.31031392434745], [8.736824586888192, 47.31030590307494], [8.735095017601296, 47.31149954112116]]]}}, {"type": "Feature", "properties": {"name": "SchopfMoor 41"}, "geometry": {"type": "Polygon", "coordinates": [[[8.735113464716864, 47.31150950071318], [8.735125432439398, 47.31151752216272], [8.736854978180956, 47.31032389984588], [8.736843010464652, 47.31031587857531], [8.735113464716864, 47.31150950071318]]]}}, {"type": "Feature", "properties": {"name": "SchopfMoor 42"}, "geometry": {"type": "Polygon", "coordinates": [[[8.735131911839368, 47.31151946030226], [8.735143879566943, 47.31152748174983], [8.736873401769387, 47.31033387534135], [8.736861434048043, 47.310325854072694], [8.735131911839368, 47.31151946030226]]]}}, {"type": "Feature", "properties": {"name": "SchopfMoor 43"}, "geometry": {"type": "Polygon", "coordinates": [[[8.735150358968808, 47.31152941988834], [8.735162326701422, 47.311537441334], [8.736891825364758, 47.310343850833846], [8.736879857638373, 47.310335829567116], [8.735150358968808, 47.31152941988834]]]}}, {"type": "Feature", "properties": {"name": "SchopfMoor 44"}, "geometry": {"type": "Polygon", "coordinates": [[[8.735168806105179, 47.311539379471434], [8.735180773842835, 47.31154740091517], [8.736910248967066, 47.31035382632338], [8.736898281235637, 47.310345805058574], [8.735168806105179, 47.311539379471434]]]}}, {"type": "Feature", "properties": {"name": "SchopfMoor 45"}, "geometry": {"type": "Polygon", "coordinates": [[[8.735187253248492, 47.311549339051574], [8.735199220991193, 47.311557360493374], [8.736928672576317, 47.31036380180995], [8.736916704839848, 47.31035578054708], [8.735187253248492, 47.311549339051574]]]}}, {"type": "Feature", "properties": {"name": "SchopfMoor 46"}, "geometry": {"type": "Polygon", "coordinates": [[[8.735205700398742, 47.31155929862873], [8.735217668146483, 47.31156732006861], [8.736947096192504, 47.31037377729355], [8.736935128450993, 47.31036575603261], [8.735205700398742, 47.31155929862873]]]}}, {"type": "Feature", "properties": {"name": "SchopfMoor 47"}, "geometry": {"type": "Polygon", "coordinates": [[[8.735224147555918, 47.31156925820294], [8.735236115308702, 47.31157727964087], [8.73696551981562, 47.31038375277418], [8.73695355206907, 47.310375731515165], [8.735224147555918, 47.31156925820294]]]}}, {"type": "Feature", "properties": {"name": "SchopfMoor 48"}, "geometry": {"type": "Polygon", "coordinates": [[[8.735242594720042, 47.31157921777415], [8.735254562477865, 47.31158723921016], [8.736983943445685, 47.310393728251846], [8.736971975694091, 47.310385706994765], [8.735242594720042, 47.31157921777415]]]}}, {"type": "Feature", "properties": {"name": "SchopfMoor 49"}, "geometry": {"type": "Polygon", "coordinates": [[[8.735261041891095, 47.31158917734239], [8.735273009653959, 47.311597198776475], [8.73700236708268, 47.310403703726564], [8.736990399326046, 47.3103956824714], [8.735261041891095, 47.31158917734239]]]}}, {"type": "Feature", "properties": {"name": "SchopfMoor 50"}, "geometry": {"type": "Polygon", "coordinates": [[[8.735279489069093, 47.31159913690767], [8.735291456836999, 47.31160715833981], [8.737020790726623, 47.3104136791983], [8.737008822964949, 47.31040565794507], [8.735279489069093, 47.31159913690767]]]}}, {"type": "Feature", "properties": {"name": "SchopfMoor 51"}, "geometry": {"type": "Polygon", "coordinates": [[[8.735297936254014, 47.31160909646997], [8.735309904026959, 47.311617117900184], [8.737039214377491, 47.310423654667076], [8.737027246610776, 47.310415633415765], [8.735297936254014, 47.31160909646997]]]}}, {"type": "Feature", "properties": {"name": "SchopfMoor 52"}, "geometry": {"type": "Polygon", "coordinates": [[[8.735316383445879, 47.3116190560293], [8.735328351223869, 47.31162707745759], [8.737057638035306, 47.31043363013287], [8.737045670263552, 47.310425608883506], [8.735316383445879, 47.3116190560293]]]}}, {"type": "Feature", "properties": {"name": "SchopfMoor 53"}, "geometry": {"type": "Polygon", "coordinates": [[[8.73533483064467, 47.311629015585645], [8.7353467984277, 47.311637037012], [8.737076061700051, 47.31044360559571], [8.737064093923253, 47.31043558434827], [8.73533483064467, 47.311629015585645]]]}}, {"type": "Feature", "properties": {"name": "SchopfMoor 54"}, "geometry": {"type": "Polygon", "coordinates": [[[8.73535327785041, 47.311638975139026], [8.73536524563848, 47.31164699656345], [8.737094485371742, 47.3104535810556], [8.737082517589903, 47.31044555981008], [8.73535327785041, 47.311638975139026]]]}}, {"type": "Feature", "properties": {"name": "SchopfMoor 55"}, "geometry": {"type": "Polygon", "coordinates": [[[8.735371725063079, 47.31164893468942], [8.73538369285619, 47.31165695611193], [8.737112909050364, 47.31046355651251], [8.737100941263485, 47.31045553526893], [8.735371725063079, 47.31164893468942]]]}}, {"type": "Feature", "properties": {"name": "SchopfMoor 56"}, "geometry": {"type": "Polygon", "coordinates": [[[8.73539017228269, 47.31165889423686], [8.735402140080845, 47.31166691565744], [8.737131332735933, 47.31047353196646], [8.73711936494401, 47.310465510724796], [8.73539017228269, 47.31165889423686]]]}}, {"type": "Feature", "properties": {"name": "SchopfMoor 57"}, "geometry": {"type": "Polygon", "coordinates": [[[8.735408619509226, 47.31166885378133], [8.735420587312422, 47.311676875199964], [8.737149756428428, 47.31048350741744], [8.737137788631465, 47.310475486177694], [8.735408619509226, 47.31166885378133]]]}}, {"type": "Feature", "properties": {"name": "SchopfMoor 58"}, "geometry": {"type": "Polygon", "coordinates": [[[8.735427066192491, 47.31167881370253], [8.735439034000729, 47.311686835119254], [8.737070439805299, 47.31056093947372], [8.737058472002943, 47.31055291822579], [8.735427066192491, 47.31167881370253]]]}}, {"type": "Feature", "properties": {"name": "SchopfMoor 59"}, "geometry": {"type": "Polygon", "coordinates": [[[8.735445512490552, 47.31168877389138], [8.73545748030383, 47.31169679530616], [8.736817032017207, 47.310758521276675], [8.736805064208825, 47.310750500002555], [8.735445512490552, 47.31168877389138]]]}}, {"type": "Feature", "properties": {"name": "SchopfMoor 60"}, "geometry": {"type": "Polygon", "coordinates": [[[8.73546395879555, 47.31169873407726], [8.735475926613873, 47.31170675549011], [8.73656362233948, 47.31095610250879], [8.736551654525078, 47.310948081208494], [8.73546395879555, 47.31169873407726]]]}}, {"type": "Feature", "properties": {"name": "SchopfMoor 61"}, "geometry": {"type": "Polygon", "coordinates": [[[8.73548240510748, 47.311708694260176], [8.735494372930841, 47.311716715671096], [8.736310210772196, 47.31115368317], [8.73629824295177, 47.31114566184349], [8.73548240510748, 47.311708694260176]]]}}, {"type": "Feature", "properties": {"name": "SchopfMoor 62"}, "geometry": {"type": "Polygon", "coordinates": [[[8.735500851426346, 47.3117186544401], [8.73551281925475, 47.311726675849094], [8.736056797315202, 47.31135126326034], [8.736044829488755, 47.31134324190765], [8.735500851426346, 47.3117186544401]]]}}, {"type": "Feature", "properties": {"name": "SchopfMoor 63"}, "geometry": {"type": "Polygon", "coordinates": [[[8.735519297752154, 47.31172861461707], [8.7355312655856, 47.311736636024115], [8.735803381968472, 47.311548842779864], [8.735791414136004, 47.31154082140096], [8.735519297752154, 47.31172861461707]]]}}]}