{"type": "FeatureCollection", "features": [{"type": "Feature", "properties": {"name": "ABAlterObstgarten 01"}, "geometry": {"type": "Polygon", "coordinates": [[[8.583475251537575, 47.37550325749075], [8.58349195068369, 47.37550187378255], [8.583391897208946, 47.37494470299273], [8.583375198236313, 47.37494608668702], [8.583475251537575, 47.37550325749075]]]}}, {"type": "Feature", "properties": {"name": "ABAlterObstgarten 02"}, "geometry": {"type": "Polygon", "coordinates": [[[8.58349774419699, 47.37549698014418], [8.583514443340556, 47.37549559643271], [8.583414464978414, 47.37493884520291], [8.5833977660082, 47.37494022890049], [8.58349774419699, 47.37549698014418]]]}}, {"type": "Feature", "properties": {"name": "ABAlterObstgarten 03"}, "geometry": {"type": "Polygon", "coordinates": [[[8.583520236851095, 47.37549070279317], [8.583536935992113, 47.37548931907842], [8.583437032742914, 47.37493298740864], [8.583420333775118, 47.3749343711095], [8.583520236851095, 47.37549070279317]]]}}, {"type": "Feature", "properties": {"name": "ABAlterObstgarten 04"}, "geometry": {"type": "Polygon", "coordinates": [[[8.583542729499882, 47.37548442543774], [8.58355942863835, 47.3754830417197], [8.583459600502437, 47.37492712960989], [8.58344290153706, 47.37492851331407], [8.583542729499882, 47.37548442543774]]]}}, {"type": "Feature", "properties": {"name": "ABAlterObstgarten 05"}, "geometry": {"type": "Polygon", "coordinates": [[[8.58356522214336, 47.37547814807786], [8.583581921279277, 47.37547676435654], [8.583482168256989, 47.37492127180667], [8.58346546929403, 47.374922655514155], [8.58356522214336, 47.37547814807786]]]}}, {"type": "Feature", "properties": {"name": "ABAlterObstgarten 06"}, "geometry": {"type": "Polygon", "coordinates": [[[8.58358771478152, 47.375471870713554], [8.583604413914887, 47.37547048698893], [8.583504736006565, 47.374915413999], [8.583488037046026, 47.37491679770977], [8.58358771478152, 47.375471870713554]]]}}, {"type": "Feature", "properties": {"name": "ABAlterObstgarten 07"}, "geometry": {"type": "Polygon", "coordinates": [[[8.583610207414369, 47.3754655933448], [8.583626906545186, 47.375464209616894], [8.583527303751172, 47.37490955618687], [8.58351060479305, 47.37491093990092], [8.583610207414369, 47.3754655933448]]]}}, {"type": "Feature", "properties": {"name": "ABAlterObstgarten 08"}, "geometry": {"type": "Polygon", "coordinates": [[[8.583632700041898, 47.37545931597162], [8.583649399170167, 47.37545793224042], [8.583549871490801, 47.37490369837026], [8.5835331725351, 47.37490508208762], [8.583632700041898, 47.37545931597162]]]}}, {"type": "Feature", "properties": {"name": "ABAlterObstgarten 09"}, "geometry": {"type": "Polygon", "coordinates": [[[8.583655192664116, 47.375453038594], [8.583671891789837, 47.375451654859525], [8.58357243922546, 47.37489784054919], [8.583555740272175, 47.37489922426985], [8.583655192664116, 47.375453038594]]]}}, {"type": "Feature", "properties": {"name": "ABAlterObstgarten 10"}, "geometry": {"type": "Polygon", "coordinates": [[[8.58367768528102, 47.37544676121193], [8.58369438440419, 47.37544537747416], [8.583595006955143, 47.37489198272366], [8.58357830800428, 47.374893366447616], [8.58367768528102, 47.37544676121193]]]}}, {"type": "Feature", "properties": {"name": "ABAlterObstgarten 11"}, "geometry": {"type": "Polygon", "coordinates": [[[8.583700177892611, 47.375440483825436], [8.58371687701323, 47.375439100084385], [8.583617574679858, 47.37488612489367], [8.583600875731412, 47.374887508620915], [8.583700177892611, 47.375440483825436]]]}}, {"type": "Feature", "properties": {"name": "ABAlterObstgarten 12"}, "geometry": {"type": "Polygon", "coordinates": [[[8.583722670498883, 47.3754342064345], [8.583739369616955, 47.37543282269017], [8.583640142399595, 47.3748802670592], [8.583623443453567, 47.37488165078974], [8.583722670498883, 47.3754342064345]]]}}, {"type": "Feature", "properties": {"name": "ABAlterObstgarten 13"}, "geometry": {"type": "Polygon", "coordinates": [[[8.583745163099843, 47.375427929039134], [8.583761862215365, 47.3754265452915], [8.583662710114359, 47.37487440922028], [8.583646011170751, 47.37487579295413], [8.583745163099843, 47.375427929039134]]]}}, {"type": "Feature", "properties": {"name": "ABAlterObstgarten 14"}, "geometry": {"type": "Polygon", "coordinates": [[[8.58376765569549, 47.37542165163933], [8.583784354808465, 47.375420267888416], [8.583685277824152, 47.374868551376885], [8.583668578882964, 47.374869935114035], [8.58376765569549, 47.37542165163933]]]}}, {"type": "Feature", "properties": {"name": "ABAlterObstgarten 15"}, "geometry": {"type": "Polygon", "coordinates": [[[8.58379014828582, 47.37541537423508], [8.583806847396245, 47.37541399048088], [8.58370784552897, 47.37486269352903], [8.5836911465902, 47.37486407726947], [8.58379014828582, 47.37541537423508]]]}}, {"type": "Feature", "properties": {"name": "ABAlterObstgarten 16"}, "geometry": {"type": "Polygon", "coordinates": [[[8.583812640870839, 47.37540909682639], [8.583829339978713, 47.375407713068924], [8.583730413228816, 47.37485683567672], [8.583713714292465, 47.37485821942045], [8.583812640870839, 47.37540909682639]]]}}, {"type": "Feature", "properties": {"name": "ABAlterObstgarten 17"}, "geometry": {"type": "Polygon", "coordinates": [[[8.583835133450542, 47.37540281941328], [8.583851832555865, 47.37540143565252], [8.583752980923688, 47.37485097781994], [8.583736281989754, 47.374852361566965], [8.583835133450542, 47.37540281941328]]]}}, {"type": "Feature", "properties": {"name": "ABAlterObstgarten 18"}, "geometry": {"type": "Polygon", "coordinates": [[[8.583857626024928, 47.37539654199573], [8.583874325127704, 47.37539515823168], [8.583775548613588, 47.37484511995868], [8.583758849682074, 47.374846503709016], [8.583857626024928, 47.37539654199573]]]}}, {"type": "Feature", "properties": {"name": "ABAlterObstgarten 19"}, "geometry": {"type": "Polygon", "coordinates": [[[8.583880118594003, 47.37539026457373], [8.58389681769423, 47.375388880806405], [8.583798116298512, 47.374839262092976], [8.583781417369417, 47.3748406458466], [8.583880118594003, 47.37539026457373]]]}}, {"type": "Feature", "properties": {"name": "ABAlterObstgarten 20"}, "geometry": {"type": "Polygon", "coordinates": [[[8.583902611157766, 47.3753839871473], [8.58391931025544, 47.37538260337668], [8.583820683978468, 47.37483340422279], [8.583803985051789, 47.374834787979715], [8.583902611157766, 47.3753839871473]]]}}, {"type": "Feature", "properties": {"name": "ABAlterObstgarten 21"}, "geometry": {"type": "Polygon", "coordinates": [[[8.58392511143315, 47.37537775268764], [8.58394181052829, 47.37537636891373], [8.583843251653448, 47.37482754634816], [8.583826552729189, 47.37482893010837], [8.58392511143315, 47.37537775268764]]]}}, {"type": "Feature", "properties": {"name": "ABAlterObstgarten 22"}, "geometry": {"type": "Polygon", "coordinates": [[[8.583947732692954, 47.37537219194429], [8.583964431785766, 47.37537080816706], [8.583865819323455, 47.37482168846905], [8.583849120401615, 47.37482307223255], [8.583947732692954, 47.37537219194429]]]}}, {"type": "Feature", "properties": {"name": "ABAlterObstgarten 23"}, "geometry": {"type": "Polygon", "coordinates": [[[8.583970353948029, 47.37536663119643], [8.583987053038516, 47.375365247415914], [8.583888386988486, 47.37481583058548], [8.583871688069065, 47.37481721435229], [8.583970353948029, 47.37536663119643]]]}}, {"type": "Feature", "properties": {"name": "ABAlterObstgarten 24"}, "geometry": {"type": "Polygon", "coordinates": [[[8.583992975198374, 47.37536107044409], [8.584009674286534, 47.37535968666027], [8.583910954648546, 47.374809972697435], [8.583894255731545, 47.37481135646755], [8.583992975198374, 47.37536107044409]]]}}, {"type": "Feature", "properties": {"name": "ABAlterObstgarten 25"}, "geometry": {"type": "Polygon", "coordinates": [[[8.584015596443985, 47.375355509687296], [8.58403229552982, 47.37535412590016], [8.583933522303631, 47.37480411480495], [8.583916823389048, 47.37480549857835], [8.584015596443985, 47.375355509687296]]]}}, {"type": "Feature", "properties": {"name": "ABAlterObstgarten 26"}, "geometry": {"type": "Polygon", "coordinates": [[[8.58403821768487, 47.37534994892599], [8.58405491676838, 47.375348565135546], [8.583956089953748, 47.37479825690799], [8.583939391041584, 47.37479964068467], [8.58403821768487, 47.37534994892599]]]}}, {"type": "Feature", "properties": {"name": "ABAlterObstgarten 27"}, "geometry": {"type": "Polygon", "coordinates": [[[8.584060838921026, 47.3753443881602], [8.584077538002207, 47.37534300436646], [8.583978657598887, 47.374792399006566], [8.583961958689143, 47.37479378278655], [8.584060838921026, 47.3753443881602]]]}}, {"type": "Feature", "properties": {"name": "ABAlterObstgarten 28"}, "geometry": {"type": "Polygon", "coordinates": [[[8.584083460152446, 47.375338827389925], [8.5841001592313, 47.37533744359289], [8.584001225239053, 47.37478654110066], [8.583984526331726, 47.37478792488397], [8.584083460152446, 47.375338827389925]]]}}, {"type": "Feature", "properties": {"name": "ABAlterObstgarten 29"}, "geometry": {"type": "Polygon", "coordinates": [[[8.584106081379137, 47.37533326661519], [8.584122780455665, 47.375331882814834], [8.584023792874248, 47.374780683190316], [8.584007093969339, 47.37478206697689], [8.584106081379137, 47.37533326661519]]]}}, {"type": "Feature", "properties": {"name": "ABAlterObstgarten 30"}, "geometry": {"type": "Polygon", "coordinates": [[[8.584128702601099, 47.375327705835936], [8.5841454016753, 47.375326322032286], [8.584046360504466, 47.374774825275495], [8.584029661601976, 47.374776209065374], [8.584128702601099, 47.375327705835936]]]}}, {"type": "Feature", "properties": {"name": "ABAlterObstgarten 31"}, "geometry": {"type": "Polygon", "coordinates": [[[8.58415132381833, 47.37532214505222], [8.584168022890205, 47.37532076124527], [8.584068928129716, 47.3747689673562], [8.584052229229645, 47.37477035114939], [8.58415132381833, 47.37532214505222]]]}}, {"type": "Feature", "properties": {"name": "ABAlterObstgarten 32"}, "geometry": {"type": "Polygon", "coordinates": [[[8.58417394503083, 47.37531658426402], [8.584190644100378, 47.375315200453755], [8.58409149574999, 47.37476310943245], [8.584074796852336, 47.37476449322894], [8.58417394503083, 47.37531658426402]]]}}, {"type": "Feature", "properties": {"name": "ABAlterObstgarten 33"}, "geometry": {"type": "Polygon", "coordinates": [[[8.584196566238598, 47.375311023471326], [8.584213265305822, 47.37530963965777], [8.584114063365288, 47.374757251504235], [8.584097364470054, 47.374758635304005], [8.584196566238598, 47.375311023471326]]]}}, {"type": "Feature", "properties": {"name": "ABAlterObstgarten 34"}, "geometry": {"type": "Polygon", "coordinates": [[[8.584219187441638, 47.375305462674156], [8.584235886506535, 47.37530407885728], [8.584136630975616, 47.374751393571565], [8.584119932082801, 47.37475277737463], [8.584219187441638, 47.375305462674156]]]}}, {"type": "Feature", "properties": {"name": "ABAlterObstgarten 35"}, "geometry": {"type": "Polygon", "coordinates": [[[8.584241808639945, 47.375299901872495], [8.584258507702515, 47.375298518052325], [8.584159198580968, 47.37474553563442], [8.584142499690572, 47.37474691944079], [8.584241808639945, 47.375299901872495]]]}}, {"type": "Feature", "properties": {"name": "ABAlterObstgarten 36"}, "geometry": {"type": "Polygon", "coordinates": [[[8.584264429833524, 47.37529434106635], [8.58428112889377, 47.375292957242884], [8.58418176618135, 47.37473967769281], [8.584165067293375, 47.37474106150247], [8.584264429833524, 47.37529434106635]]]}}, {"type": "Feature", "properties": {"name": "ABAlterObstgarten 37"}, "geometry": {"type": "Polygon", "coordinates": [[[8.584287051022372, 47.37528878025573], [8.58430375008029, 47.375287396428945], [8.584204333776757, 47.374733819746744], [8.5841876348912, 47.374735203559695], [8.584287051022372, 47.37528878025573]]]}}, {"type": "Feature", "properties": {"name": "ABAlterObstgarten 38"}, "geometry": {"type": "Polygon", "coordinates": [[[8.584309672206489, 47.37528321944061], [8.584326371262081, 47.37528183561053], [8.584226901367192, 47.374727961796204], [8.584210202484051, 47.37472934561246], [8.584309672206489, 47.37528321944061]]]}}, {"type": "Feature", "properties": {"name": "ABAlterObstgarten 39"}, "geometry": {"type": "Polygon", "coordinates": [[[8.584332293385879, 47.375277658621016], [8.584348992439143, 47.375276274787645], [8.584249468952656, 47.3747221038412], [8.584232770071935, 47.37472348766075], [8.584332293385879, 47.375277658621016]]]}}, {"type": "Feature", "properties": {"name": "ABAlterObstgarten 40"}, "geometry": {"type": "Polygon", "coordinates": [[[8.584354914560533, 47.375272097796945], [8.584371613611472, 47.375270713960255], [8.584272036533141, 47.37471624588176], [8.584255337654842, 47.3747176297046], [8.584354914560533, 47.375272097796945]]]}}, {"type": "Feature", "properties": {"name": "ABAlterObstgarten 41"}, "geometry": {"type": "Polygon", "coordinates": [[[8.584377535730459, 47.37526653696838], [8.58439423477907, 47.375265153128375], [8.584294604108656, 47.37471038791781], [8.584277905232774, 47.37471177174396], [8.584377535730459, 47.37526653696838]]]}}, {"type": "Feature", "properties": {"name": "ABAlterObstgarten 42"}, "geometry": {"type": "Polygon", "coordinates": [[[8.584400156895653, 47.375260976135344], [8.584416855941939, 47.375259592292046], [8.584317171679196, 47.37470452994941], [8.584300472805733, 47.37470591377887], [8.584400156895653, 47.375260976135344]]]}}, {"type": "Feature", "properties": {"name": "ABAlterObstgarten 43"}, "geometry": {"type": "Polygon", "coordinates": [[[8.584422778056117, 47.3752554152978], [8.584439477100076, 47.37525403145119], [8.584339739244767, 47.37469867197656], [8.584323040373722, 47.3747000558093], [8.584422778056117, 47.3752554152978]]]}}, {"type": "Feature", "properties": {"name": "ABAlterObstgarten 44"}, "geometry": {"type": "Polygon", "coordinates": [[[8.584445399211852, 47.375249854455774], [8.584462098253486, 47.37524847060588], [8.58436230680536, 47.374692813999246], [8.584345607936735, 47.374694197835275], [8.584445399211852, 47.375249854455774]]]}}, {"type": "Feature", "properties": {"name": "ABAlterObstgarten 45"}, "geometry": {"type": "Polygon", "coordinates": [[[8.584468020362856, 47.37524429360929], [8.58448471940216, 47.37524290975608], [8.58438487436098, 47.374686956017456], [8.584368175494772, 47.37468833985678], [8.584468020362856, 47.37524429360929]]]}}, {"type": "Feature", "properties": {"name": "ABAlterObstgarten 46"}, "geometry": {"type": "Polygon", "coordinates": [[[8.584490641509127, 47.3752387327583], [8.584507340546107, 47.375237348901784], [8.584407441911628, 47.374681098031196], [8.58439074304784, 47.374682481873826], [8.584490641509127, 47.3752387327583]]]}}, {"type": "Feature", "properties": {"name": "ABAlterObstgarten 47"}, "geometry": {"type": "Polygon", "coordinates": [[[8.584513262650669, 47.37523317190283], [8.584529961685323, 47.37523178804302], [8.584430009457302, 47.37467524004049], [8.584413310595933, 47.37467662388641], [8.584513262650669, 47.37523317190283]]]}}, {"type": "Feature", "properties": {"name": "ABAlterObstgarten 48"}, "geometry": {"type": "Polygon", "coordinates": [[[8.584535883787481, 47.37522761104289], [8.584552582819809, 47.37522622717976], [8.584452576998004, 47.37466938204531], [8.584435878139054, 47.374670765894535], [8.584535883787481, 47.37522761104289]]]}}, {"type": "Feature", "properties": {"name": "ABAlterObstgarten 49"}, "geometry": {"type": "Polygon", "coordinates": [[[8.584558504919563, 47.375222050178444], [8.584575203949564, 47.37522066631202], [8.584475144533732, 47.37466352404566], [8.584458445677202, 47.37466490789817], [8.584558504919563, 47.375222050178444]]]}}, {"type": "Feature", "properties": {"name": "ABAlterObstgarten 50"}, "geometry": {"type": "Polygon", "coordinates": [[[8.584581126046913, 47.37521648930953], [8.584597825074587, 47.37521510543979], [8.584497712064485, 47.374657666041564], [8.584481013210373, 47.37465904989737], [8.584581126046913, 47.37521648930953]]]}}, {"type": "Feature", "properties": {"name": "ABAlterObstgarten 51"}, "geometry": {"type": "Polygon", "coordinates": [[[8.584603747169533, 47.37521092843613], [8.584620446194881, 47.375209544563084], [8.584520279590269, 47.37465180803298], [8.584503580738575, 47.374653191892094], [8.584603747169533, 47.37521092843613]]]}}, {"type": "Feature", "properties": {"name": "ABAlterObstgarten 52"}, "geometry": {"type": "Polygon", "coordinates": [[[8.584626368287424, 47.37520536755824], [8.584643067310443, 47.375203983681885], [8.584542847111077, 47.37464595001994], [8.584526148261803, 47.37464733388235], [8.584626368287424, 47.37520536755824]]]}}, {"type": "Feature", "properties": {"name": "ABAlterObstgarten 53"}, "geometry": {"type": "Polygon", "coordinates": [[[8.584648989400582, 47.37519980667586], [8.584665688421277, 47.375198422796224], [8.58456541462691, 47.37464009200245], [8.584548715780056, 47.374641475868145], [8.584648989400582, 47.37519980667586]]]}}, {"type": "Feature", "properties": {"name": "ABAlterObstgarten 54"}, "geometry": {"type": "Polygon", "coordinates": [[[8.58467161050901, 47.375194245789], [8.58468830952738, 47.37519286190605], [8.584587982137773, 47.37463423398049], [8.584571283293336, 47.374635617849485], [8.58467161050901, 47.375194245789]]]}}, {"type": "Feature", "properties": {"name": "ABAlterObstgarten 55"}, "geometry": {"type": "Polygon", "coordinates": [[[8.584694231612705, 47.37518868489766], [8.584710930628747, 47.375187301011415], [8.584610549643656, 47.37462837595405], [8.584593850801639, 47.374629759826355], [8.584694231612705, 47.37518868489766]]]}}, {"type": "Feature", "properties": {"name": "ABAlterObstgarten 56"}, "geometry": {"type": "Polygon", "coordinates": [[[8.584716852711676, 47.37518312400184], [8.58473355172539, 47.375181740112275], [8.584633117144575, 47.37462251792316], [8.584616418304977, 47.37462390179875], [8.584716852711676, 47.37518312400184]]]}}, {"type": "Feature", "properties": {"name": "ABAlterObstgarten 57"}, "geometry": {"type": "Polygon", "coordinates": [[[8.58473947380591, 47.37517756310152], [8.5847561728173, 47.37517617920866], [8.584655643496838, 47.37461643079693], [8.584638944659728, 47.3746178146758], [8.58473947380591, 47.37517756310152]]]}}, {"type": "Feature", "properties": {"name": "ABAlterObstgarten 58"}, "geometry": {"type": "Polygon", "coordinates": [[[8.584762094895417, 47.37517200219674], [8.584778793904478, 47.37517061830057], [8.584678033112432, 47.374609582337364], [8.584661334278051, 47.37461096621952], [8.584762094895417, 47.37517200219674]]]}}, {"type": "Feature", "properties": {"name": "ABAlterObstgarten 59"}, "geometry": {"type": "Polygon", "coordinates": [[[8.584791362215995, 47.3752034470839], [8.584808061234252, 47.375202063183515], [8.584700422722257, 47.37460273387341], [8.584683723890603, 47.374604117758835], [8.584791362215995, 47.3752034470839]]]}}, {"type": "Feature", "properties": {"name": "ABAlterObstgarten 60"}, "geometry": {"type": "Polygon", "coordinates": [[[8.584823251638705, 47.37524949139126], [8.584839950670704, 47.37524810748628], [8.584722812326302, 47.37459588540504], [8.584706113497376, 47.37459726929376], [8.584823251638705, 47.37524949139126]]]}}, {"type": "Feature", "properties": {"name": "ABAlterObstgarten 61"}, "geometry": {"type": "Polygon", "coordinates": [[[8.58485514111673, 47.375295535689546], [8.584871840162469, 47.375294151779975], [8.584745201924576, 47.3745890369323], [8.584728503098376, 47.37459042082426], [8.58485514111673, 47.375295535689546]]]}}, {"type": "Feature", "properties": {"name": "ABAlterObstgarten 62"}, "geometry": {"type": "Polygon", "coordinates": [[[8.584884900617782, 47.3753297202584], [8.584901599673572, 47.37532833634452], [8.584767591517075, 47.37458218845516], [8.584750892693604, 47.37458357235038], [8.584884900617782, 47.3753297202584]]]}}, {"type": "Feature", "properties": {"name": "ABAlterObstgarten 63"}, "geometry": {"type": "Polygon", "coordinates": [[[8.58491014634739, 47.37533877263897], [8.584926845405402, 47.375337388721434], [8.5847899811038, 47.374575339973596], [8.584773282283056, 47.3745767238721], [8.58491014634739, 47.37533877263897]]]}}, {"type": "Feature", "properties": {"name": "ABAlterObstgarten 64"}, "geometry": {"type": "Polygon", "coordinates": [[[8.584935392085661, 47.37534782501399], [8.584952091145897, 47.37534644109279], [8.584812370684746, 47.37456849148764], [8.584795671866729, 47.374569875389426], [8.584935392085661, 47.37534782501399]]]}}, {"type": "Feature", "properties": {"name": "ABAlterObstgarten 65"}, "geometry": {"type": "Polygon", "coordinates": [[[8.584960637832603, 47.37535687738348], [8.584977336895063, 47.375355493458606], [8.584834760259925, 47.37456164299729], [8.584818061444633, 47.374563026902344], [8.584960637832603, 47.37535687738348]]]}}, {"type": "Feature", "properties": {"name": "ABAlterObstgarten 66"}, "geometry": {"type": "Polygon", "coordinates": [[[8.584985883588214, 47.37536592974742], [8.585002582652898, 47.37536454581887], [8.584857149829325, 47.37455479450255], [8.584840451016762, 47.37455617841088], [8.584985883588214, 47.37536592974742]]]}}, {"type": "Feature", "properties": {"name": "ABAlterObstgarten 67"}, "geometry": {"type": "Polygon", "coordinates": [[[8.585011129352491, 47.37537498210578], [8.585027828419397, 47.37537359817357], [8.58487953939295, 47.3745479460034], [8.584862840583114, 47.374549329915], [8.585011129352491, 47.37537498210578]]]}}, {"type": "Feature", "properties": {"name": "ABAlterObstgarten 68"}, "geometry": {"type": "Polygon", "coordinates": [[[8.585036375125437, 47.375384034458634], [8.585053074194567, 47.37538265052275], [8.584901928950803, 47.374541097499836], [8.584885230143694, 47.374542481414714], [8.585036375125437, 47.375384034458634]]]}}, {"type": "Feature", "properties": {"name": "ABAlterObstgarten 69"}, "geometry": {"type": "Polygon", "coordinates": [[[8.585061620907052, 47.37539308680593], [8.585078319978406, 47.375391702866374], [8.584924318502878, 47.37453424899191], [8.584907619698498, 47.374535632910046], [8.585061620907052, 47.37539308680593]]]}}, {"type": "Feature", "properties": {"name": "ABAlterObstgarten 70"}, "geometry": {"type": "Polygon", "coordinates": [[[8.585086866697337, 47.37540213914767], [8.585103565770913, 47.375400755204446], [8.584946708049182, 47.37452740047955], [8.584930009247529, 47.37452878440097], [8.585086866697337, 47.37540213914767]]]}}, {"type": "Feature", "properties": {"name": "ABAlterObstgarten 71"}, "geometry": {"type": "Polygon", "coordinates": [[[8.585112112496285, 47.375411191483856], [8.585128811572087, 47.37540980753697], [8.584969097589711, 47.3745205519628], [8.584952398790785, 47.37452193588749], [8.585112112496285, 47.375411191483856]]]}}, {"type": "Feature", "properties": {"name": "ABAlterObstgarten 72"}, "geometry": {"type": "Polygon", "coordinates": [[[8.585137358303902, 47.37542024381452], [8.585154057381926, 47.375418859863956], [8.584991487124464, 47.37451370344166], [8.584974788328266, 47.37451508736963], [8.585137358303902, 47.37542024381452]]]}}, {"type": "Feature", "properties": {"name": "ABAlterObstgarten 73"}, "geometry": {"type": "Polygon", "coordinates": [[[8.58516260412019, 47.37542929613961], [8.585179303200439, 47.375427912185394], [8.585013876653447, 47.37450685491611], [8.584997177859975, 47.37450823884735], [8.58516260412019, 47.37542929613961]]]}}, {"type": "Feature", "properties": {"name": "ABAlterObstgarten 74"}, "geometry": {"type": "Polygon", "coordinates": [[[8.585187849945143, 47.37543834845916], [8.585204549027614, 47.37543696450127], [8.585036266176648, 47.37450000638617], [8.585019567385904, 47.374501390320674], [8.585187849945143, 47.37543834845916]]]}}, {"type": "Feature", "properties": {"name": "ABAlterObstgarten 75"}, "geometry": {"type": "Polygon", "coordinates": [[[8.585213095778768, 47.37544740077317], [8.58522979486346, 47.3754460168116], [8.58505865569408, 47.37449315785184], [8.585041956906062, 47.37449454178961], [8.585213095778768, 47.37544740077317]]]}}, {"type": "Feature", "properties": {"name": "ABAlterObstgarten 76"}, "geometry": {"type": "Polygon", "coordinates": [[[8.585238341621055, 47.37545645308162], [8.585255040707974, 47.37545506911639], [8.585081045205735, 47.37448630931309], [8.585064346420443, 47.37448769325414], [8.585238341621055, 47.37545645308162]]]}}, {"type": "Feature", "properties": {"name": "ABAlterObstgarten 77"}, "geometry": {"type": "Polygon", "coordinates": [[[8.585263587472015, 47.375465505384525], [8.585280286561154, 47.37546412141562], [8.585103434711616, 47.374479460769955], [8.585086735929053, 47.37448084471426], [8.585263587472015, 47.375465505384525]]]}}, {"type": "Feature", "properties": {"name": "ABAlterObstgarten 78"}, "geometry": {"type": "Polygon", "coordinates": [[[8.58528883333164, 47.37547455768189], [8.585305532423005, 47.37547317370931], [8.585125824211723, 47.37447261222242], [8.585109125431886, 47.37447399617], [8.58528883333164, 47.37547455768189]]]}}, {"type": "Feature", "properties": {"name": "ABAlterObstgarten 79"}, "geometry": {"type": "Polygon", "coordinates": [[[8.585312759983537, 47.37547626511707], [8.585329459074838, 47.37547488114102], [8.585148213706056, 47.37446576367047], [8.585131514928946, 47.37446714762134], [8.585312759983537, 47.37547626511707]]]}}, {"type": "Feature", "properties": {"name": "ABAlterObstgarten 80"}, "geometry": {"type": "Polygon", "coordinates": [[[8.585335255575616, 47.37547000500186], [8.585351954664374, 47.37546862102252], [8.585170603194612, 47.374458915114126], [8.585153904420233, 47.374460299068275], [8.585335255575616, 47.37547000500186]]]}}, {"type": "Feature", "properties": {"name": "ABAlterObstgarten 81"}, "geometry": {"type": "Polygon", "coordinates": [[[8.585357751162398, 47.37546374488221], [8.585374450248612, 47.375462360899576], [8.585192992677397, 47.37445206655341], [8.585176293905745, 47.374453450510806], [8.585357751162398, 47.37546374488221]]]}}, {"type": "Feature", "properties": {"name": "ABAlterObstgarten 82"}, "geometry": {"type": "Polygon", "coordinates": [[[8.585380246743876, 47.375457484758115], [8.585396945827545, 47.3754561007722], [8.585215382154404, 47.37444521798826], [8.585198683385478, 47.37444660194895], [8.585380246743876, 47.375457484758115]]]}}, {"type": "Feature", "properties": {"name": "ABAlterObstgarten 83"}, "geometry": {"type": "Polygon", "coordinates": [[[8.585402742320056, 47.37545122462959], [8.58541944140118, 47.37544984064039], [8.585237771625641, 47.374438369418726], [8.585221072859442, 47.374439753382674], [8.585402742320056, 47.37545122462959]]]}}, {"type": "Feature", "properties": {"name": "ABAlterObstgarten 84"}, "geometry": {"type": "Polygon", "coordinates": [[[8.585425237890934, 47.375444964496616], [8.585441936969515, 47.37544358050414], [8.5852601610911, 47.374431520844794], [8.585243462327629, 47.37443290481202], [8.585425237890934, 47.375444964496616]]]}}, {"type": "Feature", "properties": {"name": "ABAlterObstgarten 85"}, "geometry": {"type": "Polygon", "coordinates": [[[8.585447733456514, 47.37543870435921], [8.58546443253255, 47.37543732036343], [8.585282550550787, 47.374424672266464], [8.58526585179004, 47.374426056236956], [8.585447733456514, 47.37543870435921]]]}}, {"type": "Feature", "properties": {"name": "ABAlterObstgarten 86"}, "geometry": {"type": "Polygon", "coordinates": [[[8.58547022901679, 47.37543244421737], [8.585486928090281, 47.37543106021832], [8.585304940004695, 47.37441782368372], [8.585288241246678, 47.37441920765748], [8.58547022901679, 47.37543244421737]]]}}, {"type": "Feature", "properties": {"name": "ABAlterObstgarten 87"}, "geometry": {"type": "Polygon", "coordinates": [[[8.58549272457177, 47.3754261840711], [8.585509423642717, 47.375424800068735], [8.585327329452833, 47.374410975096595], [8.585310630697544, 47.37441235907363], [8.58549272457177, 47.3754261840711]]]}}, {"type": "Feature", "properties": {"name": "ABAlterObstgarten 88"}, "geometry": {"type": "Polygon", "coordinates": [[[8.585515220121449, 47.37541992392036], [8.585531919189851, 47.37541853991473], [8.585349718895197, 47.37440412650506], [8.585333020142633, 47.37440551048537], [8.585515220121449, 47.37541992392036]]]}}, {"type": "Feature", "properties": {"name": "ABAlterObstgarten 89"}, "geometry": {"type": "Polygon", "coordinates": [[[8.585537715665822, 47.37541366376521], [8.58555441473168, 47.37541227975629], [8.58537210833178, 47.374397277909125], [8.585355409581947, 47.3743986618927], [8.585537715665822, 47.37541366376521]]]}}, {"type": "Feature", "properties": {"name": "ABAlterObstgarten 90"}, "geometry": {"type": "Polygon", "coordinates": [[[8.585560211204902, 47.375407403605614], [8.585576910268216, 47.37540601959341], [8.585394497762596, 47.374390429308804], [8.585377799015488, 47.37439181329565], [8.585560211204902, 47.375407403605614]]]}}, {"type": "Feature", "properties": {"name": "ABAlterObstgarten 91"}, "geometry": {"type": "Polygon", "coordinates": [[[8.585582706738675, 47.37540114344158], [8.585599405799446, 47.37539975942609], [8.585416887187632, 47.37438358070407], [8.585400188443252, 47.374384964694194], [8.585582706738675, 47.37540114344158]]]}}, {"type": "Feature", "properties": {"name": "ABAlterObstgarten 92"}, "geometry": {"type": "Polygon", "coordinates": [[[8.58560520226715, 47.37539488327311], [8.585621901325375, 47.375393499254336], [8.585439276606895, 47.37437673209494], [8.585422577865241, 47.37437811608833], [8.58560520226715, 47.37539488327311]]]}}, {"type": "Feature", "properties": {"name": "ABAlterObstgarten 93"}, "geometry": {"type": "Polygon", "coordinates": [[[8.585627697790324, 47.37538862310021], [8.585644396846005, 47.375387239078144], [8.585461666020384, 47.37436988348143], [8.58544496728146, 47.3743712674781], [8.585627697790324, 47.37538862310021]]]}}, {"type": "Feature", "properties": {"name": "ABAlterObstgarten 94"}, "geometry": {"type": "Polygon", "coordinates": [[[8.585650193308199, 47.37538236292287], [8.585666892361337, 47.37538097889751], [8.5854840554281, 47.374363034863485], [8.5854673566919, 47.37436441886343], [8.585650193308199, 47.37538236292287]]]}}, {"type": "Feature", "properties": {"name": "ABAlterObstgarten 95"}, "geometry": {"type": "Polygon", "coordinates": [[[8.585672688820774, 47.37537610274108], [8.585689387871366, 47.37537471871243], [8.58550644483004, 47.37435618624116], [8.585489746096568, 47.37435757024437], [8.585672688820774, 47.37537610274108]]]}}, {"type": "Feature", "properties": {"name": "ABAlterObstgarten 96"}, "geometry": {"type": "Polygon", "coordinates": [[[8.585695184328047, 47.37536984255486], [8.585711883376096, 47.375368458522935], [8.585528834226205, 47.37434933761444], [8.585512135495462, 47.37435072162093], [8.585695184328047, 47.37536984255486]]]}}, {"type": "Feature", "properties": {"name": "ABAlterObstgarten 97"}, "geometry": {"type": "Polygon", "coordinates": [[[8.58571767983002, 47.3753635823642], [8.585734378875525, 47.375362198328986], [8.585551223616596, 47.37434248898332], [8.58553452488858, 47.37434387299307], [8.58571767983002, 47.3753635823642]]]}}, {"type": "Feature", "properties": {"name": "ABAlterObstgarten 98"}, "geometry": {"type": "Polygon", "coordinates": [[[8.585740175326695, 47.37535732216911], [8.585756874369654, 47.3753559381306], [8.585573613001213, 47.374335640347795], [8.585556914275925, 47.37433702436083], [8.585740175326695, 47.37535732216911]]]}}, {"type": "Feature", "properties": {"name": "ABAlterObstgarten 99"}, "geometry": {"type": "Polygon", "coordinates": [[[8.585762670818067, 47.37535106196957], [8.58577936985848, 47.37534967792777], [8.585596002380056, 47.37432879170787], [8.585579303657493, 47.374330175724175], [8.585762670818067, 47.37535106196957]]]}}, {"type": "Feature", "properties": {"name": "ABAlterObstgarten 100"}, "geometry": {"type": "Polygon", "coordinates": [[[8.585785166304136, 47.3753448017656], [8.585801865342008, 47.37534341772053], [8.58561839175312, 47.374321943063556], [8.585601693033288, 47.374323327083125], [8.585785166304136, 47.3753448017656]]]}}, {"type": "Feature", "properties": {"name": "ABAlterObstgarten 101"}, "geometry": {"type": "Polygon", "coordinates": [[[8.585807661784909, 47.37533854155718], [8.585824360820235, 47.37533715750882], [8.585640781120414, 47.37431509441483], [8.585624082403308, 47.37431647843768], [8.585807661784909, 47.37533854155718]]]}}, {"type": "Feature", "properties": {"name": "ABAlterObstgarten 102"}, "geometry": {"type": "Polygon", "coordinates": [[[8.58583015726038, 47.37533228134433], [8.585846856293163, 47.375330897292685], [8.585663170481935, 47.374308245761725], [8.585646471767555, 47.37430962978783], [8.58583015726038, 47.37533228134433]]]}}, {"type": "Feature", "properties": {"name": "ABAlterObstgarten 103"}, "geometry": {"type": "Polygon", "coordinates": [[[8.58585265273055, 47.375326021127044], [8.585869351760786, 47.37532463707211], [8.585685559837676, 47.37430139710419], [8.585668861126024, 47.37430278113358], [8.58585265273055, 47.375326021127044]]]}}, {"type": "Feature", "properties": {"name": "ABAlterObstgarten 104"}, "geometry": {"type": "Polygon", "coordinates": [[[8.585875148195418, 47.37531976090533], [8.585891847223111, 47.37531837684711], [8.585707949187645, 47.37429454844228], [8.585691250478721, 47.374295932474936], [8.585875148195418, 47.37531976090533]]]}}, {"type": "Feature", "properties": {"name": "ABAlterObstgarten 105"}, "geometry": {"type": "Polygon", "coordinates": [[[8.58589764365499, 47.375313500679155], [8.58591434268014, 47.37531211661765], [8.58573033853184, 47.37428769977597], [8.585713639825645, 47.374289083811895], [8.58589764365499, 47.375313500679155]]]}}, {"type": "Feature", "properties": {"name": "ABAlterObstgarten 106"}, "geometry": {"type": "Polygon", "coordinates": [[[8.585920139109257, 47.375307240448564], [8.585936838131861, 47.37530585638377], [8.58575272787026, 47.374280851105254], [8.58573602916679, 47.37428223514445], [8.585920139109257, 47.375307240448564]]]}}, {"type": "Feature", "properties": {"name": "ABAlterObstgarten 107"}, "geometry": {"type": "Polygon", "coordinates": [[[8.585942634558227, 47.375300980213524], [8.585959333578288, 47.37529959614544], [8.585775117202907, 47.374274002430134], [8.585758418502165, 47.37427538647261], [8.585942634558227, 47.375300980213524]]]}}, {"type": "Feature", "properties": {"name": "ABAlterObstgarten 108"}, "geometry": {"type": "Polygon", "coordinates": [[[8.585965130001894, 47.37529471997406], [8.585981829019408, 47.375293335902676], [8.585797506529778, 47.37426715375062], [8.585780807831762, 47.374268537796375], [8.585965130001894, 47.37529471997406]]]}}, {"type": "Feature", "properties": {"name": "ABAlterObstgarten 109"}, "geometry": {"type": "Polygon", "coordinates": [[[8.58598762544026, 47.375288459730136], [8.586004324455232, 47.37528707565548], [8.585819895850873, 47.37426030506671], [8.585803197155586, 47.37426168911573], [8.58598762544026, 47.375288459730136]]]}}, {"type": "Feature", "properties": {"name": "ABAlterObstgarten 110"}, "geometry": {"type": "Polygon", "coordinates": [[[8.586010120873329, 47.37528219948179], [8.586026819885758, 47.37528081540385], [8.585842285166196, 47.374253456378405], [8.585825586473636, 47.37425484043068], [8.586010120873329, 47.37528219948179]]]}}, {"type": "Feature", "properties": {"name": "ABAlterObstgarten 111"}, "geometry": {"type": "Polygon", "coordinates": [[[8.586032616301093, 47.37527593922899], [8.586049315310978, 47.37527455514776], [8.585864674475742, 47.374246607685684], [8.58584797578591, 47.37424799174125], [8.586032616301093, 47.37527593922899]]]}}, {"type": "Feature", "properties": {"name": "ABAlterObstgarten 112"}, "geometry": {"type": "Polygon", "coordinates": [[[8.586055111723562, 47.375269678971776], [8.5860718107309, 47.37526829488726], [8.585890079433746, 47.37425654826462], [8.585873380741415, 47.374257932323864], [8.586055111723562, 47.375269678971776]]]}}, {"type": "Feature", "properties": {"name": "ABAlterObstgarten 113"}, "geometry": {"type": "Polygon", "coordinates": [[[8.586077607140725, 47.375263418710105], [8.58609430614552, 47.3752620346223], [8.585922276657874, 47.37430430372458], [8.585905577951268, 47.37430568778847], [8.586077607140725, 47.375263418710105]]]}}, {"type": "Feature", "properties": {"name": "ABAlterObstgarten 114"}, "geometry": {"type": "Polygon", "coordinates": [[[8.58610010255259, 47.375257158444], [8.586116801554839, 47.37525577435291], [8.58595447393991, 47.3743520591753], [8.585937775219033, 47.37435344324381], [8.58610010255259, 47.375257158444]]]}}, {"type": "Feature", "properties": {"name": "ABAlterObstgarten 115"}, "geometry": {"type": "Polygon", "coordinates": [[[8.586122597959156, 47.37525089817346], [8.586139296958862, 47.37524951407908], [8.585986671279864, 47.374399814616744], [8.58596997254471, 47.3744011986899], [8.586122597959156, 47.37525089817346]]]}}, {"type": "Feature", "properties": {"name": "ABAlterObstgarten 116"}, "geometry": {"type": "Polygon", "coordinates": [[[8.586145093360416, 47.37524463789849], [8.58616179235758, 47.37524325380082], [8.586018868677721, 47.374447570048936], [8.586002169928296, 47.37444895412671], [8.586145093360416, 47.37524463789849]]]}}, {"type": "Feature", "properties": {"name": "ABAlterObstgarten 117"}, "geometry": {"type": "Polygon", "coordinates": [[[8.586167588756382, 47.37523837761906], [8.586184287751, 47.375236993518115], [8.586051066133495, 47.37449532547186], [8.586034367369797, 47.37449670955428], [8.586167588756382, 47.37523837761906]]]}}, {"type": "Feature", "properties": {"name": "ABAlterObstgarten 118"}, "geometry": {"type": "Polygon", "coordinates": [[[8.586190084147047, 47.37523211733522], [8.586206783139119, 47.375230733230985], [8.58608326364718, 47.37454308088551], [8.58606656486921, 47.374544464972566], [8.586190084147047, 47.37523211733522]]]}}, {"type": "Feature", "properties": {"name": "ABAlterObstgarten 119"}, "geometry": {"type": "Polygon", "coordinates": [[[8.586212579532404, 47.37522585704692], [8.586229278521934, 47.3752244729394], [8.586115461218773, 47.374590836289904], [8.586098762426529, 47.37459222038159], [8.586212579532404, 47.37522585704692]]]}}, {"type": "Feature", "properties": {"name": "ABAlterObstgarten 120"}, "geometry": {"type": "Polygon", "coordinates": [[[8.586235074912466, 47.3752195967542], [8.58625177389945, 47.37521821264339], [8.58614765884828, 47.37463859168503], [8.586130960041762, 47.374639975781356], [8.586235074912466, 47.3752195967542]]]}}, {"type": "Feature", "properties": {"name": "ABAlterObstgarten 121"}, "geometry": {"type": "Polygon", "coordinates": [[[8.586257570287229, 47.37521333645702], [8.586274269271668, 47.375211952342944], [8.5861798565357, 47.37468634707089], [8.586163157714909, 47.37468773117185], [8.586257570287229, 47.37521333645702]]]}}, {"type": "Feature", "properties": {"name": "ABAlterObstgarten 122"}, "geometry": {"type": "Polygon", "coordinates": [[[8.586280065656691, 47.37520707615543], [8.586296764638586, 47.375205692038044], [8.586212054281033, 47.37473410244749], [8.58619535544597, 47.37473548655309], [8.586280065656691, 47.37520707615543]]]}}, {"type": "Feature", "properties": {"name": "ABAlterObstgarten 123"}, "geometry": {"type": "Polygon", "coordinates": [[[8.58630256102085, 47.37520081584938], [8.5863192600002, 47.375199431728724], [8.586244252084276, 47.37478185781483], [8.586227553234938, 47.37478324192506], [8.58630256102085, 47.37520081584938]]]}}, {"type": "Feature", "properties": {"name": "ABAlterObstgarten 124"}, "geometry": {"type": "Polygon", "coordinates": [[[8.586325056379708, 47.3751945555389], [8.586341755356516, 47.37519317141495], [8.586276449945434, 47.37482961317289], [8.586259751081823, 47.37483099728777], [8.586325056379708, 47.3751945555389]]]}}, {"type": "Feature", "properties": {"name": "ABAlterObstgarten 125"}, "geometry": {"type": "Polygon", "coordinates": [[[8.586347551733269, 47.37518829522398], [8.586364250707529, 47.375186911096755], [8.586308647864502, 47.37487736852171], [8.586291948986617, 47.374878752641216], [8.586347551733269, 47.37518829522398]]]}}, {"type": "Feature", "properties": {"name": "ABAlterObstgarten 126"}, "geometry": {"type": "Polygon", "coordinates": [[[8.586370047081529, 47.375182034904626], [8.586386746053247, 47.37518065077411], [8.58634084584149, 47.37492512386126], [8.586324146949332, 47.374926507985386], [8.586370047081529, 47.375182034904626]]]}}, {"type": "Feature", "properties": {"name": "ABAlterObstgarten 127"}, "geometry": {"type": "Polygon", "coordinates": [[[8.586392542424486, 47.375175774580825], [8.586409241393659, 47.37517439044702], [8.586373043876383, 47.37497287919153], [8.586356344969952, 47.374974263320304], [8.586392542424486, 47.375175774580825]]]}}, {"type": "Feature", "properties": {"name": "ABAlterObstgarten 128"}, "geometry": {"type": "Polygon", "coordinates": [[[8.586415037762142, 47.375169514252605], [8.586431736728771, 47.375168130115505], [8.586405241969192, 47.375020634512545], [8.586388543048487, 47.37502201864596], [8.586415037762142, 47.375169514252605]]]}}, {"type": "Feature", "properties": {"name": "ABAlterObstgarten 129"}, "geometry": {"type": "Polygon", "coordinates": [[[8.586437533094498, 47.375163253919936], [8.586454232058584, 47.375161869779554], [8.586437440119914, 47.375068389824285], [8.586420741184936, 47.37506977396233], [8.586437533094498, 47.375163253919936]]]}}, {"type": "Feature", "properties": {"name": "ABAlterObstgarten 130"}, "geometry": {"type": "Polygon", "coordinates": [[[8.586460028421557, 47.37515699358282], [8.586476727383097, 47.375155609439155], [8.586469638328557, 47.37511614512678], [8.586452939379303, 47.37511752926946], [8.586460028421557, 47.37515699358282]]]}}]}