{
"type": "FeatureCollection",
"name": "ABAlterObstgarten_260306",
"crs": { "type": "name", "properties": { "name": "urn:ogc:def:crs:EPSG::32632" } },
"features": [
{ "type": "Feature", "properties": { "name": "ABAlterObstgarten 01", "GI": 0.42439585829398874, "MGRVI": 0.0733926684931729, "MGRVI_COLOR": "#a3e635" }, "geometry": { "type": "Polygon", "coordinates": [ [ [ 468555.428327129629906, 5246974.093559071421623 ], [ 468556.688694628770463, 5246973.937438067980111 ], [ 468550.549085810605902, 5246924.372271854430437 ], [ 468549.288718311639968, 5246924.528392858803272 ], [ 468555.428327129629906, 5246974.093559071421623 ] ] ] } },
{ "type": "Feature", "properties": { "name": "ABAlterObstgarten 02", "GI": 0.44299447814328652, "MGRVI": 0.12296785334127386, "MGRVI_COLOR": "#a3e635" }, "geometry": { "type": "Polygon", "coordinates": [ [ [ 468557.122673205332831, 5246973.386842950247228 ], [ 468558.383040704356972, 5246973.230721949599683 ], [ 468552.24920607538661, 5246923.712170862592757 ], [ 468550.988838576478884, 5246923.868291863240302 ], [ 468557.122673205332831, 5246973.386842950247228 ] ] ] } },
{ "type": "Feature", "properties": { "name": "ABAlterObstgarten 03", "GI": 0.43844831769150061, "MGRVI": 0.13112669289122994, "MGRVI_COLOR": "#a3e635" }, "geometry": { "type": "Polygon", "coordinates": [ [ [ 468558.81701928115217, 5246972.680126830004156 ], [ 468560.077386780234519, 5246972.524005828425288 ], [ 468553.949326340341941, 5246923.052069867029786 ], [ 468552.688958841259591, 5246923.208190869539976 ], [ 468558.81701928115217, 5246972.680126830004156 ] ] ] } },
{ "type": "Feature", "properties": { "name": "ABAlterObstgarten 04", "GI": 0.43698468267424639, "MGRVI": 0.13031500069159713, "MGRVI_COLOR": "#a3e635" }, "geometry": { "type": "Polygon", "coordinates": [ [ [ 468560.51136535697151, 5246971.973410711623728 ], [ 468561.771732855937444, 5246971.817289710044861 ], [ 468555.649446605239064, 5246922.391968873329461 ], [ 468554.38907910627313, 5246922.548089877702296 ], [ 468560.51136535697151, 5246971.973410711623728 ] ] ] } },
{ "type": "Feature", "properties": { "name": "ABAlterObstgarten 05", "GI": 0.42126584280637097, "MGRVI": 0.087478731141855393, "MGRVI_COLOR": "#a3e635" }, "geometry": { "type": "Polygon", "coordinates": [ [ [ 468562.205711432790849, 5246971.266694588586688 ], [ 468563.466078931873199, 5246971.110573587939143 ], [ 468557.349566870136186, 5246921.731867878697813 ], [ 468556.08919937099563, 5246921.887988882139325 ], [ 468562.205711432790849, 5246971.266694588586688 ] ] ] } },
{ "type": "Feature", "properties": { "name": "ABAlterObstgarten 06", "GI": 0.40115272389541845, "MGRVI": 0.033971298668269909, "MGRVI_COLOR": "#a3e635" }, "geometry": { "type": "Polygon", "coordinates": [ [ [ 468563.900057508610189, 5246970.559978473000228 ], [ 468565.160425007576123, 5246970.403857468627393 ], [ 468559.049687134858686, 5246921.071766886860132 ], [ 468557.789319635834545, 5246921.227887890301645 ], [ 468563.900057508610189, 5246970.559978473000228 ] ] ] } },
{ "type": "Feature", "properties": { "name": "ABAlterObstgarten 07", "GI": 0.40447223147731887, "MGRVI": 0.057599614310390804, "MGRVI_COLOR": "#a3e635" }, "geometry": { "type": "Polygon", "coordinates": [ [ [ 468565.594403584371321, 5246969.853262351825833 ], [ 468566.854771083395462, 5246969.697141348384321 ], [ 468560.749807399872225, 5246920.411665894091129 ], [ 468559.489439900731668, 5246920.567786895669997 ], [ 468565.594403584371321, 5246969.853262351825833 ] ] ] } },
{ "type": "Feature", "properties": { "name": "ABAlterObstgarten 08", "GI": 0.39438203193768179, "MGRVI": 0.049268066454653564, "MGRVI_COLOR": "#a3e635" }, "geometry": { "type": "Polygon", "coordinates": [ [ [ 468567.288749660190661, 5246969.146546230651438 ], [ 468568.549117159156594, 5246968.990425226278603 ], [ 468562.449927664594725, 5246919.751564897596836 ], [ 468561.189560165745206, 5246919.907685900107026 ], [ 468567.288749660190661, 5246969.146546230651438 ] ] ] } },
{ "type": "Feature", "properties": { "name": "ABAlterObstgarten 09", "GI": 0.38790367158352812, "MGRVI": 0.040463242160481097, "MGRVI_COLOR": "#a3e635" }, "geometry": { "type": "Polygon", "coordinates": [ [ [ 468568.983095735951792, 5246968.439830112271011 ], [ 468570.243463235092349, 5246968.283709110692143 ], [ 468564.15004792943364, 5246919.091463906690478 ], [ 468562.889680430351291, 5246919.247584909200668 ], [ 468568.983095735951792, 5246968.439830112271011 ] ] ] } },
{ "type": "Feature", "properties": { "name": "ABAlterObstgarten 10", "GI": 0.3865359202390431, "MGRVI": 0.049564230684489605, "MGRVI_COLOR": "#a3e635" }, "geometry": { "type": "Polygon", "coordinates": [ [ [ 468570.677441811771132, 5246967.733113992027938 ], [ 468571.937809310678858, 5246967.576992988586426 ], [ 468565.850168194214348, 5246918.43136291205883 ], [ 468564.589800695131999, 5246918.587483915500343 ], [ 468570.677441811771132, 5246967.733113992027938 ] ] ] } },
{ "type": "Feature", "properties": { "name": "ABAlterObstgarten 11", "GI": 0.38805013118593984, "MGRVI": 0.060351544819853165, "MGRVI_COLOR": "#a3e635" }, "geometry": { "type": "Polygon", "coordinates": [ [ [ 468572.371787887648679, 5246967.026397869922221 ], [ 468573.632155386498198, 5246966.870276868343353 ], [ 468567.550288459169678, 5246917.771261918358505 ], [ 468566.289920960145537, 5246917.927382919937372 ], [ 468572.371787887648679, 5246967.026397869922221 ] ] ] } },
{ "type": "Feature", "properties": { "name": "ABAlterObstgarten 12", "GI": 0.37951569645682365, "MGRVI": 0.024157353186673818, "MGRVI_COLOR": "#a3e635" }, "geometry": { "type": "Polygon", "coordinates": [ [ [ 468574.066133963351604, 5246966.319681752473116 ], [ 468575.326501462375745, 5246966.163560750894248 ], [ 468569.250408724066801, 5246917.111160924658179 ], [ 468567.990041224926244, 5246917.267281927168369 ], [ 468574.066133963351604, 5246966.319681752473116 ] ] ] } },
{ "type": "Feature", "properties": { "name": "ABAlterObstgarten 13", "GI": 0.38705867446450026, "MGRVI": 0.04428498334843585, "MGRVI_COLOR": "#a3e635" }, "geometry": { "type": "Polygon", "coordinates": [ [ [ 468575.760480039054528, 5246965.612965630367398 ], [ 468577.020847538078669, 5246965.456844626925886 ], [ 468570.950528988731094, 5246916.451059929095209 ], [ 468569.690161489823367, 5246916.607180933468044 ], [ 468575.760480039054528, 5246965.612965630367398 ] ] ] } },
{ "type": "Feature", "properties": { "name": "ABAlterObstgarten 14", "GI": 0.38526011452788461, "MGRVI": 0.039737577982011468, "MGRVI_COLOR": "#a3e635" }, "geometry": { "type": "Polygon", "coordinates": [ [ [ 468577.454826114932075, 5246964.906249511055648 ], [ 468578.715193614072632, 5246964.750128509476781 ], [ 468572.65064925380284, 5246915.790958935394883 ], [ 468571.390281754778698, 5246915.947079938836396 ], [ 468577.454826114932075, 5246964.906249511055648 ] ] ] } },
{ "type": "Feature", "properties": { "name": "ABAlterObstgarten 15", "GI": 0.3977191679054336, "MGRVI": 0.06862689857236895, "MGRVI_COLOR": "#a3e635" }, "geometry": { "type": "Polygon", "coordinates": [ [ [ 468579.149172190576792, 5246964.199533394537866 ], [ 468580.409539689775556, 5246964.043412390165031 ], [ 468574.350769518467132, 5246915.130857943557203 ], [ 468573.090402019501198, 5246915.286978946067393 ], [ 468579.149172190576792, 5246964.199533394537866 ] ] ] } },
{ "type": "Feature", "properties": { "name": "ABAlterObstgarten 16", "GI": 0.37865276046194163, "MGRVI": -0.020657670347003092, "MGRVI_COLOR": "#eab308" }, "geometry": { "type": "Polygon", "coordinates": [ [ [ 468580.843518266570754, 5246963.492817268706858 ], [ 468582.103885765653104, 5246963.336696268059313 ], [ 468576.050889783306047, 5246914.47075694706291 ], [ 468574.790522284340113, 5246914.626877951435745 ], [ 468580.843518266570754, 5246963.492817268706858 ] ] ] } },
{ "type": "Feature", "properties": { "name": "ABAlterObstgarten 17", "GI": 0.34423596820639307, "MGRVI": -0.063102709025362858, "MGRVI_COLOR": "#eab308" }, "geometry": { "type": "Polygon", "coordinates": [ [ [ 468582.537864342331886, 5246962.786101152189076 ], [ 468583.798231841414236, 5246962.629980148747563 ], [ 468577.75101004820317, 5246913.810655955225229 ], [ 468576.490642549237236, 5246913.966776956804097 ], [ 468582.537864342331886, 5246962.786101152189076 ] ] ] } },
{ "type": "Feature", "properties": { "name": "ABAlterObstgarten 18", "GI": 0.35121608280081718, "MGRVI": -0.035163352250156037, "MGRVI_COLOR": "#eab308" }, "geometry": { "type": "Polygon", "coordinates": [ [ [ 468584.232210417918395, 5246962.079385031946003 ], [ 468585.492577917058952, 5246961.923264030367136 ], [ 468579.451130313042086, 5246913.150554961524904 ], [ 468578.190762814076152, 5246913.306675964966416 ], [ 468584.232210417918395, 5246962.079385031946003 ] ] ] } },
{ "type": "Feature", "properties": { "name": "ABAlterObstgarten 19", "GI": 0.33655537941350794, "MGRVI": -0.071454275736817841, "MGRVI_COLOR": "#eab308" }, "geometry": { "type": "Polygon", "coordinates": [ [ [ 468585.926556493737735, 5246961.372668911702931 ], [ 468587.186923992878292, 5246961.216547909192741 ], [ 468581.151250577822793, 5246912.490453967824578 ], [ 468579.890883078856859, 5246912.646574971266091 ], [ 468585.926556493737735, 5246961.372668911702931 ] ] ] } },
{ "type": "Feature", "properties": { "name": "ABAlterObstgarten 20", "GI": 0.33396136496635487, "MGRVI": -0.066568587415122352, "MGRVI_COLOR": "#eab308" }, "geometry": { "type": "Polygon", "coordinates": [ [ [ 468587.620902569789905, 5246960.665952791459858 ], [ 468588.881270068814047, 5246960.509831788018346 ], [ 468582.851370842894539, 5246911.830352975986898 ], [ 468581.591003343753982, 5246911.986473976634443 ], [ 468587.620902569789905, 5246960.665952791459858 ] ] ] } },
{ "type": "Feature", "properties": { "name": "ABAlterObstgarten 21", "GI": 0.33681330862506564, "MGRVI": -0.064422532196291432, "MGRVI_COLOR": "#eab308" }, "geometry": { "type": "Polygon", "coordinates": [ [ [ 468589.315848393714987, 5246959.964010143652558 ], [ 468590.576215892855544, 5246959.807889142073691 ], [ 468584.551499439054169, 5246911.170250936411321 ], [ 468583.29113193997182, 5246911.326371937058866 ], [ 468589.315848393714987, 5246959.964010143652558 ] ] ] } },
{ "type": "Feature", "properties": { "name": "ABAlterObstgarten 22", "GI": 0.33547526357987839, "MGRVI": -0.086291264564538256, "MGRVI_COLOR": "#eab308" }, "geometry": { "type": "Polygon", "coordinates": [ [ [ 468591.020197324512992, 5246959.336908016353846 ], [ 468592.280564823420718, 5246959.180787012912333 ], [ 468586.251758656580932, 5246910.510132481344044 ], [ 468584.991391157673206, 5246910.666253482922912 ], [ 468591.020197324512992, 5246959.336908016353846 ] ] ] } },
{ "type": "Feature", "properties": { "name": "ABAlterObstgarten 23", "GI": 0.33656051358839556, "MGRVI": -0.087410758679181688, "MGRVI_COLOR": "#eab308" }, "geometry": { "type": "Polygon", "coordinates": [ [ [ 468592.724546255194582, 5246958.70980588812381 ], [ 468593.984913754218724, 5246958.55368488561362 ], [ 468587.952017874165904, 5246909.85001403093338 ], [ 468586.691650375025347, 5246910.006135032512248 ], [ 468592.724546255194582, 5246958.70980588812381 ] ] ] } },
{ "type": "Feature", "properties": { "name": "ABAlterObstgarten 24", "GI": 0.3387795046168583, "MGRVI": -0.081233509045931004, "MGRVI_COLOR": "#eab308" }, "geometry": { "type": "Polygon", "coordinates": [ [ [ 468594.428895185992587, 5246958.082703757099807 ], [ 468595.689262685133144, 5246957.926582754589617 ], [ 468589.652277091750875, 5246909.189895575866103 ], [ 468588.391909592901357, 5246909.346016580238938 ], [ 468594.428895185992587, 5246958.082703757099807 ] ] ] } },
{ "type": "Feature", "properties": { "name": "ABAlterObstgarten 25", "GI": 0.33145058571046415, "MGRVI": -0.080260102589623336, "MGRVI_COLOR": "#eab308" }, "geometry": { "type": "Polygon", "coordinates": [ [ [ 468596.133244116674177, 5246957.455601629801095 ], [ 468597.393611615756527, 5246957.299480628222227 ], [ 468591.352536309394054, 5246908.529777124524117 ], [ 468590.092168810369913, 5246908.685898127965629 ], [ 468596.133244116674177, 5246957.455601629801095 ] ] ] } },
{ "type": "Feature", "properties": { "name": "ABAlterObstgarten 26", "GI": 0.39048515785205207, "MGRVI": 0.15285270680943638, "MGRVI_COLOR": "#a3e635" }, "geometry": { "type": "Polygon", "coordinates": [ [ [ 468597.837593047588598, 5246956.828499500639737 ], [ 468599.097960546729155, 5246956.672378498129547 ], [ 468593.052795527270064, 5246907.86965867318213 ], [ 468591.792428028245922, 5246908.025779673829675 ], [ 468597.837593047588598, 5246956.828499500639737 ] ] ] } },
{ "type": "Feature", "properties": { "name": "ABAlterObstgarten 27", "GI": 0.34956331891892584, "MGRVI": -0.0034413409585774915, "MGRVI_COLOR": "#eab308" }, "geometry": { "type": "Polygon", "coordinates": [ [ [ 468599.541941978386603, 5246956.201397373341024 ], [ 468600.80230947729433, 5246956.045276368036866 ], [ 468594.753054744680412, 5246907.209540219977498 ], [ 468593.492687245772686, 5246907.365661223419011 ], [ 468599.541941978386603, 5246956.201397373341024 ] ] ] } },
{ "type": "Feature", "properties": { "name": "ABAlterObstgarten 28", "GI": 0.4129996389770979, "MGRVI": 0.1754194628145859, "MGRVI_COLOR": "#a3e635" }, "geometry": { "type": "Polygon", "coordinates": [ [ [ 468601.24629090889357, 5246955.574295245110989 ], [ 468602.506658407917712, 5246955.418174242600799 ], [ 468596.45331396209076, 5246906.549421770498157 ], [ 468595.192946463124827, 5246906.705542773939669 ], [ 468601.24629090889357, 5246955.574295245110989 ] ] ] } },
{ "type": "Feature", "properties": { "name": "ABAlterObstgarten 29", "GI": 0.34889108948540809, "MGRVI": -0.0066658496085231674, "MGRVI_COLOR": "#eab308" }, "geometry": { "type": "Polygon", "coordinates": [ [ [ 468602.95063983957516, 5246954.947193116880953 ], [ 468604.211007338599302, 5246954.791072113439441 ], [ 468598.15357317996677, 5246905.889303317293525 ], [ 468596.893205680768006, 5246906.045424318872392 ], [ 468602.95063983957516, 5246954.947193116880953 ] ] ] } },
{ "type": "Feature", "properties": { "name": "ABAlterObstgarten 30", "GI": 0.34740022965042006, "MGRVI": -0.0116151883033433, "MGRVI_COLOR": "#eab308" }, "geometry": { "type": "Polygon", "coordinates": [ [ [ 468604.654988770431373, 5246954.320090988650918 ], [ 468605.915356269455515, 5246954.163969984278083 ], [ 468599.853832397435326, 5246905.229184866882861 ], [ 468598.593464898352977, 5246905.385305869393051 ], [ 468604.654988770431373, 5246954.320090988650918 ] ] ] } },
{ "type": "Feature", "properties": { "name": "ABAlterObstgarten 31", "GI": 0.35297858614921268, "MGRVI": 0.0044703073915722405, "MGRVI_COLOR": "#a3e635" }, "geometry": { "type": "Polygon", "coordinates": [ [ [ 468606.359337701345794, 5246953.69298885948956 ], [ 468607.619705200137105, 5246953.53686785697937 ], [ 468601.55409161519492, 5246904.569066413678229 ], [ 468600.293724116170779, 5246904.725187417119741 ], [ 468606.359337701345794, 5246953.69298885948956 ] ] ] } },
{ "type": "Feature", "properties": { "name": "ABAlterObstgarten 32", "GI": 0.35035855832741969, "MGRVI": -0.0077283125505104178, "MGRVI_COLOR": "#eab308" }, "geometry": { "type": "Polygon", "coordinates": [ [ [ 468608.063686632027384, 5246953.065886732190847 ], [ 468609.324054130876902, 5246952.909765728749335 ], [ 468603.254350832838099, 5246903.90894796140492 ], [ 468601.993983333697543, 5246904.065068965777755 ], [ 468608.063686632027384, 5246953.065886732190847 ] ] ] } },
{ "type": "Feature", "properties": { "name": "ABAlterObstgarten 33", "GI": 0.36063607507742079, "MGRVI": 0.02531905835299491, "MGRVI_COLOR": "#a3e635" }, "geometry": { "type": "Polygon", "coordinates": [ [ [ 468609.768035562534351, 5246952.438784603960812 ], [ 468611.028403061558492, 5246952.282663602381945 ], [ 468604.954610050306655, 5246903.248829510994256 ], [ 468603.694242551224306, 5246903.4049505116418 ], [ 468609.768035562534351, 5246952.438784603960812 ] ] ] } },
{ "type": "Feature", "properties": { "name": "ABAlterObstgarten 34", "GI": 0.35021215887069701, "MGRVI": -0.0092706186421024992, "MGRVI_COLOR": "#eab308" }, "geometry": { "type": "Polygon", "coordinates": [ [ [ 468611.472384493448772, 5246951.811682472936809 ], [ 468612.732751992472913, 5246951.655561468563974 ], [ 468606.65486926806625, 5246902.588711054995656 ], [ 468605.394501768925693, 5246902.744832059368491 ], [ 468611.472384493448772, 5246951.811682472936809 ] ] ] } },
{ "type": "Feature", "properties": { "name": "ABAlterObstgarten 35", "GI": 0.3383806193935211, "MGRVI": -0.068616140171060519, "MGRVI_COLOR": "#eab308" }, "geometry": { "type": "Polygon", "coordinates": [ [ [ 468613.08673342387192, 5246951.184580344706774 ], [ 468614.347100922837853, 5246951.028459344059229 ], [ 468608.265128485218156, 5246901.928592606447637 ], [ 468607.004760986194015, 5246902.084713608957827 ], [ 468613.08673342387192, 5246951.184580344706774 ] ] ] } },
{ "type": "Feature", "properties": { "name": "ABAlterObstgarten 36", "GI": 0.3377025342013471, "MGRVI": -0.04005066280968296, "MGRVI_COLOR": "#eab308" }, "geometry": { "type": "Polygon", "coordinates": [ [ [ 468614.791082354728132, 5246950.557478216476738 ], [ 468616.051449853810482, 5246950.401357213035226 ], [ 468609.96538770297775, 5246901.268474152311683 ], [ 468608.705020204011817, 5246901.424595154821873 ], [ 468614.791082354728132, 5246950.557478216476738 ] ] ] } },
{ "type": "Feature", "properties": { "name": "ABAlterObstgarten 37", "GI": 0.34400920770252819, "MGRVI": -0.03213436371244946, "MGRVI_COLOR": "#eab308" }, "geometry": { "type": "Polygon", "coordinates": [ [ [ 468616.495431285409722, 5246949.930376089178026 ], [ 468617.755798784433864, 5246949.774255085736513 ], [ 468611.665646920562722, 5246900.608355702832341 ], [ 468610.40527942153858, 5246900.764476705342531 ], [ 468616.495431285409722, 5246949.930376089178026 ] ] ] } },
{ "type": "Feature", "properties": { "name": "ABAlterObstgarten 38", "GI": 0.3297916137967315, "MGRVI": -0.11566352455196112, "MGRVI_COLOR": "#eab308" }, "geometry": { "type": "Polygon", "coordinates": [ [ [ 468618.199780216091312, 5246949.303273958154023 ], [ 468619.460147715290077, 5246949.147152955643833 ], [ 468613.365906138264108, 5246899.948237247765064 ], [ 468612.105538639007136, 5246900.104358252137899 ], [ 468618.199780216091312, 5246949.303273958154023 ] ] ] } },
{ "type": "Feature", "properties": { "name": "ABAlterObstgarten 39", "GI": 0.34027744181063552, "MGRVI": -0.050122805248650086, "MGRVI_COLOR": "#eab308" }, "geometry": { "type": "Polygon", "coordinates": [ [ [ 468619.904129147354979, 5246948.676171832717955 ], [ 468621.16449664614629, 5246948.520050829276443 ], [ 468615.066165356140118, 5246899.288118798285723 ], [ 468613.805797857115977, 5246899.444239798933268 ], [ 468619.904129147354979, 5246948.676171832717955 ] ] ] } },
{ "type": "Feature", "properties": { "name": "ABAlterObstgarten 40", "GI": 0.34349599101359357, "MGRVI": -0.039228341313440968, "MGRVI_COLOR": "#eab308" }, "geometry": { "type": "Polygon", "coordinates": [ [ [ 468621.608478077803738, 5246948.049069702625275 ], [ 468622.868845576886088, 5246947.892948701046407 ], [ 468616.766424573550466, 5246898.628000347875059 ], [ 468615.506057074526325, 5246898.784121350385249 ], [ 468621.608478077803738, 5246948.049069702625275 ] ] ] } },
{ "type": "Feature", "properties": { "name": "ABAlterObstgarten 41", "GI": 0.33623411593455027, "MGRVI": -0.069986071393242061, "MGRVI_COLOR": "#eab308" }, "geometry": { "type": "Polygon", "coordinates": [ [ [ 468623.312827008601744, 5246947.421967573463917 ], [ 468624.573194507567678, 5246947.265846569091082 ], [ 468618.466683791251853, 5246897.967881890945137 ], [ 468617.206316292227712, 5246898.124002895317972 ], [ 468623.312827008601744, 5246947.421967573463917 ] ] ] } },
{ "type": "Feature", "properties": { "name": "ABAlterObstgarten 42", "GI": 0.33614483798987127, "MGRVI": -0.073270473809706957, "MGRVI_COLOR": "#eab308" }, "geometry": { "type": "Polygon", "coordinates": [ [ [ 468625.017175939225126, 5246946.794865447096527 ], [ 468626.277543438307475, 5246946.638744443655014 ], [ 468620.166943008778617, 5246897.307763442397118 ], [ 468618.906575509696268, 5246897.463884444907308 ], [ 468625.017175939225126, 5246946.794865447096527 ] ] ] } },
{ "type": "Feature", "properties": { "name": "ABAlterObstgarten 43", "GI": 0.33186163383979594, "MGRVI": -0.074074813113610971, "MGRVI_COLOR": "#eab308" }, "geometry": { "type": "Polygon", "coordinates": [ [ [ 468626.721524869964924, 5246946.167763314209878 ], [ 468627.981892368989065, 5246946.011642313562334 ], [ 468621.867202226538211, 5246896.647644987329841 ], [ 468620.606834727572277, 5246896.803765990771353 ], [ 468626.721524869964924, 5246946.167763314209878 ] ] ] } },
{ "type": "Feature", "properties": { "name": "ABAlterObstgarten 44", "GI": 0.33128630454467145, "MGRVI": -0.097281018484814102, "MGRVI_COLOR": "#eab308" }, "geometry": { "type": "Polygon", "coordinates": [ [ [ 468628.425873800704721, 5246945.540661189705133 ], [ 468629.686241299903486, 5246945.384540185332298 ], [ 468623.56746144418139, 5246895.987526539713144 ], [ 468622.307093944982626, 5246896.143647541292012 ], [ 468628.425873800704721, 5246945.540661189705133 ] ] ] } },
{ "type": "Feature", "properties": { "name": "ABAlterObstgarten 45", "GI": 0.34162853734821769, "MGRVI": -0.071098689215793862, "MGRVI_COLOR": "#eab308" }, "geometry": { "type": "Polygon", "coordinates": [ [ [ 468630.130222731619142, 5246944.91355905868113 ], [ 468631.390590230468661, 5246944.757438057102263 ], [ 468625.267720661591738, 5246895.327408083714545 ], [ 468624.007353162451182, 5246895.483529086224735 ], [ 468630.130222731619142, 5246944.91355905868113 ] ] ] } },
{ "type": "Feature", "properties": { "name": "ABAlterObstgarten 46", "GI": 0.34431752373778007, "MGRVI": -0.061418185359580123, "MGRVI_COLOR": "#eab308" }, "geometry": { "type": "Polygon", "coordinates": [ [ [ 468631.834571662126109, 5246944.28645693231374 ], [ 468633.094939161266666, 5246944.130335928872228 ], [ 468626.967979879118502, 5246894.667289634235203 ], [ 468625.707612380152568, 5246894.823410634882748 ], [ 468631.834571662126109, 5246944.28645693231374 ] ] ] } },
{ "type": "Feature", "properties": { "name": "ABAlterObstgarten 47", "GI": 0.34336220816368634, "MGRVI": -0.065108613412627553, "MGRVI_COLOR": "#eab308" }, "geometry": { "type": "Polygon", "coordinates": [ [ [ 468633.538920592807699, 5246943.65935480222106 ], [ 468634.799288091948256, 5246943.503233801573515 ], [ 468628.668239096761681, 5246894.007171181030571 ], [ 468627.407871597795747, 5246894.163292185403407 ], [ 468633.538920592807699, 5246943.65935480222106 ] ] ] } },
{ "type": "Feature", "properties": { "name": "ABAlterObstgarten 48", "GI": 0.35006123413395507, "MGRVI": -0.042578911744538976, "MGRVI_COLOR": "#eab308" }, "geometry": { "type": "Polygon", "coordinates": [ [ [ 468635.243269523780327, 5246943.032252674922347 ], [ 468636.503637022920884, 5246942.876131672412157 ], [ 468630.368498314521275, 5246893.347052730619907 ], [ 468629.108130815613549, 5246893.503173732198775 ], [ 468635.243269523780327, 5246943.032252674922347 ] ] ] } },
{ "type": "Feature", "properties": { "name": "ABAlterObstgarten 49", "GI": 0.35057240294229802, "MGRVI": -0.037358708020763312, "MGRVI_COLOR": "#eab308" }, "geometry": { "type": "Polygon", "coordinates": [ [ [ 468636.947618454578333, 5246942.405150545760989 ], [ 468638.207985953660682, 5246942.249029542319477 ], [ 468632.068757532164454, 5246892.686934277415276 ], [ 468630.808390033256728, 5246892.843055279925466 ], [ 468636.947618454578333, 5246942.405150545760989 ] ] ] } },
{ "type": "Feature", "properties": { "name": "ABAlterObstgarten 50", "GI": 0.35032650878689947, "MGRVI": -0.042119907611178134, "MGRVI_COLOR": "#eab308" }, "geometry": { "type": "Polygon", "coordinates": [ [ [ 468638.651967385259923, 5246941.778048415668309 ], [ 468639.912334884284064, 5246941.621927412226796 ], [ 468633.76901674963301, 5246892.026815823279321 ], [ 468632.508649250667077, 5246892.182936826720834 ], [ 468638.651967385259923, 5246941.778048415668309 ] ] ] } },
{ "type": "Feature", "properties": { "name": "ABAlterObstgarten 51", "GI": 0.34171174855259062, "MGRVI": -0.031819534818159571, "MGRVI_COLOR": "#eab308" }, "geometry": { "type": "Polygon", "coordinates": [ [ [ 468640.35631631599972, 5246941.150946289300919 ], [ 468641.616683815140277, 5246940.994825284928083 ], [ 468635.469275967450812, 5246891.366697374731302 ], [ 468634.208908468426671, 5246891.52281837631017 ], [ 468640.35631631599972, 5246941.150946289300919 ] ] ] } },
{ "type": "Feature", "properties": { "name": "ABAlterObstgarten 52", "GI": 0.38699782262068522, "MGRVI": 0.10718712147289826, "MGRVI_COLOR": "#a3e635" }, "geometry": { "type": "Polygon", "coordinates": [ [ [ 468642.060665246797726, 5246940.523844160139561 ], [ 468643.321032745705452, 5246940.367723155766726 ], [ 468637.169535185093991, 5246890.706578920595348 ], [ 468635.909167686128058, 5246890.862699923105538 ], [ 468642.060665246797726, 5246940.523844160139561 ] ] ] } },
{ "type": "Feature", "properties": { "name": "ABAlterObstgarten 53", "GI": 0.40443784847411096, "MGRVI": 0.15131363517160609, "MGRVI_COLOR": "#a3e635" }, "geometry": { "type": "Polygon", "coordinates": [ [ [ 468643.765014177537523, 5246939.89674203004688 ], [ 468645.025381676503457, 5246939.740621029399335 ], [ 468638.869794402562547, 5246890.046460470184684 ], [ 468637.609426903713029, 5246890.202581471763551 ], [ 468643.765014177537523, 5246939.89674203004688 ] ] ] } },
{ "type": "Feature", "properties": { "name": "ABAlterObstgarten 54", "GI": 0.36405077735041186, "MGRVI": 0.027244629101276289, "MGRVI_COLOR": "#a3e635" }, "geometry": { "type": "Polygon", "coordinates": [ [ [ 468645.469363108219113, 5246939.269639902748168 ], [ 468646.729730607301462, 5246939.113518900237978 ], [ 468640.570053620205726, 5246889.386342018842697 ], [ 468639.309686121239793, 5246889.542463021352887 ], [ 468645.469363108219113, 5246939.269639902748168 ] ] ] } },
{ "type": "Feature", "properties": { "name": "ABAlterObstgarten 55", "GI": 0.39539809609013016, "MGRVI": 0.11895996075949881, "MGRVI_COLOR": "#a3e635" }, "geometry": { "type": "Polygon", "coordinates": [ [ [ 468647.173712038667873, 5246938.642537774518132 ], [ 468648.434079537692014, 5246938.486416772007942 ], [ 468642.270312837616075, 5246888.726223566569388 ], [ 468641.009945338533726, 5246888.8823445700109 ], [ 468647.173712038667873, 5246938.642537774518132 ] ] ] } },
{ "type": "Feature", "properties": { "name": "ABAlterObstgarten 56", "GI": 0.3720393079171404, "MGRVI": 0.054132697287825271, "MGRVI_COLOR": "#a3e635" }, "geometry": { "type": "Polygon", "coordinates": [ [ [ 468648.878060969756916, 5246938.015435646288097 ], [ 468650.13842846872285, 5246937.859314641915262 ], [ 468643.970572055492084, 5246888.066105112433434 ], [ 468642.710204556409735, 5246888.222226115874946 ], [ 468648.878060969756916, 5246938.015435646288097 ] ] ] } },
{ "type": "Feature", "properties": { "name": "ABAlterObstgarten 57", "GI": 0.33711391564483395, "MGRVI": -0.082030294584765975, "MGRVI_COLOR": "#eab308" }, "geometry": { "type": "Polygon", "coordinates": [ [ [ 468650.582365483976901, 5246937.388339096680284 ], [ 468651.84273298305925, 5246937.232218095101416 ], [ 468645.667633853270672, 5246887.380537992343307 ], [ 468644.407266354071908, 5246887.536658995784819 ], [ 468650.582365483976901, 5246937.388339096680284 ] ] ] } },
{ "type": "Feature", "properties": { "name": "ABAlterObstgarten 58", "GI": 0.33455432673731733, "MGRVI": -0.073944749313434949, "MGRVI_COLOR": "#eab308" }, "geometry": { "type": "Polygon", "coordinates": [ [ [ 468652.286522391426843, 5246936.761261096224189 ], [ 468653.546889890276361, 5246936.605140090920031 ], [ 468647.354069788882043, 5246886.610398284159601 ], [ 468646.093702289857902, 5246886.766519287601113 ], [ 468652.286522391426843, 5246936.761261096224189 ] ] ] } },
{ "type": "Feature", "properties": { "name": "ABAlterObstgarten 59", "GI": 0.35219606856624913, "MGRVI": -0.0054902962118703411, "MGRVI_COLOR": "#eab308" }, "geometry": { "type": "Polygon", "coordinates": [ [ [ 468654.507169091782998, 5246940.244990872219205 ], [ 468655.76753659080714, 5246940.088869869709015 ], [ 468649.047680445306469, 5246885.839357133023441 ], [ 468647.787312946107704, 5246885.995478136464953 ], [ 468654.507169091782998, 5246940.244990872219205 ] ] ] } },
{ "type": "Feature", "properties": { "name": "ABAlterObstgarten 60", "GI": 0.37656603922140042, "MGRVI": 0.060676645929091, "MGRVI_COLOR": "#a3e635" }, "geometry": { "type": "Polygon", "coordinates": [ [ [ 468656.931579974887427, 5246945.350505627691746 ], [ 468658.191947474027984, 5246945.194384625181556 ], [ 468650.744121652736794, 5246885.067960347048938 ], [ 468649.48375415377086, 5246885.224081350490451 ], [ 468656.931579974887427, 5246945.350505627691746 ] ] ] } },
{ "type": "Feature", "properties": { "name": "ABAlterObstgarten 61", "GI": 0.33605308580601051, "MGRVI": -0.058373555582313566, "MGRVI_COLOR": "#eab308" }, "geometry": { "type": "Polygon", "coordinates": [ [ [ 468659.355990858457517, 5246950.456020382232964 ], [ 468660.616358357307035, 5246950.299899381585419 ], [ 468652.440562860632781, 5246884.296563557349145 ], [ 468651.180195361550432, 5246884.452684561721981 ], [ 468659.355990858457517, 5246950.456020382232964 ] ] ] } },
{ "type": "Feature", "properties": { "name": "ABAlterObstgarten 62", "GI": 0.33205999432479838, "MGRVI": -0.073576615108135096, "MGRVI_COLOR": "#eab308" }, "geometry": { "type": "Polygon", "coordinates": [ [ [ 468661.61487563024275, 5246954.24409182369709 ], [ 468662.875243129325099, 5246954.087970820255578 ], [ 468654.134704693802632, 5246883.525455672293901 ], [ 468652.874337194720283, 5246883.681576672941446 ], [ 468661.61487563024275, 5246954.24409182369709 ] ] ] } },
{ "type": "Feature", "properties": { "name": "ABAlterObstgarten 63", "GI": 0.33611509925424538, "MGRVI": -0.058293967040246517, "MGRVI_COLOR": "#eab308" }, "geometry": { "type": "Polygon", "coordinates": [ [ [ 468663.522990557481535, 5246955.240341573022306 ], [ 468664.783358056563884, 5246955.084220570512116 ], [ 468655.823973873921204, 5246882.754959992133081 ], [ 468654.56360637495527, 5246882.911080994643271 ], [ 468663.522990557481535, 5246955.240341573022306 ] ] ] } },
{ "type": "Feature", "properties": { "name": "ABAlterObstgarten 64", "GI": 0.3688456114156512, "MGRVI": 0.0400955000001934, "MGRVI_COLOR": "#a3e635" }, "geometry": { "type": "Polygon", "coordinates": [ [ [ 468665.431105484487489, 5246956.236591320484877 ], [ 468666.691472983395215, 5246956.080470319837332 ], [ 468657.513243053748738, 5246881.98446431197226 ], [ 468656.252875554724596, 5246882.14058531448245 ], [ 468665.431105484487489, 5246956.236591320484877 ] ] ] } },
{ "type": "Feature", "properties": { "name": "ABAlterObstgarten 65", "GI": 0.33927962566132164, "MGRVI": -0.044891637967300176, "MGRVI_COLOR": "#eab308" }, "geometry": { "type": "Polygon", "coordinates": [ [ [ 468667.219220411439892, 5246957.232841069810092 ], [ 468668.479587910522241, 5246957.076720067299902 ], [ 468659.082512233988382, 5246881.213968630880117 ], [ 468657.822144734906033, 5246881.370089633390307 ], [ 468667.219220411439892, 5246957.232841069810092 ] ] ] } },
{ "type": "Feature", "properties": { "name": "ABAlterObstgarten 66", "GI": 0.34381873921219736, "MGRVI": -0.033922200065712671, "MGRVI_COLOR": "#eab308" }, "geometry": { "type": "Polygon", "coordinates": [ [ [ 468669.127335338504054, 5246958.229090820997953 ], [ 468670.387702837644611, 5246958.072969818487763 ], [ 468660.771781414106954, 5246880.443472953513265 ], [ 468659.511413914966397, 5246880.599593956954777 ], [ 468669.127335338504054, 5246958.229090820997953 ] ] ] } },
{ "type": "Feature", "properties": { "name": "ABAlterObstgarten 67", "GI": 0.33868396082994834, "MGRVI": -0.046490265629912875, "MGRVI_COLOR": "#eab308" }, "geometry": { "type": "Polygon", "coordinates": [ [ [ 468671.0354502654518, 5246959.225340566597879 ], [ 468672.295817764417734, 5246959.069219565019011 ], [ 468662.461050593934488, 5246879.672977271489799 ], [ 468661.200683094793931, 5246879.829098273999989 ], [ 468671.0354502654518, 5246959.225340566597879 ] ] ] } },
{ "type": "Feature", "properties": { "name": "ABAlterObstgarten 68", "GI": 0.35344100611699991, "MGRVI": -0.0064633909058276788, "MGRVI_COLOR": "#eab308" }, "geometry": { "type": "Polygon", "coordinates": [ [ [ 468672.943565192515962, 5246960.221590314991772 ], [ 468674.203932691656519, 5246960.065469314344227 ], [ 468664.150319774111267, 5246878.902481590397656 ], [ 468662.88995227497071, 5246879.058602593839169 ], [ 468672.943565192515962, 5246960.221590314991772 ] ] ] } },
{ "type": "Feature", "properties": { "name": "ABAlterObstgarten 69", "GI": 0.34034468087154862, "MGRVI": -0.051192438465605852, "MGRVI_COLOR": "#eab308" }, "geometry": { "type": "Polygon", "coordinates": [ [ [ 468674.851680119638331, 5246961.217840067110956 ], [ 468676.112047618662473, 5246961.061719064600766 ], [ 468665.839588954055216, 5246878.131985914893448 ], [ 468664.579221455031075, 5246878.288106916472316 ], [ 468674.851680119638331, 5246961.217840067110956 ] ] ] } },
{ "type": "Feature", "properties": { "name": "ABAlterObstgarten 70", "GI": 0.33533939691613474, "MGRVI": -0.061240814256874034, "MGRVI_COLOR": "#eab308" }, "geometry": { "type": "Polygon", "coordinates": [ [ [ 468676.759795046877116, 5246962.214089813642204 ], [ 468678.020162545901258, 5246962.057968811132014 ], [ 468667.52885813411558, 5246877.361490232869983 ], [ 468666.268490635266062, 5246877.51761123444885 ], [ 468676.759795046877116, 5246962.214089813642204 ] ] ] } },
{ "type": "Feature", "properties": { "name": "ABAlterObstgarten 71", "GI": 0.3504261849858461, "MGRVI": -0.03131146923408909, "MGRVI_COLOR": "#eab308" }, "geometry": { "type": "Polygon", "coordinates": [ [ [ 468678.66790997388307, 5246963.210339564830065 ], [ 468679.928277473023627, 5246963.054218562319875 ], [ 468669.218127314408775, 5246876.590994553640485 ], [ 468667.957759815384634, 5246876.747115557081997 ], [ 468678.66790997388307, 5246963.210339564830065 ] ] ] } },
{ "type": "Feature", "properties": { "name": "ABAlterObstgarten 72", "GI": 0.35893672192726372, "MGRVI": 0.013507262802216419, "MGRVI_COLOR": "#a3e635" }, "geometry": { "type": "Polygon", "coordinates": [ [ [ 468680.576024900830816, 5246964.206589312292635 ], [ 468681.836392399913166, 5246964.050468309782445 ], [ 468670.907396494294517, 5246875.820498870685697 ], [ 468669.647028995328583, 5246875.976619873195887 ], [ 468680.576024900830816, 5246964.206589312292635 ] ] ] } },
{ "type": "Feature", "properties": { "name": "ABAlterObstgarten 73", "GI": 0.34875234564305779, "MGRVI": -0.02713171652111027, "MGRVI_COLOR": "#eab308" }, "geometry": { "type": "Polygon", "coordinates": [ [ [ 468682.484139827953186, 5246965.202839063480496 ], [ 468683.744507327210158, 5246965.046718061901629 ], [ 468672.596665674645919, 5246875.050003194250166 ], [ 468671.336298175621778, 5246875.206124195829034 ], [ 468682.484139827953186, 5246965.202839063480496 ] ] ] } },
{ "type": "Feature", "properties": { "name": "ABAlterObstgarten 74", "GI": 0.3396728715455104, "MGRVI": -0.05388831777480807, "MGRVI_COLOR": "#eab308" }, "geometry": { "type": "Polygon", "coordinates": [ [ [ 468684.392254755075555, 5246966.19908881187439 ], [ 468685.652622253983282, 5246966.042967811226845 ], [ 468674.285934854531661, 5246874.279507514089346 ], [ 468673.025567355449311, 5246874.435628514736891 ], [ 468684.392254755075555, 5246966.19908881187439 ] ] ] } },
{ "type": "Feature", "properties": { "name": "ABAlterObstgarten 75", "GI": 0.34733677834226789, "MGRVI": -0.029821309739381761, "MGRVI_COLOR": "#eab308" }, "geometry": { "type": "Polygon", "coordinates": [ [ [ 468686.300369682256132, 5246967.195338558405638 ], [ 468687.560737181163859, 5246967.03921755682677 ], [ 468675.97520403470844, 5246873.50901183206588 ], [ 468674.714836535626091, 5246873.66513283457607 ], [ 468686.300369682256132, 5246967.195338558405638 ] ] ] } },
{ "type": "Feature", "properties": { "name": "ABAlterObstgarten 76", "GI": 0.35224866236388069, "MGRVI": -0.0072920236516050623, "MGRVI_COLOR": "#eab308" }, "geometry": { "type": "Polygon", "coordinates": [ [ [ 468688.208484609145671, 5246968.191588311456144 ], [ 468689.46885210822802, 5246968.035467308014631 ], [ 468677.664473214710597, 5246872.738516152836382 ], [ 468676.404105715511832, 5246872.894637156277895 ], [ 468688.208484609145671, 5246968.191588311456144 ] ] ] } },
{ "type": "Feature", "properties": { "name": "ABAlterObstgarten 77", "GI": 0.34182837968023533, "MGRVI": -0.031454838147924206, "MGRVI_COLOR": "#eab308" }, "geometry": { "type": "Polygon", "coordinates": [ [ [ 468690.116599536442664, 5246969.187838056124747 ], [ 468691.37696703535039, 5246969.031717055477202 ], [ 468679.353742394770961, 5246871.968020472675562 ], [ 468678.093374895805027, 5246872.124141474254429 ], [ 468690.116599536442664, 5246969.187838056124747 ] ] ] } },
{ "type": "Feature", "properties": { "name": "ABAlterObstgarten 78", "GI": 0.34172749912398359, "MGRVI": -0.035645191935543608, "MGRVI_COLOR": "#eab308" }, "geometry": { "type": "Polygon", "coordinates": [ [ [ 468692.02471446339041, 5246970.184087807312608 ], [ 468693.285081962356344, 5246970.027966804802418 ], [ 468681.043011574831326, 5246871.197524796240032 ], [ 468679.782644075632561, 5246871.353645796887577 ], [ 468692.02471446339041, 5246970.184087807312608 ] ] ] } },
{ "type": "Feature", "properties": { "name": "ABAlterObstgarten 79", "GI": 0.35810655311385697, "MGRVI": 0.0074107112138428466, "MGRVI_COLOR": "#a3e635" }, "geometry": { "type": "Polygon", "coordinates": [ [ [ 468693.830317161802668, 5246970.364429725334048 ], [ 468695.090684660768602, 5246970.208308723755181 ], [ 468682.730856725596823, 5246870.427208032459021 ], [ 468681.470489226514474, 5246870.583329034969211 ], [ 468693.830317161802668, 5246970.364429725334048 ] ] ] } },
{ "type": "Feature", "properties": { "name": "ABAlterObstgarten 80", "GI": 0.34446520535167185, "MGRVI": -0.033350674031642463, "MGRVI_COLOR": "#eab308" }, "geometry": { "type": "Polygon", "coordinates": [ [ [ 468695.524716754560359, 5246969.659692021086812 ], [ 468696.7850842535845, 5246969.503571020439267 ], [ 468684.417157119431067, 5246869.657085356302559 ], [ 468683.156789620523341, 5246869.813206358812749 ], [ 468695.524716754560359, 5246969.659692021086812 ] ] ] } },
{ "type": "Feature", "properties": { "name": "ABAlterObstgarten 81", "GI": 0.35882762643220112, "MGRVI": 0.0090451848638282845, "MGRVI_COLOR": "#a3e635" }, "geometry": { "type": "Polygon", "coordinates": [ [ [ 468697.21911634755088, 5246968.954954316839576 ], [ 468698.479483846575022, 5246968.798833315260708 ], [ 468686.103457513439935, 5246868.886962682008743 ], [ 468684.843090014415793, 5246869.043083683587611 ], [ 468697.21911634755088, 5246968.954954316839576 ] ] ] } },
{ "type": "Feature", "properties": { "name": "ABAlterObstgarten 82", "GI": 0.34579442685401779, "MGRVI": -0.02561122520137225, "MGRVI_COLOR": "#eab308" }, "geometry": { "type": "Polygon", "coordinates": [ [ [ 468698.913515940424986, 5246968.25021661259234 ], [ 468700.173883439623751, 5246968.094095611013472 ], [ 468687.789757907215971, 5246868.116840004920959 ], [ 468686.52939040819183, 5246868.272961008362472 ], [ 468698.913515940424986, 5246968.25021661259234 ] ] ] } },
{ "type": "Feature", "properties": { "name": "ABAlterObstgarten 83", "GI": 0.35691342923049257, "MGRVI": 0.0061873892496437273, "MGRVI_COLOR": "#a3e635" }, "geometry": { "type": "Polygon", "coordinates": [ [ [ 468700.607915533473715, 5246967.545478908345103 ], [ 468701.868283032439649, 5246967.389357907697558 ], [ 468689.476058301283047, 5246867.346717327833176 ], [ 468688.21569080214249, 5246867.502838332206011 ], [ 468700.607915533473715, 5246967.545478908345103 ] ] ] } },
{ "type": "Feature", "properties": { "name": "ABAlterObstgarten 84", "GI": 0.34661528162492716, "MGRVI": -0.029408416555177251, "MGRVI_COLOR": "#eab308" }, "geometry": { "type": "Polygon", "coordinates": [ [ [ 468702.062315126066096, 5246966.840741203166544 ], [ 468703.322682625206653, 5246966.684620199725032 ], [ 468690.922358694835566, 5246866.57659465353936 ], [ 468689.66199119592784, 5246866.73271565604955 ], [ 468702.062315126066096, 5246966.840741203166544 ] ] ] } },
{ "type": "Feature", "properties": { "name": "ABAlterObstgarten 85", "GI": 0.33627172676887945, "MGRVI": -0.083757070193031247, "MGRVI_COLOR": "#eab308" }, "geometry": { "type": "Polygon", "coordinates": [ [ [ 468703.756714719114825, 5246966.136003498919308 ], [ 468705.017082218197174, 5246965.979882495477796 ], [ 468692.608659088786226, 5246865.806471977382898 ], [ 468691.348291589703877, 5246865.962592979893088 ], [ 468703.756714719114825, 5246966.136003498919308 ] ] ] } },
{ "type": "Feature", "properties": { "name": "ABAlterObstgarten 86", "GI": 0.32890588675947952, "MGRVI": -0.10487187228888968, "MGRVI_COLOR": "#eab308" }, "geometry": { "type": "Polygon", "coordinates": [ [ [ 468705.451114311988931, 5246965.431265793740749 ], [ 468706.711481810896657, 5246965.275144791230559 ], [ 468694.294959482504055, 5246865.036349300295115 ], [ 468693.034591983479913, 5246865.192470303736627 ], [ 468705.451114311988931, 5246965.431265793740749 ] ] ] } },
{ "type": "Feature", "properties": { "name": "ABAlterObstgarten 87", "GI": 0.33804689651017289, "MGRVI": -0.069456512118827432, "MGRVI_COLOR": "#eab308" }, "geometry": { "type": "Polygon", "coordinates": [ [ [ 468707.145513904921245, 5246964.726528090424836 ], [ 468708.405881404061802, 5246964.570407086983323 ], [ 468695.981259876396507, 5246864.266226626001298 ], [ 468694.720892377430573, 5246864.422347628511488 ], [ 468707.145513904921245, 5246964.726528090424836 ] ] ] } },
{ "type": "Feature", "properties": { "name": "ABAlterObstgarten 88", "GI": 0.3457595453738076, "MGRVI": -0.027249289063378593, "MGRVI_COLOR": "#eab308" }, "geometry": { "type": "Polygon", "coordinates": [ [ [ 468708.839913498144597, 5246964.021790384314954 ], [ 468710.100280997110531, 5246963.865669381804764 ], [ 468697.667560270696413, 5246863.496103949844837 ], [ 468696.407192771497648, 5246863.652224951423705 ], [ 468708.839913498144597, 5246964.021790384314954 ] ] ] } },
{ "type": "Feature", "properties": { "name": "ABAlterObstgarten 89", "GI": 0.34747335049460965, "MGRVI": -0.026353138392523089, "MGRVI_COLOR": "#eab308" }, "geometry": { "type": "Polygon", "coordinates": [ [ [ 468710.534313090785872, 5246963.317052679136395 ], [ 468711.794680589810014, 5246963.160931677557528 ], [ 468699.353860664181411, 5246862.725981272757053 ], [ 468698.093493165215477, 5246862.882102275267243 ], [ 468710.534313090785872, 5246963.317052679136395 ] ] ] } },
{ "type": "Feature", "properties": { "name": "ABAlterObstgarten 90", "GI": 0.35289316148891769, "MGRVI": -0.0047332057515072469, "MGRVI_COLOR": "#eab308" }, "geometry": { "type": "Polygon", "coordinates": [ [ [ 468712.228712683892809, 5246962.612314975820482 ], [ 468713.489080182975158, 5246962.456193974241614 ], [ 468701.040161058306694, 5246861.955858598463237 ], [ 468699.779793559224345, 5246862.111979600042105 ], [ 468712.228712683892809, 5246962.612314975820482 ] ] ] } },
{ "type": "Feature", "properties": { "name": "ABAlterObstgarten 91", "GI": 0.35176386032164436, "MGRVI": -0.012255777356740978, "MGRVI_COLOR": "#eab308" }, "geometry": { "type": "Polygon", "coordinates": [ [ [ 468713.923112276766915, 5246961.907577271573246 ], [ 468715.183479775849264, 5246961.751456269994378 ], [ 468702.726461452082731, 5246861.185735922306776 ], [ 468701.466093953175005, 5246861.341856925748289 ], [ 468713.923112276766915, 5246961.907577271573246 ] ] ] } },
{ "type": "Feature", "properties": { "name": "ABAlterObstgarten 92", "GI": 0.34846594619262539, "MGRVI": -0.023216494823681211, "MGRVI_COLOR": "#eab308" }, "geometry": { "type": "Polygon", "coordinates": [ [ [ 468715.617511869641021, 5246961.202839566394687 ], [ 468716.877879368665162, 5246961.046718566678464 ], [ 468704.412761845858768, 5246860.415613245218992 ], [ 468703.152394346892834, 5246860.571734249591827 ], [ 468715.617511869641021, 5246961.202839566394687 ] ] ] } },
{ "type": "Feature", "properties": { "name": "ABAlterObstgarten 93", "GI": 0.33844859389844939, "MGRVI": -0.044695344881460888, "MGRVI_COLOR": "#eab308" }, "geometry": { "type": "Polygon", "coordinates": [ [ [ 468717.311911462573335, 5246960.498101863078773 ], [ 468718.572278961597476, 5246960.341980860568583 ], [ 468706.099062239925843, 5246859.645490572787821 ], [ 468704.838694741018116, 5246859.801611575298011 ], [ 468717.311911462573335, 5246960.498101863078773 ] ] ] } },
{ "type": "Feature", "properties": { "name": "ABAlterObstgarten 94", "GI": 0.33928274720703921, "MGRVI": -0.034481955229980855, "MGRVI_COLOR": "#eab308" }, "geometry": { "type": "Polygon", "coordinates": [ [ [ 468719.006311055447441, 5246959.793364157900214 ], [ 468720.266678554471582, 5246959.637243155390024 ], [ 468707.78536263370188, 5246858.875367893837392 ], [ 468706.52499513461953, 5246859.031488896347582 ], [ 468719.006311055447441, 5246959.793364157900214 ] ] ] } },
{ "type": "Feature", "properties": { "name": "ABAlterObstgarten 95", "GI": 0.35206632307623004, "MGRVI": -0.0082307272699232818, "MGRVI_COLOR": "#eab308" }, "geometry": { "type": "Polygon", "coordinates": [ [ [ 468720.700710648379754, 5246959.088626453652978 ], [ 468721.961078147403896, 5246958.93250544834882 ], [ 468709.471663027652539, 5246858.105245217680931 ], [ 468708.211295528511982, 5246858.261366221122444 ], [ 468720.700710648379754, 5246959.088626453652978 ] ] ] } },
{ "type": "Feature", "properties": { "name": "ABAlterObstgarten 96", "GI": 0.35989999686993279, "MGRVI": 0.017487537585389082, "MGRVI_COLOR": "#a3e635" }, "geometry": { "type": "Polygon", "coordinates": [ [ [ 468722.395110241428483, 5246958.383888749405742 ], [ 468723.655477740394417, 5246958.227767746895552 ], [ 468711.157963421544991, 5246857.335122542455792 ], [ 468709.89759592252085, 5246857.491243545897305 ], [ 468722.395110241428483, 5246958.383888749405742 ] ] ] } },
{ "type": "Feature", "properties": { "name": "ABAlterObstgarten 97", "GI": 0.38725823518555375, "MGRVI": 0.086540166380917244, "MGRVI_COLOR": "#a3e635" }, "geometry": { "type": "Polygon", "coordinates": [ [ [ 468724.089509834244382, 5246957.679151044227183 ], [ 468725.349877333384939, 5246957.523030041716993 ], [ 468712.844263815379236, 5246856.564999865368009 ], [ 468711.583896316296887, 5246856.721120868809521 ], [ 468724.089509834244382, 5246957.679151044227183 ] ] ] } },
{ "type": "Feature", "properties": { "name": "ABAlterObstgarten 98", "GI": 0.37009963640877885, "MGRVI": 0.053561650357236014, "MGRVI_COLOR": "#a3e635" }, "geometry": { "type": "Polygon", "coordinates": [ [ [ 468725.783909427351318, 5246956.974413339979947 ], [ 468727.044276926433668, 5246956.818292337469757 ], [ 468714.530564209388103, 5246855.794877191074193 ], [ 468713.270196710422169, 5246855.950998193584383 ], [ 468725.783909427351318, 5246956.974413339979947 ] ] ] } },
{ "type": "Feature", "properties": { "name": "ABAlterObstgarten 99", "GI": 0.36484872944223967, "MGRVI": 0.037525609969698545, "MGRVI_COLOR": "#a3e635" }, "geometry": { "type": "Polygon", "coordinates": [ [ [ 468727.478309020283632, 5246956.26967563573271 ], [ 468728.738676519249566, 5246956.113554632291198 ], [ 468716.216864603338763, 5246855.024754514917731 ], [ 468714.956497104139999, 5246855.180875516496599 ], [ 468727.478309020283632, 5246956.26967563573271 ] ] ] } },
{ "type": "Feature", "properties": { "name": "ABAlterObstgarten 100", "GI": 0.35428444274764964, "MGRVI": -0.0043957963459553776, "MGRVI_COLOR": "#eab308" }, "geometry": { "type": "Polygon", "coordinates": [ [ [ 468729.172708613215946, 5246955.564937932416797 ], [ 468730.433076112356503, 5246955.408816928975284 ], [ 468717.9031649971148, 5246854.254631839692593 ], [ 468716.642797498207074, 5246854.410752844065428 ], [ 468729.172708613215946, 5246955.564937932416797 ] ] ] } },
{ "type": "Feature", "properties": { "name": "ABAlterObstgarten 101", "GI": 0.35188337002236447, "MGRVI": -0.0077425943607062541, "MGRVI_COLOR": "#eab308" }, "geometry": { "type": "Polygon", "coordinates": [ [ [ 468730.867108205973636, 5246954.860200225375593 ], [ 468732.127475704997778, 5246954.704079224728048 ], [ 468719.589465390949044, 5246853.484509164467454 ], [ 468718.329097891924903, 5246853.640630166046321 ], [ 468730.867108205973636, 5246954.860200225375593 ] ] ] } },
{ "type": "Feature", "properties": { "name": "ABAlterObstgarten 102", "GI": 0.36717039389951506, "MGRVI": 0.025606549583080607, "MGRVI_COLOR": "#a3e635" }, "geometry": { "type": "Polygon", "coordinates": [ [ [ 468732.441507798910607, 5246954.155462521128356 ], [ 468733.701875297992956, 5246953.999341519549489 ], [ 468721.155765784846153, 5246852.714386489242315 ], [ 468719.895398285880219, 5246852.870507491752505 ], [ 468732.441507798910607, 5246954.155462521128356 ] ] ] } },
{ "type": "Feature", "properties": { "name": "ABAlterObstgarten 103", "GI": 0.35668280876635933, "MGRVI": 0.0064760422757059307, "MGRVI_COLOR": "#a3e635" }, "geometry": { "type": "Polygon", "coordinates": [ [ [ 468734.135907391959336, 5246953.45072481688112 ], [ 468735.396274890867062, 5246953.294603817164898 ], [ 468722.842066178680398, 5246851.944263814017177 ], [ 468721.581698679481633, 5246852.100384814664721 ], [ 468734.135907391959336, 5246953.45072481688112 ] ] ] } },
{ "type": "Feature", "properties": { "name": "ABAlterObstgarten 104", "GI": 0.36381607118410225, "MGRVI": 0.024395014136948331, "MGRVI_COLOR": "#a3e635" }, "geometry": { "type": "Polygon", "coordinates": [ [ [ 468735.830306984658819, 5246952.745987111702561 ], [ 468737.090674483741168, 5246952.589866109192371 ], [ 468724.528366572514642, 5246851.174141135066748 ], [ 468723.2679990734905, 5246851.330262137576938 ], [ 468735.830306984658819, 5246952.745987111702561 ] ] ] } },
{ "type": "Feature", "properties": { "name": "ABAlterObstgarten 105", "GI": 0.34341746551012631, "MGRVI": -0.029531320295347857, "MGRVI_COLOR": "#eab308" }, "geometry": { "type": "Polygon", "coordinates": [ [ [ 468737.524706577882171, 5246952.041249406524003 ], [ 468738.78507407696452, 5246951.885128404013813 ], [ 468726.214666966639925, 5246850.404018459841609 ], [ 468724.954299467557576, 5246850.560139463283122 ], [ 468737.524706577882171, 5246952.041249406524003 ] ] ] } },
{ "type": "Feature", "properties": { "name": "ABAlterObstgarten 106", "GI": 0.35452421568217823, "MGRVI": -0.018652436504116507, "MGRVI_COLOR": "#eab308" }, "geometry": { "type": "Polygon", "coordinates": [ [ [ 468739.219106170639861, 5246951.336511703208089 ], [ 468740.479473669664003, 5246951.180390698835254 ], [ 468727.900967360415962, 5246849.63389578461647 ], [ 468726.640599861275405, 5246849.790016786195338 ], [ 468739.219106170639861, 5246951.336511703208089 ] ] ] } },
{ "type": "Feature", "properties": { "name": "ABAlterObstgarten 107", "GI": 0.3427621910868231, "MGRVI": -0.040767102389482106, "MGRVI_COLOR": "#eab308" }, "geometry": { "type": "Polygon", "coordinates": [ [ [ 468740.913505763805006, 5246950.631773998960853 ], [ 468742.17387326277094, 5246950.475652996450663 ], [ 468729.587267754483037, 5246848.863773107528687 ], [ 468728.326900255458895, 5246849.019894110970199 ], [ 468740.913505763805006, 5246950.631773998960853 ] ] ] } },
{ "type": "Feature", "properties": { "name": "ABAlterObstgarten 108", "GI": 0.3550326162516822, "MGRVI": -0.0067260460303419272, "MGRVI_COLOR": "#eab308" }, "geometry": { "type": "Polygon", "coordinates": [ [ [ 468742.607905356562696, 5246949.927036294713616 ], [ 468743.86827285552863, 5246949.770915291272104 ], [ 468731.273568148317281, 5246848.093650432303548 ], [ 468730.013200649118517, 5246848.249771434813738 ], [ 468742.607905356562696, 5246949.927036294713616 ] ] ] } },
{ "type": "Feature", "properties": { "name": "ABAlterObstgarten 109", "GI": 0.35842068281040546, "MGRVI": -0.014548608100854324, "MGRVI_COLOR": "#eab308" }, "geometry": { "type": "Polygon", "coordinates": [ [ [ 468744.302304949378595, 5246949.222298588603735 ], [ 468745.562672448286321, 5246949.06617758795619 ], [ 468732.959868541976903, 5246847.323527756147087 ], [ 468731.699501043069176, 5246847.479648760519922 ], [ 468744.302304949378595, 5246949.222298588603735 ] ] ] } },
{ "type": "Feature", "properties": { "name": "ABAlterObstgarten 110", "GI": 0.33956578884337613, "MGRVI": -0.053833723596215508, "MGRVI_COLOR": "#eab308" }, "geometry": { "type": "Polygon", "coordinates": [ [ [ 468745.996704542485531, 5246948.517560884356499 ], [ 468747.257072041626088, 5246948.361439883708954 ], [ 468734.646168936043978, 5246846.553405080921948 ], [ 468733.385801436903421, 5246846.709526082500815 ], [ 468745.996704542485531, 5246948.517560884356499 ] ] ] } },
{ "type": "Feature", "properties": { "name": "ABAlterObstgarten 111", "GI": 0.35818364473429581, "MGRVI": 0.0015922795741092159, "MGRVI_COLOR": "#a3e635" }, "geometry": { "type": "Polygon", "coordinates": [ [ [ 468747.691104135243222, 5246947.812823181040585 ], [ 468748.951471634441987, 5246947.656702177599072 ], [ 468736.332469329820015, 5246845.783282404765487 ], [ 468735.072101830854081, 5246845.939403409138322 ], [ 468747.691104135243222, 5246947.812823181040585 ] ] ] } },
{ "type": "Feature", "properties": { "name": "ABAlterObstgarten 112", "GI": 0.34457485640362856, "MGRVI": -0.052137157099695984, "MGRVI_COLOR": "#eab308" }, "geometry": { "type": "Polygon", "coordinates": [ [ [ 468749.399560742953327, 5246947.106319325976074 ], [ 468750.659928241802845, 5246946.950198323465884 ], [ 468739.030698289861903, 5246853.067227521911263 ], [ 468737.770330790837761, 5246853.223348524421453 ], [ 468749.399560742953327, 5246947.106319325976074 ] ] ] } },
{ "type": "Feature", "properties": { "name": "ABAlterObstgarten 113", "GI": 0.35167748648129554, "MGRVI": -0.019242823213247152, "MGRVI_COLOR": "#eab308" }, "geometry": { "type": "Polygon", "coordinates": [ [ [ 468751.104547060967889, 5246946.400251483544707 ], [ 468752.36491455999203, 5246946.244130480103195 ], [ 468741.479109999083448, 5246858.362845472991467 ], [ 468740.218742500059307, 5246858.518966478295624 ], [ 468751.104547060967889, 5246946.400251483544707 ] ] ] } },
{ "type": "Feature", "properties": { "name": "ABAlterObstgarten 114", "GI": 0.34192553499801748, "MGRVI": -0.049142564310363852, "MGRVI_COLOR": "#eab308" }, "geometry": { "type": "Polygon", "coordinates": [ [ [ 468752.809533379215281, 5246945.694183642975986 ], [ 468754.069900878297631, 5246945.538062639534473 ], [ 468743.927521708479617, 5246863.65846343152225 ], [ 468742.667154209397268, 5246863.81458443403244 ], [ 468752.809533379215281, 5246945.694183642975986 ] ] ] } },
{ "type": "Feature", "properties": { "name": "ABAlterObstgarten 115", "GI": 0.33940694082214234, "MGRVI": -0.055058957366182208, "MGRVI_COLOR": "#eab308" }, "geometry": { "type": "Polygon", "coordinates": [ [ [ 468754.514519697404467, 5246944.988115802407265 ], [ 468755.774887196545023, 5246944.83199479803443 ], [ 468746.37593341775937, 5246868.954081387259066 ], [ 468745.115565918677021, 5246869.110202390700579 ], [ 468754.514519697404467, 5246944.988115802407265 ] ] ] } },
{ "type": "Feature", "properties": { "name": "ABAlterObstgarten 116", "GI": 0.35317449034284981, "MGRVI": -0.022671989563383278, "MGRVI_COLOR": "#eab308" }, "geometry": { "type": "Polygon", "coordinates": [ [ [ 468756.069506015395746, 5246944.282047960907221 ], [ 468757.329873514478095, 5246944.125926956534386 ], [ 468748.674345126841217, 5246874.249699342995882 ], [ 468747.413977627758868, 5246874.405820344574749 ], [ 468756.069506015395746, 5246944.282047960907221 ] ] ] } },
{ "type": "Feature", "properties": { "name": "ABAlterObstgarten 117", "GI": 0.37959721370463728, "MGRVI": 0.053299837990885501, "MGRVI_COLOR": "#a3e635" }, "geometry": { "type": "Polygon", "coordinates": [ [ [ 468757.774492333759554, 5246943.575980118475854 ], [ 468759.034859832841903, 5246943.419859115965664 ], [ 468751.122756836295594, 5246879.545317298732698 ], [ 468749.862389337213244, 5246879.701438301242888 ], [ 468757.774492333759554, 5246943.575980118475854 ] ] ] } },
{ "type": "Feature", "properties": { "name": "ABAlterObstgarten 118", "GI": 0.34805901344010381, "MGRVI": -0.030919391252836562, "MGRVI_COLOR": "#eab308" }, "geometry": { "type": "Polygon", "coordinates": [ [ [ 468759.479478652297985, 5246942.869912277907133 ], [ 468760.739846151263919, 5246942.713791275396943 ], [ 468753.571168545866385, 5246884.840935254469514 ], [ 468752.310801046784036, 5246884.997056256048381 ], [ 468759.479478652297985, 5246942.869912277907133 ] ] ] } },
{ "type": "Feature", "properties": { "name": "ABAlterObstgarten 119", "GI": 0.36035230627520365, "MGRVI": -0.0023672485518767914, "MGRVI_COLOR": "#eab308" }, "geometry": { "type": "Polygon", "coordinates": [ [ [ 468761.113663082011044, 5246942.165201609022915 ], [ 468762.374030581093393, 5246942.009080606512725 ], [ 468755.181979918677825, 5246883.947533525526524 ], [ 468753.921612419770099, 5246884.103654526174068 ], [ 468761.113663082011044, 5246942.165201609022915 ] ] ] } },
{ "type": "Feature", "properties": { "name": "ABAlterObstgarten 120", "GI": 0.36412043523990484, "MGRVI": 0.0004469382613606887, "MGRVI_COLOR": "#a3e635" }, "geometry": { "type": "Polygon", "coordinates": [ [ [ 468762.818649400258437, 5246941.459133767522871 ], [ 468764.079016899398994, 5246941.303012763150036 ], [ 468757.630391628132202, 5246889.243151479400694 ], [ 468756.370024129224475, 5246889.399272480979562 ], [ 468762.818649400258437, 5246941.459133767522871 ] ] ] } },
{ "type": "Feature", "properties": { "name": "ABAlterObstgarten 121", "GI": null, "MGRVI": null, "MGRVI_COLOR": "#94a3b8" }, "geometry": { "type": "Polygon", "coordinates": [ [ [ 468764.52363571850583, 5246940.753065924160182 ], [ 468765.784003217588179, 5246940.596944923512638 ], [ 468760.078803337586578, 5246894.538769433274865 ], [ 468758.818435838329606, 5246894.694890435785055 ], [ 468764.52363571850583, 5246940.753065924160182 ] ] ] } },
{ "type": "Feature", "properties": { "name": "ABAlterObstgarten 122", "GI": null, "MGRVI": null, "MGRVI_COLOR": "#94a3b8" }, "geometry": { "type": "Polygon", "coordinates": [ [ [ 468766.228622036869638, 5246940.046998084522784 ], [ 468767.488989536068402, 5246939.890877082012594 ], [ 468762.527215046866331, 5246899.834387390874326 ], [ 468761.266847547900397, 5246899.990508392453194 ], [ 468766.228622036869638, 5246940.046998084522784 ] ] ] } },
{ "type": "Feature", "properties": { "name": "ABAlterObstgarten 123", "GI": null, "MGRVI": null, "MGRVI_COLOR": "#94a3b8" }, "geometry": { "type": "Polygon", "coordinates": [ [ [ 468767.933608355000615, 5246939.34093024302274 ], [ 468769.193975854082964, 5246939.184809241443872 ], [ 468764.975626756087877, 5246905.130005346611142 ], [ 468763.715259257005528, 5246905.286126349121332 ], [ 468767.933608355000615, 5246939.34093024302274 ] ] ] } },
{ "type": "Feature", "properties": { "name": "ABAlterObstgarten 124", "GI": null, "MGRVI": null, "MGRVI_COLOR": "#94a3b8" }, "geometry": { "type": "Polygon", "coordinates": [ [ [ 468769.638594673364423, 5246938.634862403385341 ], [ 468770.898962172388565, 5246938.478741399012506 ], [ 468767.424038465600461, 5246910.425623303279281 ], [ 468766.163670966692735, 5246910.581744307652116 ], [ 468769.638594673364423, 5246938.634862403385341 ] ] ] } },
{ "type": "Feature", "properties": { "name": "ABAlterObstgarten 125", "GI": null, "MGRVI": null, "MGRVI_COLOR": "#94a3b8" }, "geometry": { "type": "Polygon", "coordinates": [ [ [ 468771.343580991553608, 5246937.928794560953975 ], [ 468772.603948490519542, 5246937.772673558443785 ], [ 468769.872450174822006, 5246915.721241259947419 ], [ 468768.612082675797865, 5246915.877362261526287 ], [ 468771.343580991553608, 5246937.928794560953975 ] ] ] } },
{ "type": "Feature", "properties": { "name": "ABAlterObstgarten 126", "GI": null, "MGRVI": null, "MGRVI_COLOR": "#94a3b8" }, "geometry": { "type": "Polygon", "coordinates": [ [ [ 468773.048567309975624, 5246937.222726722247899 ], [ 468774.308934808999766, 5246937.066605718806386 ], [ 468772.320861884392798, 5246921.01685921754688 ], [ 468771.060494385543279, 5246921.172980219125748 ], [ 468773.048567309975624, 5246937.222726722247899 ] ] ] } },
{ "type": "Feature", "properties": { "name": "ABAlterObstgarten 127", "GI": null, "MGRVI": null, "MGRVI_COLOR": "#94a3b8" }, "geometry": { "type": "Polygon", "coordinates": [ [ [ 468774.753553628106602, 5246936.516658879816532 ], [ 468776.013921127072535, 5246936.360537875443697 ], [ 468774.769273593556136, 5246926.312477171421051 ], [ 468773.508906094473787, 5246926.468598173931241 ], [ 468774.753553628106602, 5246936.516658879816532 ] ] ] } },
{ "type": "Feature", "properties": { "name": "ABAlterObstgarten 128", "GI": null, "MGRVI": null, "MGRVI_COLOR": "#94a3b8" }, "geometry": { "type": "Polygon", "coordinates": [ [ [ 468776.458539946237579, 5246935.810591037385166 ], [ 468777.718907445378136, 5246935.654470033943653 ], [ 468777.217685302952304, 5246931.608095125295222 ], [ 468775.957317803928163, 5246931.764216127805412 ], [ 468776.458539946237579, 5246935.810591037385166 ] ] ] } },
{ "type": "Feature", "properties": { "name": "ABAlterObstgarten 129", "GI": null, "MGRVI": null, "MGRVI_COLOR": "#94a3b8" }, "geometry": { "type": "Polygon", "coordinates": [ [ [ 468778.163526264601387, 5246935.104523197747767 ], [ 468779.423893763625529, 5246934.948402193374932 ], [ 468779.666097012232058, 5246936.90371308196336 ], [ 468778.405729513266124, 5246937.05983408447355 ], [ 468778.163526264601387, 5246935.104523197747767 ] ] ] } },
{ "type": "Feature", "properties": { "name": "ABAlterObstgarten 130", "GI": null, "MGRVI": null, "MGRVI_COLOR": "#94a3b8" }, "geometry": { "type": "Polygon", "coordinates": [ [ [ 468779.868512582906988, 5246934.398455354385078 ], [ 468781.128880082047544, 5246934.242334351874888 ], [ 468782.114508721977472, 5246942.199331036768854 ], [ 468780.854141222836915, 5246942.355452040210366 ], [ 468779.868512582906988, 5246934.398455354385078 ] ] ] } }
]
}
