{
"type": "FeatureCollection",
"name": "ForsthausUnten_260306",
"crs": { "type": "name", "properties": { "name": "urn:ogc:def:crs:EPSG::32632" } },
"features": [
{ "type": "Feature", "properties": { "name": "Forsthaus_Unten 28", "GI": 0.34193649556810568, "MGRVI": -0.061705787935263219, "MGRVI_COLOR": "#eab308" }, "geometry": { "type": "Polygon", "coordinates": [ [ [ 468764.885224739380646, 5246860.974891143850982 ], [ 468765.906510968634393, 5246861.729791427962482 ], [ 468772.085014009382576, 5246853.371044965460896 ], [ 468771.063727780187037, 5246852.616144680418074 ], [ 468764.885224739380646, 5246860.974891143850982 ] ] ] } },
{ "type": "Feature", "properties": { "name": "Forsthaus_Unten 29", "GI": 0.34001914300506308, "MGRVI": -0.069147335123017156, "MGRVI_COLOR": "#eab308" }, "geometry": { "type": "Polygon", "coordinates": [ [ [ 468765.728527145343833, 5246862.801633144728839 ], [ 468766.749813374539372, 5246863.556533429771662 ], [ 468775.255741849425249, 5246852.049069715663791 ], [ 468774.234455620055087, 5246851.294169431552291 ], [ 468765.728527145343833, 5246862.801633144728839 ] ] ] } },
{ "type": "Feature", "properties": { "name": "Forsthaus_Unten 30", "GI": 0.34123735790932835, "MGRVI": -0.062603452596476705, "MGRVI_COLOR": "#eab308" }, "geometry": { "type": "Polygon", "coordinates": [ [ [ 468766.571829550899565, 5246864.628375146538019 ], [ 468767.593115780153312, 5246865.383275431580842 ], [ 468778.426469689409714, 5246850.727094464935362 ], [ 468777.40518346009776, 5246849.972194181755185 ], [ 468766.571829550899565, 5246864.628375146538019 ] ] ] } },
{ "type": "Feature", "properties": { "name": "Forsthaus_Unten 31", "GI": 0.33888566496050326, "MGRVI": -0.075233002436485369, "MGRVI_COLOR": "#eab308" }, "geometry": { "type": "Polygon", "coordinates": [ [ [ 468767.415131957211997, 5246866.455117150209844 ], [ 468768.436418186349329, 5246867.210017434321344 ], [ 468781.597197531431448, 5246849.405119215138257 ], [ 468780.575911302119493, 5246848.650218931958079 ], [ 468767.415131957211997, 5246866.455117150209844 ] ] ] } },
{ "type": "Feature", "properties": { "name": "Forsthaus_Unten 32", "GI": 0.34758227691862736, "MGRVI": -0.052466778944556924, "MGRVI_COLOR": "#eab308" }, "geometry": { "type": "Polygon", "coordinates": [ [ [ 468768.258434363175184, 5246868.281859152019024 ], [ 468769.279720592370722, 5246869.036759436130524 ], [ 468784.767925372580066, 5246848.083143963478506 ], [ 468783.746639143268112, 5246847.328243680298328 ], [ 468768.258434363175184, 5246868.281859152019024 ] ] ] } },
{ "type": "Feature", "properties": { "name": "Forsthaus_Unten 33", "GI": 0.34323320376204514, "MGRVI": -0.072068569626392603, "MGRVI_COLOR": "#eab308" }, "geometry": { "type": "Polygon", "coordinates": [ [ [ 468769.101736769254785, 5246870.108601153828204 ], [ 468770.123022998624947, 5246870.863501437939703 ], [ 468787.938653213554062, 5246846.761168714612722 ], [ 468786.917366984242108, 5246846.006268427707255 ], [ 468769.101736769254785, 5246870.108601153828204 ] ] ] } },
{ "type": "Feature", "properties": { "name": "Forsthaus_Unten 34", "GI": 0.34139215038743842, "MGRVI": -0.075875346915559971, "MGRVI_COLOR": "#eab308" }, "geometry": { "type": "Polygon", "coordinates": [ [ [ 468769.945039174868725, 5246871.935343157500029 ], [ 468770.966325404238887, 5246872.690243440680206 ], [ 468791.109381053305697, 5246845.439193463884294 ], [ 468790.088094824168365, 5246844.684293178841472 ], [ 468769.945039174868725, 5246871.935343157500029 ] ] ] } },
{ "type": "Feature", "properties": { "name": "Forsthaus_Unten 35", "GI": 0.35782950506552552, "MGRVI": -0.020314957007574661, "MGRVI_COLOR": "#eab308" }, "geometry": { "type": "Polygon", "coordinates": [ [ [ 468770.788341580540873, 5246873.762085159309208 ], [ 468771.80962780979462, 5246874.51698544062674 ], [ 468794.280108893231954, 5246844.117218213155866 ], [ 468793.258822663861793, 5246843.362317928113043 ], [ 468770.788341580540873, 5246873.762085159309208 ] ] ] } },
{ "type": "Feature", "properties": { "name": "Forsthaus_Unten 36", "GI": 0.36860984493247284, "MGRVI": 0.023896962064449849, "MGRVI_COLOR": "#a3e635" }, "geometry": { "type": "Polygon", "coordinates": [ [ [ 468771.631643986504059, 5246875.588827159255743 ], [ 468772.652930215874221, 5246876.343727445229888 ], [ 468797.450836733973119, 5246842.795242960564792 ], [ 468796.429550504661165, 5246842.040342677384615 ], [ 468771.631643986504059, 5246875.588827159255743 ] ] ] } },
{ "type": "Feature", "properties": { "name": "Forsthaus_Unten 37", "GI": 0.36551785568728812, "MGRVI": 0.019696080499717369, "MGRVI_COLOR": "#a3e635" }, "geometry": { "type": "Polygon", "coordinates": [ [ [ 468772.474946392409038, 5246877.415569161064923 ], [ 468773.496232621604577, 5246878.170469445176423 ], [ 468800.621564574248623, 5246841.473267709836364 ], [ 468799.600278344878461, 5246840.718367426656187 ], [ 468772.474946392409038, 5246877.415569161064923 ] ] ] } },
{ "type": "Feature", "properties": { "name": "Forsthaus_Unten 38", "GI": 0.36314431955360787, "MGRVI": 0.0065331906048910534, "MGRVI_COLOR": "#a3e635" }, "geometry": { "type": "Polygon", "coordinates": [ [ [ 468773.318248798255809, 5246879.242311164736748 ], [ 468774.339535027451348, 5246879.99721144977957 ], [ 468803.79229241469875, 5246840.151292463764548 ], [ 468802.771006185445003, 5246839.396392179653049 ], [ 468773.318248798255809, 5246879.242311164736748 ] ] ] } },
{ "type": "Feature", "properties": { "name": "Forsthaus_Unten 39", "GI": 0.36917050320518319, "MGRVI": 0.038155055944887856, "MGRVI_COLOR": "#a3e635" }, "geometry": { "type": "Polygon", "coordinates": [ [ [ 468774.16155120433541, 5246881.06905316747725 ], [ 468775.182837433647364, 5246881.823953449726105 ], [ 468806.963020255963784, 5246838.82931720931083 ], [ 468805.941734026710037, 5246838.074416926130652 ], [ 468774.16155120433541, 5246881.06905316747725 ] ] ] } },
{ "type": "Feature", "properties": { "name": "Forsthaus_Unten 40", "GI": 0.38304960139647171, "MGRVI": 0.081844300238225712, "MGRVI_COLOR": "#a3e635" }, "geometry": { "type": "Polygon", "coordinates": [ [ [ 468775.004853610065766, 5246882.895795166492462 ], [ 468776.026139839203097, 5246883.650695451535285 ], [ 468810.133748095657211, 5246837.507341959513724 ], [ 468809.112461866403464, 5246836.752441675402224 ], [ 468775.004853610065766, 5246882.895795166492462 ] ] ] } },
{ "type": "Feature", "properties": { "name": "Forsthaus_Unten 41", "GI": 0.37410727015691314, "MGRVI": 0.044906632649036299, "MGRVI_COLOR": "#a3e635" }, "geometry": { "type": "Polygon", "coordinates": [ [ [ 468775.848156016203575, 5246884.722537172026932 ], [ 468776.869442245399114, 5246885.477437455207109 ], [ 468813.304475937329698, 5246836.185366712510586 ], [ 468812.283189708017744, 5246835.430466426536441 ], [ 468775.848156016203575, 5246884.722537172026932 ] ] ] } },
{ "type": "Feature", "properties": { "name": "Forsthaus_Unten 42", "GI": 0.38118574718795689, "MGRVI": 0.080838108689065657, "MGRVI_COLOR": "#a3e635" }, "geometry": { "type": "Polygon", "coordinates": [ [ [ 468776.691458422166761, 5246886.549279171973467 ], [ 468777.712744651420508, 5246887.304179456084967 ], [ 468816.475203777779825, 5246834.86339145898819 ], [ 468815.453917548351455, 5246834.108491175808012 ], [ 468776.691458422166761, 5246886.549279171973467 ] ] ] } },
{ "type": "Feature", "properties": { "name": "Forsthaus_Unten 43", "GI": 0.37728187479305675, "MGRVI": 0.069355587290831952, "MGRVI_COLOR": "#a3e635" }, "geometry": { "type": "Polygon", "coordinates": [ [ [ 468777.534760827838909, 5246888.376021174713969 ], [ 468778.556047057150863, 5246889.130921457894146 ], [ 468819.645931618288159, 5246833.541416208259761 ], [ 468818.624645389034413, 5246832.786515922285616 ], [ 468777.534760827838909, 5246888.376021174713969 ] ] ] } },
{ "type": "Feature", "properties": { "name": "Forsthaus_Unten 44", "GI": 0.38070967606130812, "MGRVI": 0.080501027348988646, "MGRVI_COLOR": "#a3e635" }, "geometry": { "type": "Polygon", "coordinates": [ [ [ 468778.378063233627472, 5246890.202763176523149 ], [ 468779.399349463055842, 5246890.957663459703326 ], [ 468822.816659458214417, 5246832.219440961256623 ], [ 468821.795373229018878, 5246831.464540675282478 ], [ 468778.378063233627472, 5246890.202763176523149 ] ] ] } },
{ "type": "Feature", "properties": { "name": "Forsthaus_Unten 45", "GI": 0.37467708926708942, "MGRVI": 0.059759277946687235, "MGRVI_COLOR": "#a3e635" }, "geometry": { "type": "Polygon", "coordinates": [ [ [ 468779.221365639707074, 5246892.029505177401006 ], [ 468780.24265186896082, 5246892.784405462443829 ], [ 468825.987387299363036, 5246830.897465706802905 ], [ 468824.966101069992874, 5246830.142565423622727 ], [ 468779.221365639707074, 5246892.029505177401006 ] ] ] } },
{ "type": "Feature", "properties": { "name": "Forsthaus_Unten 46", "GI": 0.38146124283731442, "MGRVI": 0.075106457668630805, "MGRVI_COLOR": "#a3e635" }, "geometry": { "type": "Polygon", "coordinates": [ [ [ 468780.064668045379221, 5246893.856247181072831 ], [ 468781.085954274749383, 5246894.611147463321686 ], [ 468829.158115139813162, 5246829.575490457005799 ], [ 468828.136828910443, 5246828.820590171962976 ], [ 468780.064668045379221, 5246893.856247181072831 ] ] ] } },
{ "type": "Feature", "properties": { "name": "Forsthaus_Unten 47", "GI": 0.3700424248506563, "MGRVI": 0.03924699522971134, "MGRVI_COLOR": "#a3e635" }, "geometry": { "type": "Polygon", "coordinates": [ [ [ 468780.907970451517031, 5246895.682989182882011 ], [ 468781.929256680654362, 5246896.437889466993511 ], [ 468832.32884298072895, 5246828.253515209071338 ], [ 468831.307556751475204, 5246827.498614923097193 ], [ 468780.907970451517031, 5246895.682989182882011 ] ] ] } },
{ "type": "Feature", "properties": { "name": "Forsthaus_Unten 48", "GI": 0.37971437981363293, "MGRVI": 0.067962328266280972, "MGRVI_COLOR": "#a3e635" }, "geometry": { "type": "Polygon", "coordinates": [ [ [ 468781.751272857247386, 5246897.509731185622513 ], [ 468782.77255908655934, 5246898.264631466940045 ], [ 468835.499570820655208, 5246826.931539956480265 ], [ 468834.478284591401462, 5246826.176639672368765 ], [ 468781.751272857247386, 5246897.509731185622513 ] ] ] } },
{ "type": "Feature", "properties": { "name": "Forsthaus_Unten 49", "GI": 0.36660579509692204, "MGRVI": 0.019631860177228549, "MGRVI_COLOR": "#a3e635" }, "geometry": { "type": "Polygon", "coordinates": [ [ [ 468782.594575263152365, 5246899.336473186500371 ], [ 468783.615861492406111, 5246900.09137347061187 ], [ 468838.670298660988919, 5246825.609564705751836 ], [ 468837.649012431793381, 5246824.854664422571659 ], [ 468782.594575263152365, 5246899.336473186500371 ] ] ] } },
{ "type": "Feature", "properties": { "name": "Forsthaus_Unten 50", "GI": 0.36693151469379087, "MGRVI": 0.017236828656055213, "MGRVI_COLOR": "#a3e635" }, "geometry": { "type": "Polygon", "coordinates": [ [ [ 468783.437877668999135, 5246901.163215187378228 ], [ 468784.459163898369297, 5246901.91811547242105 ], [ 468841.841026501730084, 5246824.287589456886053 ], [ 468840.819740272592753, 5246823.532689170911908 ], [ 468783.437877668999135, 5246901.163215187378228 ] ] ] } },
{ "type": "Feature", "properties": { "name": "Forsthaus_Unten 51", "GI": 0.37456993952725592, "MGRVI": 0.031433230860159547, "MGRVI_COLOR": "#a3e635" }, "geometry": { "type": "Polygon", "coordinates": [ [ [ 468784.281180074729491, 5246902.989957189187407 ], [ 468785.302466304157861, 5246903.74485747423023 ], [ 468845.011754342005588, 5246822.965614206157625 ], [ 468843.990468112810049, 5246822.21071392018348 ], [ 468784.281180074729491, 5246902.989957189187407 ] ] ] } },
{ "type": "Feature", "properties": { "name": "Forsthaus_Unten 52", "GI": 0.36934244032861357, "MGRVI": 0.0040235856274386398, "MGRVI_COLOR": "#a3e635" }, "geometry": { "type": "Polygon", "coordinates": [ [ [ 468785.12448248063447, 5246904.816699190065265 ], [ 468786.145768709946424, 5246905.57159947603941 ], [ 468848.1824821815826, 5246821.643638953566551 ], [ 468847.161195952328853, 5246820.888738671317697 ], [ 468785.12448248063447, 5246904.816699190065265 ] ] ] } },
{ "type": "Feature", "properties": { "name": "Forsthaus_Unten 53", "GI": 0.36077693220083307, "MGRVI": -0.026824142263632087, "MGRVI_COLOR": "#eab308" }, "geometry": { "type": "Polygon", "coordinates": [ [ [ 468785.967784887005109, 5246906.643441195599735 ], [ 468786.989071116433479, 5246907.398341479711235 ], [ 468851.353210024593864, 5246820.321663704700768 ], [ 468850.331923795223702, 5246819.566763420589268 ], [ 468785.967784887005109, 5246906.643441195599735 ] ] ] } },
{ "type": "Feature", "properties": { "name": "Forsthaus_Unten 54", "GI": 0.38978191968660653, "MGRVI": 0.055131382707418228, "MGRVI_COLOR": "#a3e635" }, "geometry": { "type": "Polygon", "coordinates": [ [ [ 468786.81108729285188, 5246908.470183197408915 ], [ 468787.832373522105627, 5246909.225083482451737 ], [ 468854.523937864927575, 5246818.99968845397234 ], [ 468853.502651635615621, 5246818.244788168929517 ], [ 468786.81108729285188, 5246908.470183197408915 ] ] ] } },
{ "type": "Feature", "properties": { "name": "Forsthaus_Unten 55", "GI": 0.38791884272784771, "MGRVI": 0.035510234624888067, "MGRVI_COLOR": "#a3e635" }, "geometry": { "type": "Polygon", "coordinates": [ [ [ 468787.654389698582236, 5246910.296925199218094 ], [ 468788.675675928010605, 5246911.051825482398272 ], [ 468857.694665705028456, 5246817.677713203243911 ], [ 468856.673379475658294, 5246816.922812918201089 ], [ 468787.654389698582236, 5246910.296925199218094 ] ] ] } },
{ "type": "Feature", "properties": { "name": "Forsthaus_Unten 56", "GI": 0.37679602532091394, "MGRVI": 0.016133727446232218, "MGRVI_COLOR": "#a3e635" }, "geometry": { "type": "Polygon", "coordinates": [ [ [ 468788.497692104370799, 5246912.123667201027274 ], [ 468789.518978333624545, 5246912.878567484207451 ], [ 468860.865393545245752, 5246816.355737953446805 ], [ 468859.844107315992005, 5246815.600837668403983 ], [ 468788.497692104370799, 5246912.123667201027274 ] ] ] } },
{ "type": "Feature", "properties": { "name": "Forsthaus_Unten 57", "GI": 0.37652513602009985, "MGRVI": 0.017950744811673074, "MGRVI_COLOR": "#a3e635" }, "geometry": { "type": "Polygon", "coordinates": [ [ [ 468789.3409945104504, 5246913.950409202836454 ], [ 468790.36228073987877, 5246914.705309486016631 ], [ 468864.036121386045124, 5246815.033762701787055 ], [ 468863.014835156791378, 5246814.278862417675555 ], [ 468789.3409945104504, 5246913.950409202836454 ] ] ] } },
{ "type": "Feature", "properties": { "name": "Forsthaus_Unten 58", "GI": 0.36857423861388799, "MGRVI": -0.0066595396192724527, "MGRVI_COLOR": "#eab308" }, "geometry": { "type": "Polygon", "coordinates": [ [ [ 468790.184296916238964, 5246915.777151202782989 ], [ 468791.205583145550918, 5246916.532051487825811 ], [ 468867.20684922602959, 5246813.711787451989949 ], [ 468866.185562996659428, 5246812.956887166947126 ], [ 468790.184296916238964, 5246915.777151202782989 ] ] ] } },
{ "type": "Feature", "properties": { "name": "Forsthaus_Unten 59", "GI": 0.38602854094159433, "MGRVI": 0.042475073069372878, "MGRVI_COLOR": "#a3e635" }, "geometry": { "type": "Polygon", "coordinates": [ [ [ 468791.027599322027527, 5246917.603893206454813 ], [ 468792.048885551339481, 5246918.358793490566313 ], [ 468870.377577067061793, 5246812.389812202192843 ], [ 468869.356290837575216, 5246811.634911918081343 ], [ 468791.027599322027527, 5246917.603893206454813 ] ] ] } },
{ "type": "Feature", "properties": { "name": "Forsthaus_Unten 60", "GI": 0.37999565490286102, "MGRVI": 0.029938190611040506, "MGRVI_COLOR": "#a3e635" }, "geometry": { "type": "Polygon", "coordinates": [ [ [ 468791.870901727699675, 5246919.430635208263993 ], [ 468792.892187956953421, 5246920.18553549144417 ], [ 468873.548304906289559, 5246811.067836951464415 ], [ 468872.527018676919397, 5246810.312936666421592 ], [ 468791.870901727699675, 5246919.430635208263993 ] ] ] } },
{ "type": "Feature", "properties": { "name": "Forsthaus_Unten 61", "GI": 0.4011172336692051, "MGRVI": 0.08849172659778741, "MGRVI_COLOR": "#a3e635" }, "geometry": { "type": "Polygon", "coordinates": [ [ [ 468792.714204133779276, 5246921.25737720914185 ], [ 468793.73549036309123, 5246922.012277494184673 ], [ 468876.719032746856101, 5246809.745861701667309 ], [ 468875.697746517660562, 5246808.990961417555809 ], [ 468792.714204133779276, 5246921.25737720914185 ] ] ] } },
{ "type": "Feature", "properties": { "name": "Forsthaus_Unten 62", "GI": 0.37904938399035243, "MGRVI": 0.030067611346440381, "MGRVI_COLOR": "#a3e635" }, "geometry": { "type": "Polygon", "coordinates": [ [ [ 468793.557506539742462, 5246923.084119212813675 ], [ 468794.578792769112624, 5246923.839019495993853 ], [ 468879.889760588295758, 5246808.423886450007558 ], [ 468878.868474358809181, 5246807.668986165896058 ], [ 468793.557506539742462, 5246923.084119212813675 ] ] ] } },
{ "type": "Feature", "properties": { "name": "Forsthaus_Unten 63", "GI": 0.38838094522394823, "MGRVI": 0.053239282413704847, "MGRVI_COLOR": "#a3e635" }, "geometry": { "type": "Polygon", "coordinates": [ [ [ 468794.400808945647441, 5246924.91086121276021 ], [ 468795.422095174901187, 5246925.665761497803032 ], [ 468883.060488428978715, 5246807.10191119927913 ], [ 468882.039202199608553, 5246806.347010914236307 ], [ 468794.400808945647441, 5246924.91086121276021 ] ] ] } },
{ "type": "Feature", "properties": { "name": "Forsthaus_Unten 64", "GI": 0.38357158287381987, "MGRVI": 0.041569617731992498, "MGRVI_COLOR": "#a3e635" }, "geometry": { "type": "Polygon", "coordinates": [ [ [ 468795.244111351668835, 5246926.737603217363358 ], [ 468796.265397580864374, 5246927.49250349868089 ], [ 468886.231216269778088, 5246805.779935950413346 ], [ 468885.209930040349718, 5246805.025035664439201 ], [ 468795.244111351668835, 5246926.737603217363358 ] ] ] } },
{ "type": "Feature", "properties": { "name": "Forsthaus_Unten 65", "GI": 0.39005787852112334, "MGRVI": 0.055442963361763818, "MGRVI_COLOR": "#a3e635" }, "geometry": { "type": "Polygon", "coordinates": [ [ [ 468796.087413757340983, 5246928.56434522010386 ], [ 468797.108699986711144, 5246929.319245503284037 ], [ 468889.401944109937176, 5246804.457960701547563 ], [ 468888.380657880508807, 5246803.703060415573418 ], [ 468796.087413757340983, 5246928.56434522010386 ] ] ] } },
{ "type": "Feature", "properties": { "name": "Forsthaus_Unten 66", "GI": 0.39500877127188205, "MGRVI": 0.072714553660595829, "MGRVI_COLOR": "#a3e635" }, "geometry": { "type": "Polygon", "coordinates": [ [ [ 468797.170716163702309, 5246930.451087221503258 ], [ 468798.192002393072471, 5246931.205987505614758 ], [ 468892.812671951891389, 5246803.195985450409353 ], [ 468891.791385722521227, 5246802.441085168160498 ], [ 468797.170716163702309, 5246930.451087221503258 ] ] ] } },
{ "type": "Feature", "properties": { "name": "Forsthaus_Unten 67", "GI": 0.3995420061032951, "MGRVI": 0.082743012546312805, "MGRVI_COLOR": "#a3e635" }, "geometry": { "type": "Polygon", "coordinates": [ [ [ 468798.184892380551901, 5246932.086601162329316 ], [ 468799.206178609805647, 5246932.841501444578171 ], [ 468896.013241363980342, 5246801.873581223189831 ], [ 468894.991955134668387, 5246801.118680938147008 ], [ 468798.184892380551901, 5246932.086601162329316 ] ] ] } },
{ "type": "Feature", "properties": { "name": "Forsthaus_Unten 68", "GI": 0.41271357428668215, "MGRVI": 0.11205815003822514, "MGRVI_COLOR": "#a3e635" }, "geometry": { "type": "Polygon", "coordinates": [ [ [ 468799.486724396818317, 5246933.247603128664196 ], [ 468800.508010625955649, 5246934.002503413707018 ], [ 468899.151510164083447, 5246800.550112539902329 ], [ 468898.130223934713285, 5246799.79521225579083 ], [ 468799.486724396818317, 5246933.247603128664196 ] ] ] } },
{ "type": "Feature", "properties": { "name": "Forsthaus_Unten 69", "GI": 0.39229908147318582, "MGRVI": 0.056856603243407189, "MGRVI_COLOR": "#a3e635" }, "geometry": { "type": "Polygon", "coordinates": [ [ [ 468800.818982060067356, 5246934.408605094999075 ], [ 468801.840268289262895, 5246935.163505379110575 ], [ 468902.320204610354267, 5246799.22664385382086 ], [ 468901.298918381216936, 5246798.471743570640683 ], [ 468800.818982060067356, 5246934.408605094999075 ] ] ] } },
{ "type": "Feature", "properties": { "name": "Forsthaus_Unten 70", "GI": 0.39700101038762053, "MGRVI": 0.06705828971744994, "MGRVI_COLOR": "#a3e635" }, "geometry": { "type": "Polygon", "coordinates": [ [ [ 468802.489431063178927, 5246935.109140565618873 ], [ 468803.510717292490881, 5246935.86404084879905 ], [ 468905.487492638640106, 5246797.902142222039402 ], [ 468904.466206409328151, 5246797.147241937927902 ], [ 468802.489431063178927, 5246935.109140565618873 ] ] ] } },
{ "type": "Feature", "properties": { "name": "Forsthaus_Unten 71", "GI": 0.38628493006010084, "MGRVI": 0.036053733268749749, "MGRVI_COLOR": "#a3e635" }, "geometry": { "type": "Polygon", "coordinates": [ [ [ 468804.564751167607028, 5246935.258421299047768 ], [ 468805.58603739697719, 5246936.013321583159268 ], [ 468908.653096949390601, 5246796.576403976418078 ], [ 468907.631810720136855, 5246795.821503692306578 ], [ 468804.564751167607028, 5246935.258421299047768 ] ] ] } },
{ "type": "Feature", "properties": { "name": "Forsthaus_Unten 72", "GI": 0.39831103183336658, "MGRVI": 0.069244089559361746, "MGRVI_COLOR": "#a3e635" }, "geometry": { "type": "Polygon", "coordinates": [ [ [ 468806.740338360716123, 5246935.271182764321566 ], [ 468807.76162458996987, 5246936.02608304657042 ], [ 468911.818284284614492, 5246795.250359480269253 ], [ 468910.796998055418953, 5246794.495459196157753 ], [ 468806.740338360716123, 5246935.271182764321566 ] ] ] } },
{ "type": "Feature", "properties": { "name": "Forsthaus_Unten 73", "GI": 0.38797655872827203, "MGRVI": 0.037477456849481824, "MGRVI_COLOR": "#a3e635" }, "geometry": { "type": "Polygon", "coordinates": [ [ [ 468809.914902574906591, 5246933.923780924640596 ], [ 468810.936188804160338, 5246934.678681208752096 ], [ 468914.979317223478574, 5246793.921263773925602 ], [ 468913.958030994283035, 5246793.166363487951458 ], [ 468809.914902574906591, 5246933.923780924640596 ] ] ] } },
{ "type": "Feature", "properties": { "name": "Forsthaus_Unten 74", "GI": 0.38706753804144201, "MGRVI": 0.030838302031996202, "MGRVI_COLOR": "#a3e635" }, "geometry": { "type": "Polygon", "coordinates": [ [ [ 468813.089466790726874, 5246932.576379083096981 ], [ 468814.110753019980621, 5246933.331279367208481 ], [ 468918.140350163448602, 5246792.592168069444597 ], [ 468917.119063934253063, 5246791.837267781607807 ], [ 468813.089466790726874, 5246932.576379083096981 ] ] ] } },
{ "type": "Feature", "properties": { "name": "Forsthaus_Unten 75", "GI": 0.39596540852018347, "MGRVI": 0.057983751110300082, "MGRVI_COLOR": "#a3e635" }, "geometry": { "type": "Polygon", "coordinates": [ [ [ 468816.264031007245649, 5246931.228977242484689 ], [ 468817.285317236732226, 5246931.983877526596189 ], [ 468921.301383104117122, 5246791.263072360306978 ], [ 468920.280096874921583, 5246790.508172077126801 ], [ 468816.264031007245649, 5246931.228977242484689 ] ] ] } },
{ "type": "Feature", "properties": { "name": "Forsthaus_Unten 76", "GI": 0.40152238802085577, "MGRVI": 0.072663534955948308, "MGRVI_COLOR": "#a3e635" }, "geometry": { "type": "Polygon", "coordinates": [ [ [ 468819.438595222134609, 5246929.881575400009751 ], [ 468820.459881451562978, 5246930.636475685983896 ], [ 468924.462416043039411, 5246789.933976653032005 ], [ 468923.441129813785665, 5246789.17907637078315 ], [ 468819.438595222134609, 5246929.881575400009751 ] ] ] } },
{ "type": "Feature", "properties": { "name": "Forsthaus_Unten 77", "GI": 0.35990242131274391, "MGRVI": -0.065427709513225046, "MGRVI_COLOR": "#eab308" }, "geometry": { "type": "Polygon", "coordinates": [ [ [ 468822.613159438362345, 5246928.534173560328782 ], [ 468823.634445667557884, 5246929.289073845371604 ], [ 468927.623448983009439, 5246788.604880946688354 ], [ 468926.6021627538139, 5246787.849980660714209 ], [ 468822.613159438362345, 5246928.534173560328782 ] ] ] } },
{ "type": "Feature", "properties": { "name": "Forsthaus_Unten 78", "GI": 0.39785661287744573, "MGRVI": 0.061275860847202518, "MGRVI_COLOR": "#a3e635" }, "geometry": { "type": "Polygon", "coordinates": [ [ [ 468825.787723653716967, 5246927.186771720647812 ], [ 468826.809009882970713, 5246927.941672003827989 ], [ 468930.784481922688428, 5246787.275785240344703 ], [ 468929.763195693434682, 5246786.520884955301881 ], [ 468825.787723653716967, 5246927.186771720647812 ] ] ] } },
{ "type": "Feature", "properties": { "name": "Forsthaus_Unten 79", "GI": 0.3909315197610454, "MGRVI": 0.042337645982028917, "MGRVI_COLOR": "#a3e635" }, "geometry": { "type": "Polygon", "coordinates": [ [ [ 468828.962287869711872, 5246925.839369878172874 ], [ 468829.983574099023826, 5246926.594270163215697 ], [ 468933.945514862949494, 5246785.94668953306973 ], [ 468932.924228633579332, 5246785.19178924895823 ], [ 468828.962287869711872, 5246925.839369878172874 ] ] ] } },
{ "type": "Feature", "properties": { "name": "Forsthaus_Unten 80", "GI": 0.39445909427434045, "MGRVI": 0.046073212956207296, "MGRVI_COLOR": "#a3e635" }, "geometry": { "type": "Polygon", "coordinates": [ [ [ 468832.136852085182909, 5246924.491968037560582 ], [ 468833.158138314553071, 5246925.246868322603405 ], [ 468937.106547802512068, 5246784.617593826726079 ], [ 468936.085261573200114, 5246783.862693544477224 ], [ 468832.136852085182909, 5246924.491968037560582 ] ] ] } },
{ "type": "Feature", "properties": { "name": "Forsthaus_Unten 81", "GI": 0.41012374242193855, "MGRVI": 0.090859132117402014, "MGRVI_COLOR": "#a3e635" }, "geometry": { "type": "Polygon", "coordinates": [ [ [ 468835.311416299839038, 5246923.144566198810935 ], [ 468836.332702529150993, 5246923.899466482922435 ], [ 468940.267580741259735, 5246783.288498121313751 ], [ 468939.246294512005989, 5246782.533597838133574 ], [ 468835.311416299839038, 5246923.144566198810935 ] ] ] } },
{ "type": "Feature", "properties": { "name": "Forsthaus_Unten 82", "GI": 0.39413318557977561, "MGRVI": 0.042243748766930822, "MGRVI_COLOR": "#a3e635" }, "geometry": { "type": "Polygon", "coordinates": [ [ [ 468838.485980516532436, 5246921.79716435726732 ], [ 468839.507266745902598, 5246922.552064642310143 ], [ 468943.428613682219293, 5246781.959402412176132 ], [ 468942.407327452965546, 5246781.204502128995955 ], [ 468838.485980516532436, 5246921.79716435726732 ] ] ] } },
{ "type": "Feature", "properties": { "name": "Forsthaus_Unten 83", "GI": 0.36047940398135214, "MGRVI": -0.072338721814685161, "MGRVI_COLOR": "#eab308" }, "geometry": { "type": "Polygon", "coordinates": [ [ [ 468841.660544731887057, 5246920.449762518517673 ], [ 468842.681830961257219, 5246921.20466280169785 ], [ 468946.589646621607244, 5246780.630306709557772 ], [ 468945.568360392237082, 5246779.875406424514949 ], [ 468841.660544731887057, 5246920.449762518517673 ] ] ] } },
{ "type": "Feature", "properties": { "name": "Forsthaus_Unten 84", "GI": 0.40033558142015935, "MGRVI": 0.063347951064460797, "MGRVI_COLOR": "#a3e635" }, "geometry": { "type": "Polygon", "coordinates": [ [ [ 468844.985108947847039, 5246919.222360678017139 ], [ 468846.006395177100785, 5246919.977260961197317 ], [ 468949.900679561484139, 5246779.421211002394557 ], [ 468948.87939333205577, 5246778.666310717351735 ], [ 468844.985108947847039, 5246919.222360678017139 ] ] ] } },
{ "type": "Feature", "properties": { "name": "Forsthaus_Unten 85", "GI": 0.40380060645706595, "MGRVI": 0.082856043819631478, "MGRVI_COLOR": "#a3e635" }, "geometry": { "type": "Polygon", "coordinates": [ [ [ 468848.159673163085245, 5246917.874958836473525 ], [ 468849.180959392513614, 5246918.629859121516347 ], [ 468953.061712500930298, 5246778.092115296050906 ], [ 468952.040426271560136, 5246777.337215011939406 ], [ 468848.159673163085245, 5246917.874958836473525 ] ] ] } },
{ "type": "Feature", "properties": { "name": "Forsthaus_Unten 86", "GI": 0.40732140579004938, "MGRVI": 0.089100896840039981, "MGRVI_COLOR": "#a3e635" }, "geometry": { "type": "Polygon", "coordinates": [ [ [ 468851.334237378498074, 5246916.527556996792555 ], [ 468852.355523607984651, 5246917.282457279972732 ], [ 468956.222745440492872, 5246776.763019589707255 ], [ 468955.201459211180918, 5246776.008119306527078 ], [ 468851.334237378498074, 5246916.527556996792555 ] ] ] } },
{ "type": "Feature", "properties": { "name": "Forsthaus_Unten 87", "GI": 0.40232071421843951, "MGRVI": 0.073728393649485413, "MGRVI_COLOR": "#a3e635" }, "geometry": { "type": "Polygon", "coordinates": [ [ [ 468854.508801594376564, 5246915.180155153386295 ], [ 468855.530087823746726, 5246915.935055436566472 ], [ 468959.383778380288277, 5246775.433923880569637 ], [ 468958.362492151150946, 5246774.67902359738946 ], [ 468854.508801594376564, 5246915.180155153386295 ] ] ] } },
{ "type": "Feature", "properties": { "name": "Forsthaus_Unten 88", "GI": 0.41122238883595352, "MGRVI": 0.10481302821619908, "MGRVI_COLOR": "#a3e635" }, "geometry": { "type": "Polygon", "coordinates": [ [ [ 468857.683365810196847, 5246913.832753313705325 ], [ 468858.704652039567009, 5246914.58765359967947 ], [ 468962.544811320665758, 5246774.104828175157309 ], [ 468961.523525091179181, 5246773.349927891045809 ], [ 468857.683365810196847, 5246913.832753313705325 ] ] ] } },
{ "type": "Feature", "properties": { "name": "Forsthaus_Unten 89", "GI": 0.40849780323139556, "MGRVI": 0.097254590279002365, "MGRVI_COLOR": "#a3e635" }, "geometry": { "type": "Polygon", "coordinates": [ [ [ 468860.857930026773829, 5246912.485351474024355 ], [ 468861.879216256085783, 5246913.240251757204533 ], [ 468965.705844260868616, 5246772.775732467882335 ], [ 468964.68455803161487, 5246772.020832185633481 ], [ 468860.857930026773829, 5246912.485351474024355 ] ] ] } },
{ "type": "Feature", "properties": { "name": "Forsthaus_Unten 90", "GI": 0.41364993792924287, "MGRVI": 0.11210791078468048, "MGRVI_COLOR": "#a3e635" }, "geometry": { "type": "Polygon", "coordinates": [ [ [ 468864.032494242594112, 5246911.137949633412063 ], [ 468865.053780471847858, 5246911.892849917523563 ], [ 468968.866877200489398, 5246771.446636760607362 ], [ 468967.845590971177444, 5246770.691736476495862 ], [ 468864.032494242594112, 5246911.137949633412063 ] ] ] } },
{ "type": "Feature", "properties": { "name": "Forsthaus_Unten 91", "GI": 0.3987704712938433, "MGRVI": 0.06806469493967067, "MGRVI_COLOR": "#a3e635" }, "geometry": { "type": "Polygon", "coordinates": [ [ [ 468867.207058458472602, 5246909.790547792799771 ], [ 468868.228344687668141, 5246910.545448076911271 ], [ 468972.027910140284803, 5246770.117541053332388 ], [ 468971.006623910972849, 5246769.362640772014856 ], [ 468867.207058458472602, 5246909.790547792799771 ] ] ] } },
{ "type": "Feature", "properties": { "name": "Forsthaus_Unten 92", "GI": 0.41220710589841564, "MGRVI": 0.10332101210443462, "MGRVI_COLOR": "#a3e635" }, "geometry": { "type": "Polygon", "coordinates": [ [ [ 468870.381622674176469, 5246908.443145952187479 ], [ 468871.402908903430216, 5246909.198046236298978 ], [ 468975.188943080371246, 5246768.78844534792006 ], [ 468974.167656851117499, 5246768.033545064739883 ], [ 468870.381622674176469, 5246908.443145952187479 ] ] ] } },
{ "type": "Feature", "properties": { "name": "Forsthaus_Unten 93", "GI": 0.40584446647404343, "MGRVI": 0.083696400529366999, "MGRVI_COLOR": "#a3e635" }, "geometry": { "type": "Polygon", "coordinates": [ [ [ 468873.556186888832599, 5246907.095744111575186 ], [ 468874.577473118260968, 5246907.850644395686686 ], [ 468978.34997601917712, 5246767.459349642507732 ], [ 468977.328689789865166, 5246766.704449359327555 ], [ 468873.556186888832599, 5246907.095744111575186 ] ] ] } },
{ "type": "Feature", "properties": { "name": "Forsthaus_Unten 94", "GI": 0.43422432691357316, "MGRVI": 0.14882785168994048, "MGRVI_COLOR": "#a3e635" }, "geometry": { "type": "Polygon", "coordinates": [ [ [ 468876.730751104070805, 5246905.748342271894217 ], [ 468877.752037333499175, 5246906.503242555074394 ], [ 468981.511008958332241, 5246766.130253935232759 ], [ 468980.489722729136702, 5246765.375353651121259 ], [ 468876.730751104070805, 5246905.748342271894217 ] ] ] } },
{ "type": "Feature", "properties": { "name": "Forsthaus_Unten 95", "GI": 0.41525192493459967, "MGRVI": 0.10048812884644871, "MGRVI_COLOR": "#a3e635" }, "geometry": { "type": "Polygon", "coordinates": [ [ [ 468879.905315319600049, 5246904.400940430350602 ], [ 468880.926601548970211, 5246905.155840717256069 ], [ 468984.67204189801123, 5246764.801158228889108 ], [ 468983.650755668699276, 5246764.04625794570893 ], [ 468879.905315319600049, 5246904.400940430350602 ] ] ] } },
{ "type": "Feature", "properties": { "name": "Forsthaus_Unten 96", "GI": 0.40931865407069823, "MGRVI": 0.088668850986570916, "MGRVI_COLOR": "#a3e635" }, "geometry": { "type": "Polygon", "coordinates": [ [ [ 468883.079879534954671, 5246903.053538591600955 ], [ 468884.10116576415021, 5246903.808438874781132 ], [ 468987.833074837690219, 5246763.472062522545457 ], [ 468986.81178860849468, 5246762.717162238433957 ], [ 468883.079879534954671, 5246903.053538591600955 ] ] ] } },
{ "type": "Feature", "properties": { "name": "Forsthaus_Unten 97", "GI": 0.40425439230444299, "MGRVI": 0.073795263531175562, "MGRVI_COLOR": "#a3e635" }, "geometry": { "type": "Polygon", "coordinates": [ [ [ 468886.254443751240615, 5246901.706136749126017 ], [ 468887.275729980610777, 5246902.461037031374872 ], [ 468990.994107778125908, 5246762.142966815270483 ], [ 468989.972821548813954, 5246761.388066529296339 ], [ 468886.254443751240615, 5246901.706136749126017 ] ] ] } },
{ "type": "Feature", "properties": { "name": "Forsthaus_Unten 98", "GI": 0.40833962090576087, "MGRVI": 0.08472159947362716, "MGRVI_COLOR": "#a3e635" }, "geometry": { "type": "Polygon", "coordinates": [ [ [ 468889.429007967468351, 5246900.358734907582402 ], [ 468890.450294196780305, 5246901.113635190762579 ], [ 468994.155140718270559, 5246760.81387110799551 ], [ 468993.133854489016812, 5246760.058970824815333 ], [ 468889.429007967468351, 5246900.358734907582402 ] ] ] } },
{ "type": "Feature", "properties": { "name": "Forsthaus_Unten 99", "GI": 0.41174586154034015, "MGRVI": 0.090240593271371627, "MGRVI_COLOR": "#a3e635" }, "geometry": { "type": "Polygon", "coordinates": [ [ [ 468892.603572183230426, 5246899.01133306697011 ], [ 468893.624858412425965, 5246899.766233352012932 ], [ 468997.316173658007756, 5246759.484775401651859 ], [ 468996.294887428754009, 5246758.729875119403005 ], [ 468892.603572183230426, 5246899.01133306697011 ] ] ] } },
{ "type": "Feature", "properties": { "name": "Forsthaus_Unten 100", "GI": 0.40108596076200453, "MGRVI": 0.067558531275241987, "MGRVI_COLOR": "#a3e635" }, "geometry": { "type": "Polygon", "coordinates": [ [ [ 468895.778136398876086, 5246897.663931225426495 ], [ 468896.799422628071625, 5246898.41883151140064 ], [ 469000.477206597686745, 5246758.155679694376886 ], [ 468999.455920368491206, 5246757.400779410265386 ], [ 468895.778136398876086, 5246897.663931225426495 ] ] ] } },
{ "type": "Feature", "properties": { "name": "Forsthaus_Unten 101", "GI": 0.40464023815068217, "MGRVI": 0.076520379840635463, "MGRVI_COLOR": "#a3e635" }, "geometry": { "type": "Polygon", "coordinates": [ [ [ 468898.952700613939669, 5246896.316529386676848 ], [ 468899.973986843251623, 5246897.071429670788348 ], [ 469003.63823953672545, 5246756.826583988033235 ], [ 469002.616953307471704, 5246756.071683703921735 ], [ 468898.952700613939669, 5246896.316529386676848 ] ] ] } },
{ "type": "Feature", "properties": { "name": "Forsthaus_Unten 102", "GI": 0.40280642765828512, "MGRVI": 0.068505411213169581, "MGRVI_COLOR": "#a3e635" }, "geometry": { "type": "Polygon", "coordinates": [ [ [ 468902.12726482929429, 5246894.969127546995878 ], [ 468903.148551058606245, 5246895.724027831107378 ], [ 469006.799272476695478, 5246755.497488283552229 ], [ 469005.777986247325316, 5246754.742587998509407 ], [ 468902.12726482929429, 5246894.969127546995878 ] ] ] } },
{ "type": "Feature", "properties": { "name": "Forsthaus_Unten 103", "GI": 0.40230477961270977, "MGRVI": 0.06715661620443715, "MGRVI_COLOR": "#a3e635" }, "geometry": { "type": "Polygon", "coordinates": [ [ [ 468905.301829045289196, 5246893.621725706383586 ], [ 468906.323115274542943, 5246894.376625989563763 ], [ 469009.960305416840129, 5246754.168392576277256 ], [ 469008.939019187586382, 5246753.413492290303111 ], [ 468905.301829045289196, 5246893.621725706383586 ] ] ] } },
{ "type": "Feature", "properties": { "name": "Forsthaus_Unten 104", "GI": 0.39858082685583096, "MGRVI": 0.06108688859681697, "MGRVI_COLOR": "#a3e635" }, "geometry": { "type": "Polygon", "coordinates": [ [ [ 468908.47639326081844, 5246892.274323864839971 ], [ 468909.497679490072187, 5246893.029224148020148 ], [ 469013.12133835646091, 5246752.839296869933605 ], [ 469012.100052127265371, 5246752.084396585822105 ], [ 468908.47639326081844, 5246892.274323864839971 ] ] ] } },
{ "type": "Feature", "properties": { "name": "Forsthaus_Unten 105", "GI": 0.40209578456314982, "MGRVI": 0.066876977987515213, "MGRVI_COLOR": "#a3e635" }, "geometry": { "type": "Polygon", "coordinates": [ [ [ 468911.650957476405893, 5246890.926922024227679 ], [ 468912.672243705659639, 5246891.681822309270501 ], [ 469016.282371296256315, 5246751.5102011654526 ], [ 469015.261085067002568, 5246750.755300878547132 ], [ 468911.650957476405893, 5246890.926922024227679 ] ] ] } },
{ "type": "Feature", "properties": { "name": "Forsthaus_Unten 106", "GI": 0.41364406034168749, "MGRVI": 0.09466785451325499, "MGRVI_COLOR": "#a3e635" }, "geometry": { "type": "Polygon", "coordinates": [ [ [ 468914.825521692226175, 5246889.579520184546709 ], [ 468915.846807921538129, 5246890.334420469589531 ], [ 469019.443404235702474, 5246750.181105457246304 ], [ 469018.422118006390519, 5246749.426205173134804 ], [ 468914.825521692226175, 5246889.579520184546709 ] ] ] } },
{ "type": "Feature", "properties": { "name": "Forsthaus_Unten 107", "GI": 0.432130167836423, "MGRVI": 0.13859797094338214, "MGRVI_COLOR": "#a3e635" }, "geometry": { "type": "Polygon", "coordinates": [ [ [ 468918.060085907811299, 5246888.142118342220783 ], [ 468919.081372137006838, 5246888.897018627263606 ], [ 469022.664437175320927, 5246748.762009748257697 ], [ 469021.643150945950765, 5246748.007109463214874 ], [ 468918.060085907811299, 5246888.142118342220783 ] ] ] } },
{ "type": "Feature", "properties": { "name": "Forsthaus_Unten 108", "GI": 0.40875416078197696, "MGRVI": 0.086577939217730271, "MGRVI_COLOR": "#a3e635" }, "geometry": { "type": "Polygon", "coordinates": [ [ [ 468921.234650123282336, 5246886.794716501608491 ], [ 468922.255936352536082, 5246887.549616783857346 ], [ 469025.825470114825293, 5246747.432914042845368 ], [ 469024.804183885571547, 5246746.678013756871223 ], [ 468921.234650123282336, 5246886.794716501608491 ] ] ] } },
{ "type": "Feature", "properties": { "name": "Forsthaus_Unten 109", "GI": 0.4010387677164815, "MGRVI": 0.067492934220827139, "MGRVI_COLOR": "#a3e635" }, "geometry": { "type": "Polygon", "coordinates": [ [ [ 468924.409214339102618, 5246885.447314660996199 ], [ 468925.430500568298157, 5246886.202214946039021 ], [ 469028.986503054737113, 5246746.103818335570395 ], [ 469027.965216825425159, 5246745.34891805332154 ], [ 468924.409214339102618, 5246885.447314660996199 ] ] ] } },
{ "type": "Feature", "properties": { "name": "Forsthaus_Unten 110", "GI": 0.39703916829826436, "MGRVI": 0.059355743536489917, "MGRVI_COLOR": "#a3e635" }, "geometry": { "type": "Polygon", "coordinates": [ [ [ 468927.583778554981109, 5246884.099912821315229 ], [ 468928.605064784060232, 5246884.854813103564084 ], [ 469032.147535994881764, 5246744.774722629226744 ], [ 469031.12624976556981, 5246744.019822343252599 ], [ 468927.583778554981109, 5246884.099912821315229 ] ] ] } },
{ "type": "Feature", "properties": { "name": "Forsthaus_Unten 111", "GI": 0.40573559202417186, "MGRVI": 0.07787734969897192, "MGRVI_COLOR": "#a3e635" }, "geometry": { "type": "Polygon", "coordinates": [ [ [ 468930.758558753295802, 5246882.752669606357813 ], [ 468931.779844982549548, 5246883.507569891400635 ], [ 469035.256633271405008, 5246743.516340242698789 ], [ 469034.235347042093053, 5246742.761439959518611 ], [ 468930.758558753295802, 5246882.752669606357813 ] ] ] } },
{ "type": "Feature", "properties": { "name": "Forsthaus_Unten 112", "GI": 0.3672508134889404, "MGRVI": -0.036501438776344507, "MGRVI_COLOR": "#eab308" }, "geometry": { "type": "Polygon", "coordinates": [ [ [ 468933.940507280291058, 5246881.410691202618182 ], [ 468934.961793509486597, 5246882.165591489523649 ], [ 469036.642014988290612, 5246744.604893370531499 ], [ 469035.620728759036865, 5246743.849993088282645 ], [ 468933.940507280291058, 5246881.410691202618182 ] ] ] } },
{ "type": "Feature", "properties": { "name": "Forsthaus_Unten 113", "GI": 0.40061870644060282, "MGRVI": 0.06366717105355478, "MGRVI_COLOR": "#a3e635" }, "geometry": { "type": "Polygon", "coordinates": [ [ [ 468937.122455806704238, 5246880.068712796084583 ], [ 468938.143742036016192, 5246880.823613080196083 ], [ 469038.027396705525462, 5246745.69344649836421 ], [ 469037.006110476097092, 5246744.938546213321388 ], [ 468937.122455806704238, 5246880.068712796084583 ] ] ] } },
{ "type": "Feature", "properties": { "name": "Forsthaus_Unten 114", "GI": 0.39880556943223883, "MGRVI": 0.059627870401801411, "MGRVI_COLOR": "#a3e635" }, "geometry": { "type": "Polygon", "coordinates": [ [ [ 468940.304404333117418, 5246878.726734391413629 ], [ 468941.325690562545788, 5246879.481634675525129 ], [ 469039.412778422702104, 5246746.781999626196921 ], [ 469038.391492193215527, 5246746.027099342085421 ], [ 468940.304404333117418, 5246878.726734391413629 ] ] ] } },
{ "type": "Feature", "properties": { "name": "Forsthaus_Unten 115", "GI": 0.40617523874919143, "MGRVI": 0.073677064397091332, "MGRVI_COLOR": "#a3e635" }, "geometry": { "type": "Polygon", "coordinates": [ [ [ 468943.486352859530598, 5246877.384755986742675 ], [ 468944.507639088842552, 5246878.139656269922853 ], [ 469040.798160139471292, 5246747.870552753098309 ], [ 469039.776873910159338, 5246747.115652466192842 ], [ 468943.486352859530598, 5246877.384755986742675 ] ] ] } },
{ "type": "Feature", "properties": { "name": "Forsthaus_Unten 116", "GI": 0.39994427180132824, "MGRVI": 0.062920649134367776, "MGRVI_COLOR": "#a3e635" }, "geometry": { "type": "Polygon", "coordinates": [ [ [ 468946.668301386060193, 5246876.042777581140399 ], [ 468947.68958761531394, 5246876.797677864320576 ], [ 469042.183541856647935, 5246748.959105879068375 ], [ 469041.162255627510604, 5246748.20420559309423 ], [ 468946.668301386060193, 5246876.042777581140399 ] ] ] } },
{ "type": "Feature", "properties": { "name": "Forsthaus_Unten 117", "GI": 0.40397514384259237, "MGRVI": 0.069171378149752286, "MGRVI_COLOR": "#a3e635" }, "geometry": { "type": "Polygon", "coordinates": [ [ [ 468949.850249913346488, 5246874.700799173675478 ], [ 468950.871536142658442, 5246875.4556994587183 ], [ 469043.568923574232031, 5246750.04765900503844 ], [ 469042.547637344861869, 5246749.29275872092694 ], [ 468949.850249913346488, 5246874.700799173675478 ] ] ] } },
{ "type": "Feature", "properties": { "name": "Forsthaus_Unten 118", "GI": 0.40048486364342578, "MGRVI": 0.06194826025304434, "MGRVI_COLOR": "#a3e635" }, "geometry": { "type": "Polygon", "coordinates": [ [ [ 468953.032198440283537, 5246873.358820769004524 ], [ 468954.053484669711906, 5246874.113721052184701 ], [ 469044.954305291525088, 5246751.136212132871151 ], [ 469043.933019062213134, 5246750.381311848759651 ], [ 468953.032198440283537, 5246873.358820769004524 ] ] ] } },
{ "type": "Feature", "properties": { "name": "Forsthaus_Unten 119", "GI": 0.41521738432845134, "MGRVI": 0.097815393346622634, "MGRVI_COLOR": "#a3e635" }, "geometry": { "type": "Polygon", "coordinates": [ [ [ 468956.214146966172848, 5246872.016842362470925 ], [ 468957.235433195484802, 5246872.77174264844507 ], [ 469046.339687008236069, 5246752.224765258841217 ], [ 469045.318400778982323, 5246751.469864974729717 ], [ 468956.214146966172848, 5246872.016842362470925 ] ] ] } },
{ "type": "Feature", "properties": { "name": "Forsthaus_Unten 120", "GI": 0.43152562644460818, "MGRVI": 0.13995733168571034, "MGRVI_COLOR": "#a3e635" }, "geometry": { "type": "Polygon", "coordinates": [ [ [ 468959.518991466320585, 5246870.765125363133848 ], [ 468960.540277695457917, 5246871.520025649107993 ], [ 469018.173174161580391, 5246793.549882025457919 ], [ 469017.151887932326645, 5246792.794981741346419 ], [ 468959.518991466320585, 5246870.765125363133848 ] ] ] } },
{ "type": "Feature", "properties": { "name": "Forsthaus_Unten 121", "GI": 0.42753506136274239, "MGRVI": 0.12134436008204082, "MGRVI_COLOR": "#a3e635" }, "geometry": { "type": "Polygon", "coordinates": [ [ [ 468962.703361011866946, 5246869.424925083294511 ], [ 468963.7246472411789, 5246870.179825368337333 ], [ 469018.976391162606888, 5246795.431085096672177 ], [ 469017.955104933178518, 5246794.676184814423323 ], [ 468962.703361011866946, 5246869.424925083294511 ] ] ] } },
{ "type": "Feature", "properties": { "name": "Forsthaus_Unten 122", "GI": 0.40165935322107016, "MGRVI": 0.06114561197186856, "MGRVI_COLOR": "#a3e635" }, "geometry": { "type": "Polygon", "coordinates": [ [ [ 468965.88773055782076, 5246868.084724807180464 ], [ 468966.909016787132714, 5246868.839625088497996 ], [ 469019.779608163575176, 5246797.312288171611726 ], [ 469018.758321934205014, 5246796.557387887500226 ], [ 468965.88773055782076, 5246868.084724807180464 ] ] ] } },
{ "type": "Feature", "properties": { "name": "Forsthaus_Unten 123", "GI": 0.40605965050636217, "MGRVI": 0.069850411415860056, "MGRVI_COLOR": "#a3e635" }, "geometry": { "type": "Polygon", "coordinates": [ [ [ 468969.102100104559213, 5246866.77452452480793 ], [ 468970.123386333929375, 5246867.529424809850752 ], [ 469020.612825164862443, 5246799.223491247743368 ], [ 469019.591538935608696, 5246798.468590961769223 ], [ 468969.102100104559213, 5246866.77452452480793 ] ] ] } },
{ "type": "Feature", "properties": { "name": "Forsthaus_Unten 124", "GI": 0.41112202386886654, "MGRVI": 0.081888557586845129, "MGRVI_COLOR": "#a3e635" }, "geometry": { "type": "Polygon", "coordinates": [ [ [ 468972.286469649523497, 5246865.434324245899916 ], [ 468973.307755878951866, 5246866.189224530011415 ], [ 469021.416042165830731, 5246801.104694320820272 ], [ 469020.39475593646057, 5246800.349794034846127 ], [ 468972.286469649523497, 5246865.434324245899916 ] ] ] } },
{ "type": "Feature", "properties": { "name": "Forsthaus_Unten 125", "GI": 0.40310051409712849, "MGRVI": 0.058843897038660289, "MGRVI_COLOR": "#a3e635" }, "geometry": { "type": "Polygon", "coordinates": [ [ [ 468975.470839194662403, 5246864.094123966991901 ], [ 468976.492125424032565, 5246864.849024252034724 ], [ 469022.219259166624397, 5246802.985897392965853 ], [ 469021.197972937428858, 5246802.230997108854353 ], [ 468975.470839194662403, 5246864.094123966991901 ] ] ] } },
{ "type": "Feature", "properties": { "name": "Forsthaus_Unten 126", "GI": 0.40694177446777935, "MGRVI": 0.068661231300177747, "MGRVI_COLOR": "#a3e635" }, "geometry": { "type": "Polygon", "coordinates": [ [ [ 468978.655208740034141, 5246862.753923687152565 ], [ 468979.676494969346095, 5246863.508823973126709 ], [ 469023.022476167534478, 5246804.867100465111434 ], [ 469022.001189938280731, 5246804.11220018286258 ], [ 468978.655208740034141, 5246862.753923687152565 ] ] ] } },
{ "type": "Feature", "properties": { "name": "Forsthaus_Unten 127", "GI": 0.40504535972455813, "MGRVI": 0.05004635666533435, "MGRVI_COLOR": "#a3e635" }, "geometry": { "type": "Polygon", "coordinates": [ [ [ 468981.839578286744654, 5246861.413723407313228 ], [ 468982.860864516056608, 5246862.168623693287373 ], [ 469023.825693168735597, 5246806.748303538188338 ], [ 469022.804406939540058, 5246805.993403255008161 ], [ 468981.839578286744654, 5246861.413723407313228 ] ] ] } },
{ "type": "Feature", "properties": { "name": "Forsthaus_Unten 128", "GI": 0.40382456186587379, "MGRVI": 0.054193288871946854, "MGRVI_COLOR": "#a3e635" }, "geometry": { "type": "Polygon", "coordinates": [ [ [ 468985.023947831883561, 5246860.073523130267859 ], [ 468986.04523406131193, 5246860.828423414379358 ], [ 469024.628910169645678, 5246808.62950661405921 ], [ 469023.607623940391932, 5246807.87460632994771 ], [ 468985.023947831883561, 5246860.073523130267859 ] ] ] } },
{ "type": "Feature", "properties": { "name": "Forsthaus_Unten 129", "GI": 0.40410303809799797, "MGRVI": 0.053816643612779075, "MGRVI_COLOR": "#a3e635" }, "geometry": { "type": "Polygon", "coordinates": [ [ [ 468988.208317378885113, 5246858.733322851359844 ], [ 468989.229603607906029, 5246859.488223135471344 ], [ 469025.432127170963213, 5246810.510709688998759 ], [ 469024.410840941825882, 5246809.755809402093291 ], [ 468988.208317378885113, 5246858.733322851359844 ] ] ] } },
{ "type": "Feature", "properties": { "name": "Forsthaus_Unten 130", "GI": 0.40354191654190846, "MGRVI": 0.061456045142850177, "MGRVI_COLOR": "#a3e635" }, "geometry": { "type": "Polygon", "coordinates": [ [ [ 468991.392686923383735, 5246857.39312257245183 ], [ 468992.413973152579274, 5246858.148022855632007 ], [ 469026.235344171698671, 5246812.391912762075663 ], [ 469025.214057942386717, 5246811.63701247703284 ], [ 468991.392686923383735, 5246857.39312257245183 ] ] ] } },
{ "type": "Feature", "properties": { "name": "Forsthaus_Unten 131", "GI": 0.39915756970507044, "MGRVI": 0.050997216664254531, "MGRVI_COLOR": "#a3e635" }, "geometry": { "type": "Polygon", "coordinates": [ [ [ 468994.577056470094249, 5246856.052922292612493 ], [ 468995.598342699347995, 5246856.807822576723993 ], [ 469027.038561173016205, 5246814.273115833289921 ], [ 469026.017274943762459, 5246813.518215548247099 ], [ 468994.577056470094249, 5246856.052922292612493 ] ] ] } },
{ "type": "Feature", "properties": { "name": "Forsthaus_Unten 132", "GI": 0.38991586805245237, "MGRVI": 0.015936490128620289, "MGRVI_COLOR": "#a3e635" }, "geometry": { "type": "Polygon", "coordinates": [ [ [ 468997.761426016804762, 5246854.712722010910511 ], [ 468998.782712246174924, 5246855.467622295022011 ], [ 469027.841778174275532, 5246816.154318907298148 ], [ 469026.820491945079993, 5246815.39941862411797 ], [ 468997.761426016804762, 5246854.712722010910511 ] ] ] } },
{ "type": "Feature", "properties": { "name": "Forsthaus_Unten 133", "GI": 0.39754331192159936, "MGRVI": 0.033238239713411701, "MGRVI_COLOR": "#a3e635" }, "geometry": { "type": "Polygon", "coordinates": [ [ [ 469000.945795562351122, 5246853.372521732002497 ], [ 469001.967081791663077, 5246854.127422018907964 ], [ 469028.644995175243821, 5246818.035521980375051 ], [ 469027.623708945931867, 5246817.280621697194874 ], [ 469000.945795562351122, 5246853.372521732002497 ] ] ] } },
{ "type": "Feature", "properties": { "name": "Forsthaus_Unten 134", "GI": 0.36991846855343108, "MGRVI": -0.02060916938316943, "MGRVI_COLOR": "#eab308" }, "geometry": { "type": "Polygon", "coordinates": [ [ [ 469004.130165107839275, 5246852.03232145216316 ], [ 469005.151451337151229, 5246852.787221738137305 ], [ 469029.448212176328525, 5246819.916725054383278 ], [ 469028.426925946900155, 5246819.161824769340456 ], [ 469004.130165107839275, 5246852.03232145216316 ] ] ] } },
{ "type": "Feature", "properties": { "name": "Forsthaus_Unten 135", "GI": 0.36202923754788119, "MGRVI": -0.045645893508718303, "MGRVI_COLOR": "#eab308" }, "geometry": { "type": "Polygon", "coordinates": [ [ [ 469007.314534653734881, 5246850.692121176980436 ], [ 469008.335820883046836, 5246851.44702145922929 ], [ 469030.251429177238606, 5246821.797928127460182 ], [ 469029.230142947926652, 5246821.043027845211327 ], [ 469007.314534653734881, 5246850.692121176980436 ] ] ] } },
{ "type": "Feature", "properties": { "name": "Forsthaus_Unten 136", "GI": 0.35632608437346563, "MGRVI": -0.049863784643720828, "MGRVI_COLOR": "#eab308" }, "geometry": { "type": "Polygon", "coordinates": [ [ [ 469010.498904198990203, 5246849.351920895278454 ], [ 469011.52019042824395, 5246850.106821178458631 ], [ 469031.054646178381518, 5246823.679131199605763 ], [ 469030.033359948836733, 5246822.924230917356908 ], [ 469010.498904198990203, 5246849.351920895278454 ] ] ] } },
{ "type": "Feature", "properties": { "name": "Forsthaus_Unten 137", "GI": 0.36134450946012797, "MGRVI": -0.041463989650254322, "MGRVI_COLOR": "#eab308" }, "geometry": { "type": "Polygon", "coordinates": [ [ [ 469013.683273744303733, 5246848.011720617301762 ], [ 469014.704559973673895, 5246848.766620901413262 ], [ 469031.857863179116976, 5246825.560334272682667 ], [ 469030.836576949979644, 5246824.805433990433812 ], [ 469013.683273744303733, 5246848.011720617301762 ] ] ] } },
{ "type": "Feature", "properties": { "name": "Forsthaus_Unten 138", "GI": 0.35356188938089272, "MGRVI": -0.051286302520633306, "MGRVI_COLOR": "#eab308" }, "geometry": { "type": "Polygon", "coordinates": [ [ [ 469016.867643289966509, 5246846.671520338393748 ], [ 469017.888929519336671, 5246847.42642061971128 ], [ 469032.661080180085264, 5246827.441537347622216 ], [ 469031.639793950831518, 5246826.686637062579393 ], [ 469016.867643289966509, 5246846.671520338393748 ] ] ] } },
{ "type": "Feature", "properties": { "name": "Forsthaus_Unten 139", "GI": 0.35193579634963734, "MGRVI": -0.048029777050958497, "MGRVI_COLOR": "#eab308" }, "geometry": { "type": "Polygon", "coordinates": [ [ [ 469020.052012835105415, 5246845.331320059485734 ], [ 469021.07329906441737, 5246846.086220345459878 ], [ 469033.464297181053553, 5246829.322740422561765 ], [ 469032.443010951741599, 5246828.567840138450265 ], [ 469020.052012835105415, 5246845.331320059485734 ] ] ] } },
{ "type": "Feature", "properties": { "name": "Forsthaus_Unten 140", "GI": 0.35191305796882677, "MGRVI": -0.041827493044877859, "MGRVI_COLOR": "#eab308" }, "geometry": { "type": "Polygon", "coordinates": [ [ [ 469023.236382381175645, 5246843.991119778715074 ], [ 469024.257668610487599, 5246844.746020064689219 ], [ 469034.267514182254672, 5246831.203943494707346 ], [ 469033.24622795288451, 5246830.449043209664524 ], [ 469023.236382381175645, 5246843.991119778715074 ] ] ] } },
{ "type": "Feature", "properties": { "name": "Forsthaus_Unten 141", "GI": 0.35480932481646754, "MGRVI": -0.035668152307101658, "MGRVI_COLOR": "#eab308" }, "geometry": { "type": "Polygon", "coordinates": [ [ [ 469026.420751926722005, 5246842.650919500738382 ], [ 469027.442038156092167, 5246843.405819784849882 ], [ 469035.070731183339376, 5246833.085146568715572 ], [ 469034.049444953794591, 5246832.330246284604073 ], [ 469026.420751926722005, 5246842.650919500738382 ] ] ] } },
{ "type": "Feature", "properties": { "name": "Forsthaus_Unten 142", "GI": 0.41524068286064497, "MGRVI": 0.095704297653066747, "MGRVI_COLOR": "#a3e635" }, "geometry": { "type": "Polygon", "coordinates": [ [ [ 469029.605121473839972, 5246841.310719219967723 ], [ 469030.626407703151926, 5246842.065619505010545 ], [ 469035.87394818442408, 5246834.966349640861154 ], [ 469034.852661955228541, 5246834.211449358612299 ], [ 469029.605121473839972, 5246841.310719219967723 ] ] ] } }
]
}
