{
"type": "FeatureCollection",
"name": "ForsthausEcke_260306",
"crs": { "type": "name", "properties": { "name": "urn:ogc:def:crs:EPSG::32632" } },
"features": [
{ "type": "Feature", "properties": { "name": "Forsthaus_Ecke 120", "GI": 0.44248368556282419, "MGRVI": 0.16733320831044401, "MGRVI_COLOR": "#a3e635" }, "geometry": { "type": "Polygon", "coordinates": [ [ [ 469027.855648077093065, 5246778.231762130744755 ], [ 469028.8815266462625, 5246778.98040968645364 ], [ 469048.304560049495194, 5246752.364849950186908 ], [ 469047.278681480267551, 5246751.616202395409346 ], [ 469027.855648077093065, 5246778.231762130744755 ] ] ] } },
{ "type": "Feature", "properties": { "name": "Forsthaus_Ecke 121", "GI": 0.44966342849216168, "MGRVI": 0.18138879698295848, "MGRVI_COLOR": "#a3e635" }, "geometry": { "type": "Polygon", "coordinates": [ [ [ 469030.868000751477666, 5246777.106522295624018 ], [ 469031.893879320530687, 5246777.855169851332903 ], [ 469049.756544027652126, 5246753.377797563560307 ], [ 469048.730665458657313, 5246752.629150007851422 ], [ 469030.868000751477666, 5246777.106522295624018 ] ] ] } },
{ "type": "Feature", "properties": { "name": "Forsthaus_Ecke 122", "GI": 0.3786173542646511, "MGRVI": -0.0137148576045654, "MGRVI_COLOR": "#eab308" }, "geometry": { "type": "Polygon", "coordinates": [ [ [ 469033.880353426095098, 5246775.981282458640635 ], [ 469034.906231995148119, 5246776.72993001434952 ], [ 469051.20852800598368, 5246754.390745176933706 ], [ 469050.182649436872452, 5246753.642097621224821 ], [ 469033.880353426095098, 5246775.981282458640635 ] ] ] } },
{ "type": "Feature", "properties": { "name": "Forsthaus_Ecke 123", "GI": 0.37548217488778257, "MGRVI": -0.017775861405385927, "MGRVI_COLOR": "#eab308" }, "geometry": { "type": "Polygon", "coordinates": [ [ [ 469036.892706101702061, 5246774.856042623519897 ], [ 469037.918584670871496, 5246775.604690179228783 ], [ 469052.660511984839104, 5246755.403692788444459 ], [ 469051.634633415727876, 5246754.655045235529542 ], [ 469036.892706101702061, 5246774.856042623519897 ] ] ] } },
{ "type": "Feature", "properties": { "name": "Forsthaus_Ecke 124", "GI": 0.38763512776269077, "MGRVI": 0.0072256472601931309, "MGRVI_COLOR": "#a3e635" }, "geometry": { "type": "Polygon", "coordinates": [ [ [ 469039.905058775912039, 5246773.730802789330482 ], [ 469040.930937345081475, 5246774.479450345039368 ], [ 469054.112495963112451, 5246756.416640402749181 ], [ 469053.086617394059431, 5246755.667992847971618 ], [ 469039.905058775912039, 5246773.730802789330482 ] ] ] } },
{ "type": "Feature", "properties": { "name": "Forsthaus_Ecke 125", "GI": 0.44153663569078799, "MGRVI": 0.11692487418310966, "MGRVI_COLOR": "#a3e635" }, "geometry": { "type": "Polygon", "coordinates": [ [ [ 469042.917411450413056, 5246772.605562951415777 ], [ 469043.943290019407868, 5246773.354210508055985 ], [ 469055.56447994109476, 5246757.429588017053902 ], [ 469054.538601371983532, 5246756.680940461345017 ], [ 469042.917411450413056, 5246772.605562951415777 ] ] ] } },
{ "type": "Feature", "properties": { "name": "Forsthaus_Ecke 126", "GI": 0.45247255302517853, "MGRVI": 0.13086498863697188, "MGRVI_COLOR": "#a3e635" }, "geometry": { "type": "Polygon", "coordinates": [ [ [ 469045.929764124506619, 5246771.48032311629504 ], [ 469046.955642693617847, 5246772.22897067386657 ], [ 469057.016463919368107, 5246758.442535629495978 ], [ 469055.990585350256879, 5246757.693888072855771 ], [ 469045.929764124506619, 5246771.48032311629504 ] ] ] } },
{ "type": "Feature", "properties": { "name": "Forsthaus_Ecke 127", "GI": 0.45061900157045937, "MGRVI": 0.1309378398758396, "MGRVI_COLOR": "#a3e635" }, "geometry": { "type": "Polygon", "coordinates": [ [ [ 469048.942116799822543, 5246770.355083281174302 ], [ 469049.967995368875563, 5246771.103730836883187 ], [ 469058.468447898107115, 5246759.455483242869377 ], [ 469057.44256932893768, 5246758.706835687160492 ], [ 469048.942116799822543, 5246770.355083281174302 ] ] ] } },
{ "type": "Feature", "properties": { "name": "Forsthaus_Ecke 128", "GI": 0.44081024626848475, "MGRVI": 0.11174032310072898, "MGRVI_COLOR": "#a3e635" }, "geometry": { "type": "Polygon", "coordinates": [ [ [ 469051.954469474090729, 5246769.22984344791621 ], [ 469052.980348043143749, 5246769.97849100176245 ], [ 469059.920431876264047, 5246760.468430855311453 ], [ 469058.894553307327442, 5246759.719783300533891 ], [ 469051.954469474090729, 5246769.22984344791621 ] ] ] } },
{ "type": "Feature", "properties": { "name": "Forsthaus_Ecke 129", "GI": 0.43964742722401257, "MGRVI": 0.089619751042460727, "MGRVI_COLOR": "#a3e635" }, "geometry": { "type": "Polygon", "coordinates": [ [ [ 469054.966822149523068, 5246768.104603610001504 ], [ 469055.992700718634296, 5246768.853251164779067 ], [ 469061.372415855003055, 5246761.481378468684852 ], [ 469060.34653728606645, 5246760.73273091390729 ], [ 469054.966822149523068, 5246768.104603610001504 ] ] ] } },
{ "type": "Feature", "properties": { "name": "Forsthaus_Ecke 129", "GI": 0.43964742722401257, "MGRVI": 0.089619751042460727, "MGRVI_COLOR": "#a3e635" }, "geometry": { "type": "Polygon", "coordinates": [ [ [ 469057.979174823034555, 5246766.979363775812089 ], [ 469059.005053392145783, 5246767.728011329658329 ], [ 469062.824399832868949, 5246762.494326082989573 ], [ 469061.798521263757721, 5246761.745678528212011 ], [ 469057.979174823034555, 5246766.979363775812089 ] ] ] } }
]
}
