{
"type": "FeatureCollection",
"name": "HausEiche_260304",
"crs": { "type": "name", "properties": { "name": "urn:ogc:def:crs:EPSG::32632" } },
"features": [
{ "type": "Feature", "properties": { "name": "HausEiche 01", "GI": 0.34712741272033887, "MGRVI": -0.10034949347502164, "MGRVI_COLOR": "#eab308" }, "geometry": { "type": "Polygon", "coordinates": [ [ [ 479786.850454345694743, 5239912.170203890651464 ], [ 479787.754482322838157, 5239913.062186745926738 ], [ 479915.391926022537518, 5239783.701157957315445 ], [ 479914.487898045510519, 5239782.809175100177526 ], [ 479786.850454345694743, 5239912.170203890651464 ] ] ] } },
{ "type": "Feature", "properties": { "name": "HausEiche 02", "GI": 0.34328214938198925, "MGRVI": -0.10419877978495923, "MGRVI_COLOR": "#eab308" }, "geometry": { "type": "Polygon", "coordinates": [ [ [ 479788.246879536658525, 5239913.274077884852886 ], [ 479789.150907513743732, 5239914.166060741059482 ], [ 479916.789966241456568, 5239784.803395112976432 ], [ 479915.885938264487777, 5239783.911412255838513 ], [ 479788.246879536658525, 5239913.274077884852886 ] ] ] } },
{ "type": "Feature", "properties": { "name": "HausEiche 03", "GI": 0.3401523052117475, "MGRVI": -0.10426159968153896, "MGRVI_COLOR": "#eab308" }, "geometry": { "type": "Polygon", "coordinates": [ [ [ 479789.643304727796931, 5239914.377951877191663 ], [ 479790.547332704765722, 5239915.269934733398259 ], [ 479918.188006460375618, 5239785.905632267706096 ], [ 479917.283978483290412, 5239785.013649410568178 ], [ 479789.643304727796931, 5239914.377951877191663 ] ] ] } },
{ "type": "Feature", "properties": { "name": "HausEiche 04", "GI": 0.35034665953137745, "MGRVI": -0.072111163362299224, "MGRVI_COLOR": "#eab308" }, "geometry": { "type": "Polygon", "coordinates": [ [ [ 479791.039729918469675, 5239915.481825868599117 ], [ 479791.943757895496674, 5239916.37380872387439 ], [ 479919.586046678887215, 5239787.007869421504438 ], [ 479918.682018701802008, 5239786.115886566229165 ], [ 479791.039729918469675, 5239915.481825868599117 ] ] ] } },
{ "type": "Feature", "properties": { "name": "HausEiche 05", "GI": 0.36268004371420831, "MGRVI": -0.054730099828250743, "MGRVI_COLOR": "#eab308" }, "geometry": { "type": "Polygon", "coordinates": [ [ [ 479792.436155110481195, 5239916.585699861869216 ], [ 479793.340183087508194, 5239917.477682717144489 ], [ 479920.984086898737587, 5239788.110106578096747 ], [ 479920.080058921768796, 5239787.218123723752797 ], [ 479792.436155110481195, 5239916.585699861869216 ] ] ] } },
{ "type": "Feature", "properties": { "name": "HausEiche 06", "GI": 0.35297512735020742, "MGRVI": -0.079035464559364929, "MGRVI_COLOR": "#eab308" }, "geometry": { "type": "Polygon", "coordinates": [ [ [ 479793.832580301153939, 5239917.68957385327667 ], [ 479794.736608278297354, 5239918.581556709483266 ], [ 479922.382127117656637, 5239789.212343732826412 ], [ 479921.478099140455015, 5239788.320360877551138 ], [ 479793.832580301153939, 5239917.68957385327667 ] ] ] } },
{ "type": "Feature", "properties": { "name": "HausEiche 07", "GI": 0.3799228034450845, "MGRVI": -0.0026487732927770796, "MGRVI_COLOR": "#eab308" }, "geometry": { "type": "Polygon", "coordinates": [ [ [ 479795.228970579628367, 5239918.7934833727777 ], [ 479796.132998556538951, 5239919.685466227121651 ], [ 479923.780162046314217, 5239790.31458639446646 ], [ 479922.876134069170803, 5239789.422603538259864 ], [ 479795.228970579628367, 5239918.7934833727777 ] ] ] } },
{ "type": "Feature", "properties": { "name": "HausEiche 08", "GI": 0.37677918958443035, "MGRVI": -0.014786216344509296, "MGRVI_COLOR": "#eab308" }, "geometry": { "type": "Polygon", "coordinates": [ [ [ 479796.625324377848301, 5239919.897430006414652 ], [ 479797.529352354933508, 5239920.789412862621248 ], [ 479925.178193294676021, 5239791.41683292388916 ], [ 479924.274165317474399, 5239790.524850067682564 ], [ 479796.625324377848301, 5239919.897430006414652 ] ] ] } },
{ "type": "Feature", "properties": { "name": "HausEiche 09", "GI": 0.45388131074880844, "MGRVI": 0.26497777297509106, "MGRVI_COLOR": "#4ade80" }, "geometry": { "type": "Polygon", "coordinates": [ [ [ 479798.021678175660782, 5239921.001376640051603 ], [ 479798.925706152687781, 5239921.893359499052167 ], [ 479926.576224542804994, 5239792.519079457968473 ], [ 479925.672196565603372, 5239791.6270966026932 ], [ 479798.021678175660782, 5239921.001376640051603 ] ] ] } },
{ "type": "Feature", "properties": { "name": "HausEiche 10", "GI": 0.4488541759442099, "MGRVI": 0.25483973453654435, "MGRVI_COLOR": "#4ade80" }, "geometry": { "type": "Polygon", "coordinates": [ [ [ 479799.418031974753831, 5239922.1053232755512 ], [ 479800.322059951897245, 5239922.997306130826473 ], [ 479927.974255791807082, 5239793.621325990185142 ], [ 479927.070227814780083, 5239792.729343133978546 ], [ 479799.418031974753831, 5239922.1053232755512 ] ] ] } },
{ "type": "Feature", "properties": { "name": "HausEiche 11", "GI": 0.44311669568966333, "MGRVI": 0.24333504053822619, "MGRVI_COLOR": "#4ade80" }, "geometry": { "type": "Polygon", "coordinates": [ [ [ 479800.814385772799142, 5239923.209269911050797 ], [ 479801.718413749884348, 5239924.101252767257392 ], [ 479929.372287040110677, 5239794.723572523333132 ], [ 479928.468259062909056, 5239793.831589667126536 ], [ 479800.814385772799142, 5239923.209269911050797 ] ] ] } },
{ "type": "Feature", "properties": { "name": "HausEiche 12", "GI": 0.45110868297537654, "MGRVI": 0.25951653473533226, "MGRVI_COLOR": "#4ade80" }, "geometry": { "type": "Polygon", "coordinates": [ [ [ 479802.21073957090266, 5239924.313216543756425 ], [ 479803.114767548104282, 5239925.205199399963021 ], [ 479930.770318288356066, 5239795.825819054618478 ], [ 479929.866290311329067, 5239794.93383620120585 ], [ 479802.21073957090266, 5239924.313216543756425 ] ] ] } },
{ "type": "Feature", "properties": { "name": "HausEiche 13", "GI": 0.44336956760042601, "MGRVI": 0.23604249368753935, "MGRVI_COLOR": "#4ade80" }, "geometry": { "type": "Polygon", "coordinates": [ [ [ 479803.607093369821087, 5239925.417163179256022 ], [ 479804.511121346964501, 5239926.309146034531295 ], [ 479932.168349537532777, 5239796.928065586835146 ], [ 479931.264321560214739, 5239796.03608273062855 ], [ 479803.607093369821087, 5239925.417163179256022 ] ] ] } },
{ "type": "Feature", "properties": { "name": "HausEiche 14", "GI": 0.3930693359459273, "MGRVI": 0.064768712811074006, "MGRVI_COLOR": "#a3e635" }, "geometry": { "type": "Polygon", "coordinates": [ [ [ 479805.003447168099228, 5239926.521109813824296 ], [ 479805.907475145184435, 5239927.413092670030892 ], [ 479933.56638078566175, 5239798.030312119983137 ], [ 479932.662352808692958, 5239797.138329263776541 ], [ 479805.003447168099228, 5239926.521109813824296 ] ] ] } },
{ "type": "Feature", "properties": { "name": "HausEiche 15", "GI": 0.32177973401349441, "MGRVI": -0.16784959776611605, "MGRVI_COLOR": "#eab308" }, "geometry": { "type": "Polygon", "coordinates": [ [ [ 479806.399800966726616, 5239927.625056449323893 ], [ 479807.303828943753615, 5239928.517039303667843 ], [ 479934.96441203460563, 5239799.132558654993773 ], [ 479934.060384057462215, 5239798.240575797855854 ], [ 479806.399800966726616, 5239927.625056449323893 ] ] ] } },
{ "type": "Feature", "properties": { "name": "HausEiche 16", "GI": 0.33828521170631087, "MGRVI": -0.062069812006466593, "MGRVI_COLOR": "#eab308" }, "geometry": { "type": "Polygon", "coordinates": [ [ [ 479807.796154799580108, 5239928.729003117419779 ], [ 479808.700182776839938, 5239929.620985974557698 ], [ 479936.362423752667382, 5239800.234825049526989 ], [ 479935.45839577546576, 5239799.342842193320394 ], [ 479807.796154799580108, 5239928.729003117419779 ] ] ] } },
{ "type": "Feature", "properties": { "name": "HausEiche 17", "GI": 0.32397263254452874, "MGRVI": -0.17362790459754585, "MGRVI_COLOR": "#eab308" }, "geometry": { "type": "Polygon", "coordinates": [ [ [ 479809.192508658044972, 5239929.832949813455343 ], [ 479810.096536635071971, 5239930.724932666867971 ], [ 479937.760421152983326, 5239801.337106007151306 ], [ 479936.856393175839912, 5239800.445123151876032 ], [ 479809.192508658044972, 5239929.832949813455343 ] ] ] } },
{ "type": "Feature", "properties": { "name": "HausEiche 18", "GI": 0.3353359598693853, "MGRVI": -0.14573577623875889, "MGRVI_COLOR": "#eab308" }, "geometry": { "type": "Polygon", "coordinates": [ [ [ 479810.588866039586719, 5239930.936892922967672 ], [ 479811.492894016671926, 5239931.828875780105591 ], [ 479939.158418547187466, 5239802.439386959187686 ], [ 479938.254390570218675, 5239801.547404103912413 ], [ 479810.588866039586719, 5239930.936892922967672 ] ] ] } },
{ "type": "Feature", "properties": { "name": "HausEiche 19", "GI": 0.4095270588340677, "MGRVI": 0.12040556803879074, "MGRVI_COLOR": "#a3e635" }, "geometry": { "type": "Polygon", "coordinates": [ [ [ 479811.985224378993735, 5239932.040835058316588 ], [ 479812.889252356137149, 5239932.932817914523184 ], [ 479940.556415939412545, 5239803.541667909361422 ], [ 479939.652387962152716, 5239802.649685054086149 ], [ 479811.985224378993735, 5239932.040835058316588 ] ] ] } },
{ "type": "Feature", "properties": { "name": "HausEiche 20", "GI": 0.41418254925726916, "MGRVI": 0.14927408473085335, "MGRVI_COLOR": "#a3e635" }, "geometry": { "type": "Polygon", "coordinates": [ [ [ 479813.381582718982827, 5239933.14477719552815 ], [ 479814.285610696009826, 5239934.036760050803423 ], [ 479941.954413331870455, 5239804.643948858603835 ], [ 479941.050385354843456, 5239803.751966002397239 ], [ 479813.381582718982827, 5239933.14477719552815 ] ] ] } },
{ "type": "Feature", "properties": { "name": "HausEiche 21", "GI": 0.40205625013052365, "MGRVI": 0.12289384813542201, "MGRVI_COLOR": "#a3e635" }, "geometry": { "type": "Polygon", "coordinates": [ [ [ 479814.777941059612203, 5239934.248719329014421 ], [ 479815.68196903669741, 5239935.140702184289694 ], [ 479943.352410724852234, 5239805.746229807846248 ], [ 479942.448382747883443, 5239804.854246952570975 ], [ 479814.777941059612203, 5239934.248719329014421 ] ] ] } },
{ "type": "Feature", "properties": { "name": "HausEiche 22", "GI": 0.40029198319794707, "MGRVI": 0.12239071870188481, "MGRVI_COLOR": "#a3e635" }, "geometry": { "type": "Polygon", "coordinates": [ [ [ 479816.174353636219166, 5239935.352606305852532 ], [ 479817.078381613304373, 5239936.244589161127806 ], [ 479944.750408021325711, 5239806.848510663956404 ], [ 479943.84638004435692, 5239805.95652780868113 ], [ 479816.174353636219166, 5239935.352606305852532 ] ] ] } },
{ "type": "Feature", "properties": { "name": "HausEiche 23", "GI": 0.40568045928590613, "MGRVI": 0.12814765829573976, "MGRVI_COLOR": "#a3e635" }, "geometry": { "type": "Polygon", "coordinates": [ [ [ 479817.570880155428313, 5239936.456377394497395 ], [ 479818.474908132455312, 5239937.348360248841345 ], [ 479946.148405115120113, 5239807.950791320763528 ], [ 479945.244377137976699, 5239807.05880846362561 ], [ 479817.570880155428313, 5239936.456377394497395 ] ] ] } },
{ "type": "Feature", "properties": { "name": "HausEiche 24", "GI": 0.39987075778595921, "MGRVI": 0.11351235711989355, "MGRVI_COLOR": "#a3e635" }, "geometry": { "type": "Polygon", "coordinates": [ [ [ 479818.967148673487827, 5239937.560410883277655 ], [ 479819.871176650456619, 5239938.452393736690283 ], [ 479947.546402666426729, 5239809.053072426468134 ], [ 479946.642374689225107, 5239808.161089569330215 ], [ 479818.967148673487827, 5239937.560410883277655 ] ] ] } },
{ "type": "Feature", "properties": { "name": "HausEiche 25", "GI": 0.39598582908560515, "MGRVI": 0.10624929964491768, "MGRVI_COLOR": "#a3e635" }, "geometry": { "type": "Polygon", "coordinates": [ [ [ 479820.363662204006687, 5239938.66419518366456 ], [ 479821.267690181150101, 5239939.556178038939834 ], [ 479948.944399784086272, 5239810.155353105627 ], [ 479948.040371807059273, 5239809.26337025128305 ], [ 479820.363662204006687, 5239938.66419518366456 ] ] ] } },
{ "type": "Feature", "properties": { "name": "HausEiche 26", "GI": 0.39735102362442842, "MGRVI": 0.11436843228547827, "MGRVI_COLOR": "#a3e635" }, "geometry": { "type": "Polygon", "coordinates": [ [ [ 479821.760258427995723, 5239939.767895821481943 ], [ 479822.664286405080929, 5239940.659878679551184 ], [ 479950.342271097819321, 5239811.257761438377202 ], [ 479949.438243120734114, 5239810.365778584033251 ], [ 479821.760258427995723, 5239939.767895821481943 ] ] ] } },
{ "type": "Feature", "properties": { "name": "HausEiche 27", "GI": 0.39436777565629139, "MGRVI": 0.11095955280895066, "MGRVI_COLOR": "#a3e635" }, "geometry": { "type": "Polygon", "coordinates": [ [ [ 479823.156386628455948, 5239940.872071958146989 ], [ 479824.060414605366532, 5239941.764054813422263 ], [ 479951.740286883432418, 5239812.360024497844279 ], [ 479950.836258906347211, 5239811.468041644431651 ], [ 479823.156386628455948, 5239940.872071958146989 ] ] ] } },
{ "type": "Feature", "properties": { "name": "HausEiche 28", "GI": 0.40056107486882164, "MGRVI": 0.13604895701944153, "MGRVI_COLOR": "#a3e635" }, "geometry": { "type": "Polygon", "coordinates": [ [ [ 479824.553777201217599, 5239941.974964197725058 ], [ 479825.457805178361014, 5239942.866947053931653 ], [ 479953.138300427934155, 5239813.46228535566479 ], [ 479952.234272450848948, 5239812.570302499458194 ], [ 479824.553777201217599, 5239941.974964197725058 ] ] ] } },
{ "type": "Feature", "properties": { "name": "HausEiche 29", "GI": 0.40704891662782067, "MGRVI": 0.15464401604962563, "MGRVI_COLOR": "#a3e635" }, "geometry": { "type": "Polygon", "coordinates": [ [ [ 479825.954907531267963, 5239943.074052928946912 ], [ 479826.858935508644208, 5239943.966035784222186 ], [ 479954.536307334725279, 5239814.564539685845375 ], [ 479953.632279357640073, 5239813.672556829638779 ], [ 479825.954907531267963, 5239943.074052928946912 ] ] ] } },
{ "type": "Feature", "properties": { "name": "HausEiche 30", "GI": 0.36840208780689215, "MGRVI": -0.00076209575578011814, "MGRVI_COLOR": "#eab308" }, "geometry": { "type": "Polygon", "coordinates": [ [ [ 479827.356037861027289, 5239944.173141657374799 ], [ 479828.260065838287119, 5239945.065124513581395 ], [ 479955.934314241225366, 5239815.666794016957283 ], [ 479955.030286264081951, 5239814.77481116168201 ], [ 479827.356037861027289, 5239944.173141657374799 ] ] ] } },
{ "type": "Feature", "properties": { "name": "HausEiche 31", "GI": 0.37981503327285765, "MGRVI": 0.03459899707067892, "MGRVI_COLOR": "#a3e635" }, "geometry": { "type": "Polygon", "coordinates": [ [ [ 479828.757171806122642, 5239945.272233941592276 ], [ 479829.661199783266056, 5239946.164216796867549 ], [ 479957.330284238676541, 5239816.771119981072843 ], [ 479956.426256261533126, 5239815.879137126728892 ], [ 479828.757171806122642, 5239945.272233941592276 ] ] ] } },
{ "type": "Feature", "properties": { "name": "HausEiche 32", "GI": 0.37932712215924103, "MGRVI": 0.046486392309699857, "MGRVI_COLOR": "#a3e635" }, "geometry": { "type": "Polygon", "coordinates": [ [ [ 479830.158309132850263, 5239946.371329546906054 ], [ 479831.062337109877262, 5239947.26331240311265 ], [ 479958.724349309050012, 5239817.877383346669376 ], [ 479957.820321331964806, 5239816.985400492325425 ], [ 479830.158309132850263, 5239946.371329546906054 ] ] ] } },
{ "type": "Feature", "properties": { "name": "HausEiche 33", "GI": 0.3822579851277732, "MGRVI": 0.051320637386184323, "MGRVI_COLOR": "#a3e635" }, "geometry": { "type": "Polygon", "coordinates": [ [ [ 479831.559446458821185, 5239947.470425155945122 ], [ 479832.463474435964599, 5239948.362408012151718 ], [ 479960.118414378899615, 5239818.983646712265909 ], [ 479959.214386401989032, 5239818.091663856059313 ], [ 479831.559446458821185, 5239947.470425155945122 ] ] ] } },
{ "type": "Feature", "properties": { "name": "HausEiche 34", "GI": 0.39825904716341914, "MGRVI": 0.11521049003316444, "MGRVI_COLOR": "#a3e635" }, "geometry": { "type": "Polygon", "coordinates": [ [ [ 479832.960583785665222, 5239948.56952076498419 ], [ 479833.864611762808636, 5239949.461503622122109 ], [ 479961.512479449505918, 5239820.089910076931119 ], [ 479960.608451472420711, 5239819.197927223518491 ], [ 479832.960583785665222, 5239948.56952076498419 ] ] ] } },
{ "type": "Feature", "properties": { "name": "HausEiche 35", "GI": 0.38860715376593824, "MGRVI": 0.067545931597399314, "MGRVI_COLOR": "#a3e635" }, "geometry": { "type": "Polygon", "coordinates": [ [ [ 479834.361721112858504, 5239949.668616374954581 ], [ 479835.265749089827295, 5239950.560599229298532 ], [ 479962.906544520345051, 5239821.196173447184265 ], [ 479962.002516543434467, 5239820.304190591908991 ], [ 479834.361721112858504, 5239949.668616374954581 ] ] ] } },
{ "type": "Feature", "properties": { "name": "HausEiche 36", "GI": 0.37151638898038125, "MGRVI": 0.01213879396887341, "MGRVI_COLOR": "#a3e635" }, "geometry": { "type": "Polygon", "coordinates": [ [ [ 479835.762858439586125, 5239950.767711979337037 ], [ 479836.66688641672954, 5239951.659694837406278 ], [ 479940.561344107030891, 5239846.362271621823311 ], [ 479939.657316129829269, 5239845.470288765616715 ], [ 479835.762858439586125, 5239950.767711979337037 ] ] ] } },
{ "type": "Feature", "properties": { "name": "HausEiche 37", "GI": 0.36700615341400566, "MGRVI": -0.013112771745537178, "MGRVI_COLOR": "#eab308" }, "geometry": { "type": "Polygon", "coordinates": [ [ [ 479837.163995767070446, 5239951.866807591170073 ], [ 479838.06802374421386, 5239952.758790445514023 ], [ 479941.955409178335685, 5239847.468534990213811 ], [ 479941.051381201134063, 5239846.576552134938538 ], [ 479837.163995767070446, 5239951.866807591170073 ] ] ] } },
{ "type": "Feature", "properties": { "name": "HausEiche 38", "GI": 0.36171595359472031, "MGRVI": -0.022426159719462199, "MGRVI_COLOR": "#eab308" }, "geometry": { "type": "Polygon", "coordinates": [ [ [ 479838.565133093274198, 5239952.965903197415173 ], [ 479839.469161070359405, 5239953.857886055484414 ], [ 479943.349474248127081, 5239848.574798355810344 ], [ 479942.445446271274704, 5239847.682815500535071 ], [ 479838.565133093274198, 5239952.965903197415173 ] ] ] } },
{ "type": "Feature", "properties": { "name": "HausEiche 39", "GI": 0.35071658781066373, "MGRVI": -0.043164142167646705, "MGRVI_COLOR": "#eab308" }, "geometry": { "type": "Polygon", "coordinates": [ [ [ 479839.966270419594366, 5239954.064998807385564 ], [ 479840.870298396679573, 5239954.956981662660837 ], [ 479944.743539318267722, 5239849.6810617223382 ], [ 479943.83951134129893, 5239848.789078866131604 ], [ 479839.966270419594366, 5239954.064998807385564 ] ] ] } },
{ "type": "Feature", "properties": { "name": "HausEiche 40", "GI": 0.34432415578530101, "MGRVI": -0.062874922738934427, "MGRVI_COLOR": "#eab308" }, "geometry": { "type": "Polygon", "coordinates": [ [ [ 479841.367407746729441, 5239955.164094416424632 ], [ 479842.271435723872855, 5239956.056077271699905 ], [ 479946.137604389339685, 5239850.787325088866055 ], [ 479945.233576412254479, 5239849.895342232659459 ], [ 479841.367407746729441, 5239955.164094416424632 ] ] ] } },
{ "type": "Feature", "properties": { "name": "HausEiche 41", "GI": 0.34815771832761971, "MGRVI": -0.050935772764446365, "MGRVI_COLOR": "#eab308" }, "geometry": { "type": "Polygon", "coordinates": [ [ [ 479842.768545073166024, 5239956.263190023601055 ], [ 479843.672573050309438, 5239957.155172878876328 ], [ 479947.531669459538534, 5239851.893588457256556 ], [ 479946.627641482453328, 5239851.00160560104996 ], [ 479842.768545073166024, 5239956.263190023601055 ] ] ] } },
{ "type": "Feature", "properties": { "name": "HausEiche 42", "GI": 0.34395095776421569, "MGRVI": -0.066276365603462492, "MGRVI_COLOR": "#eab308" }, "geometry": { "type": "Polygon", "coordinates": [ [ [ 479844.169682399136946, 5239957.362285630777478 ], [ 479845.07371037628036, 5239958.254268485121429 ], [ 479948.925734529213514, 5239852.999851820990443 ], [ 479948.021706552186515, 5239852.107868963852525 ], [ 479844.169682399136946, 5239957.362285630777478 ] ] ] } },
{ "type": "Feature", "properties": { "name": "HausEiche 43", "GI": 0.34283863208501802, "MGRVI": -0.066722624624027144, "MGRVI_COLOR": "#eab308" }, "geometry": { "type": "Polygon", "coordinates": [ [ [ 479845.570819726621266, 5239958.461381240747869 ], [ 479846.474847703648265, 5239959.35336409509182 ], [ 479950.31979960022727, 5239854.106115190312266 ], [ 479949.415771623142064, 5239853.214132333174348 ], [ 479845.570819726621266, 5239958.461381240747869 ] ] ] } },
{ "type": "Feature", "properties": { "name": "HausEiche 44", "GI": 0.34902148626705298, "MGRVI": -0.053519011546223863, "MGRVI_COLOR": "#eab308" }, "geometry": { "type": "Polygon", "coordinates": [ [ [ 479846.971957052999642, 5239959.560476848855615 ], [ 479847.875985030143056, 5239960.452459705062211 ], [ 479951.713864670775365, 5239855.212378555908799 ], [ 479950.809836693515535, 5239854.320395700633526 ], [ 479846.971957052999642, 5239959.560476848855615 ] ] ] } },
{ "type": "Feature", "properties": { "name": "HausEiche 45", "GI": 0.38053462128357884, "MGRVI": 0.094353149573654344, "MGRVI_COLOR": "#a3e635" }, "geometry": { "type": "Polygon", "coordinates": [ [ [ 479848.373094380425755, 5239960.659572456032038 ], [ 479849.277122357569169, 5239961.551555313169956 ], [ 479953.107929741847329, 5239856.318641922436655 ], [ 479952.203901764878538, 5239855.426659067161381 ], [ 479848.373094380425755, 5239960.659572456032038 ] ] ] } },
{ "type": "Feature", "properties": { "name": "HausEiche 46", "GI": 0.38786430500177027, "MGRVI": 0.11935952397902476, "MGRVI_COLOR": "#a3e635" }, "geometry": { "type": "Polygon", "coordinates": [ [ [ 479849.77423170680413, 5239961.758668066933751 ], [ 479850.678259683831129, 5239962.650650921277702 ], [ 479954.501994811871555, 5239857.424905290827155 ], [ 479953.597966834786348, 5239856.532922433689237 ], [ 479849.77423170680413, 5239961.758668066933751 ] ] ] } },
{ "type": "Feature", "properties": { "name": "HausEiche 47", "GI": 0.38437681577932892, "MGRVI": 0.11813579565786082, "MGRVI_COLOR": "#a3e635" }, "geometry": { "type": "Polygon", "coordinates": [ [ [ 479851.17536903382279, 5239962.857763673178852 ], [ 479852.079397010907996, 5239963.749746531248093 ], [ 479955.89605988265248, 5239858.531168654561043 ], [ 479954.992031905567273, 5239857.639185799285769 ], [ 479851.17536903382279, 5239962.857763673178852 ] ] ] } },
{ "type": "Feature", "properties": { "name": "HausEiche 48", "GI": 0.39209054517046948, "MGRVI": 0.13041483370172011, "MGRVI_COLOR": "#a3e635" }, "geometry": { "type": "Polygon", "coordinates": [ [ [ 479852.576506360783242, 5239963.956859283149242 ], [ 479853.480534337868448, 5239964.848842139355838 ], [ 479957.290124953491613, 5239859.637432022020221 ], [ 479956.386096976348199, 5239858.745449166744947 ], [ 479852.576506360783242, 5239963.956859283149242 ] ] ] } },
{ "type": "Feature", "properties": { "name": "HausEiche 49", "GI": 0.40305637409248135, "MGRVI": 0.15375614538843974, "MGRVI_COLOR": "#a3e635" }, "geometry": { "type": "Polygon", "coordinates": [ [ [ 479853.977643686928786, 5239965.055954891256988 ], [ 479854.881671664130408, 5239965.947937747463584 ], [ 479958.684190023515839, 5239860.743695389479399 ], [ 479957.78016204648884, 5239859.851712533272803 ], [ 479853.977643686928786, 5239965.055954891256988 ] ] ] } },
{ "type": "Feature", "properties": { "name": "HausEiche 50", "GI": 0.40336581895697254, "MGRVI": 0.15432699636822717, "MGRVI_COLOR": "#a3e635" }, "geometry": { "type": "Polygon", "coordinates": [ [ [ 479855.378781013423577, 5239966.155050499364734 ], [ 479856.282808990450576, 5239967.04703335557133 ], [ 479960.078255093540065, 5239861.849958756938577 ], [ 479959.174227116513066, 5239860.957975900731981 ], [ 479855.378781013423577, 5239966.155050499364734 ] ] ] } },
{ "type": "Feature", "properties": { "name": "HausEiche 51", "GI": 0.39316137352780112, "MGRVI": 0.12894559678375134, "MGRVI_COLOR": "#a3e635" }, "geometry": { "type": "Polygon", "coordinates": [ [ [ 479856.804385817900766, 5239967.3114168420434 ], [ 479857.708413795102388, 5239968.203399696387351 ], [ 479961.122378758096602, 5239863.392957659438252 ], [ 479960.218350781011395, 5239862.500974803231657 ], [ 479856.804385817900766, 5239967.3114168420434 ] ] ] } },
{ "type": "Feature", "properties": { "name": "HausEiche 52", "GI": 0.38637260171653026, "MGRVI": 0.096197413274536805, "MGRVI_COLOR": "#a3e635" }, "geometry": { "type": "Polygon", "coordinates": [ [ [ 479858.246622971957549, 5239968.417709955945611 ], [ 479859.150650948926341, 5239969.309692814014852 ], [ 479963.101994622731581, 5239863.954615392722189 ], [ 479962.197966645704582, 5239863.062632536515594 ], [ 479858.246622971957549, 5239968.417709955945611 ] ] ] } },
{ "type": "Feature", "properties": { "name": "HausEiche 53", "GI": 0.40280228379538813, "MGRVI": 0.10235431347575118, "MGRVI_COLOR": "#a3e635" }, "geometry": { "type": "Polygon", "coordinates": [ [ [ 479859.688860126887448, 5239969.557216462679207 ], [ 479860.592888103914447, 5239970.449199317023158 ], [ 479927.908457383920904, 5239902.224616918712854 ], [ 479927.004429406893905, 5239901.332634061574936 ], [ 479859.688860126887448, 5239969.557216462679207 ] ] ] } },
{ "type": "Feature", "properties": { "name": "HausEiche 54", "GI": 0.38975045108474121, "MGRVI": 0.075051476657568922, "MGRVI_COLOR": "#a3e635" }, "geometry": { "type": "Polygon", "coordinates": [ [ [ 479861.131097280012909, 5239970.696722967550159 ], [ 479862.035125257098116, 5239971.588705822825432 ], [ 479906.148807774239685, 5239926.879322838038206 ], [ 479905.244779797154479, 5239925.98733998183161 ], [ 479861.131097280012909, 5239970.696722967550159 ] ] ] } },
{ "type": "Feature", "properties": { "name": "HausEiche 55", "GI": 0.39500302993447889, "MGRVI": 0.042398478599099704, "MGRVI_COLOR": "#a3e635" }, "geometry": { "type": "Polygon", "coordinates": [ [ [ 479862.573334435408469, 5239971.836229473352432 ], [ 479863.477362412551884, 5239972.728212328627706 ], [ 479884.389158130739816, 5239951.534028800204396 ], [ 479883.485130153596401, 5239950.6420459439978 ], [ 479862.573334435408469, 5239971.836229473352432 ] ] ] } },
{ "type": "Feature", "properties": { "name": "HausEiche 56", "GI": 0.42931366942632737, "MGRVI": 0.063580669719254454, "MGRVI_COLOR": "#a3e635" }, "geometry": { "type": "Polygon", "coordinates": [ [ [ 479864.015571588708553, 5239972.975735977292061 ], [ 479864.91959956579376, 5239973.867718834429979 ], [ 479862.629508516809437, 5239976.188734726049006 ], [ 479861.725480540073477, 5239975.296751871705055 ], [ 479864.015571588708553, 5239972.975735977292061 ] ] ] } }
]
}
