{
"type": "FeatureCollection",
"name": "HausEiche_251203",
"crs": { "type": "name", "properties": { "name": "urn:ogc:def:crs:EPSG::32632" } },
"features": [
{ "type": "Feature", "properties": { "name": "HausEiche 01", "GI": 0.34988330738347317, "MGRVI": -0.085086858424101075, "MGRVI_COLOR": "#eab308" }, "geometry": { "type": "Polygon", "coordinates": [ [ [ 479788.725066235056147, 5239913.594159297645092 ], [ 479789.632202305772807, 5239914.482981072738767 ], [ 479916.817314136249479, 5239784.677202572114766 ], [ 479915.910178065707441, 5239783.788380795158446 ], [ 479788.725066235056147, 5239913.594159297645092 ] ] ] } },
{ "type": "Feature", "properties": { "name": "HausEiche 02", "GI": 0.34017896779624807, "MGRVI": -0.10921624858983273, "MGRVI_COLOR": "#eab308" }, "geometry": { "type": "Polygon", "coordinates": [ [ [ 479790.12149428774137, 5239914.698036104440689 ], [ 479791.028630358399823, 5239915.586857880465686 ], [ 479918.215351493447088, 5239785.779436913318932 ], [ 479917.30821542290505, 5239784.890615137293935 ], [ 479790.12149428774137, 5239914.698036104440689 ] ] ] } },
{ "type": "Feature", "properties": { "name": "HausEiche 03", "GI": 0.33600412890031267, "MGRVI": -0.15019611207329286, "MGRVI_COLOR": "#eab308" }, "geometry": { "type": "Polygon", "coordinates": [ [ [ 479791.517922340601217, 5239915.801912911236286 ], [ 479792.425058411201462, 5239916.690734686329961 ], [ 479919.613388850644697, 5239786.881671254523098 ], [ 479918.706252779928036, 5239785.992849477566779 ], [ 479791.517922340601217, 5239915.801912911236286 ] ] ] } },
{ "type": "Feature", "properties": { "name": "HausEiche 04", "GI": 0.34713164853796191, "MGRVI": -0.08841601355831491, "MGRVI_COLOR": "#eab308" }, "geometry": { "type": "Polygon", "coordinates": [ [ [ 479792.91435039305361, 5239916.905789716169238 ], [ 479793.821486463653855, 5239917.79461149033159 ], [ 479921.011426207434852, 5239787.98390559386462 ], [ 479920.104290136776399, 5239787.095083819702268 ], [ 479792.91435039305361, 5239916.905789716169238 ] ] ] } },
{ "type": "Feature", "properties": { "name": "HausEiche 05", "GI": 0.35973920633416823, "MGRVI": -0.014840642838126019, "MGRVI_COLOR": "#eab308" }, "geometry": { "type": "Polygon", "coordinates": [ [ [ 479794.310778446786571, 5239918.009666523896158 ], [ 479795.217914517328609, 5239918.89848829805851 ], [ 479922.409463565505575, 5239789.086139936931431 ], [ 479921.502327495021746, 5239788.197318163700402 ], [ 479794.310778446786571, 5239918.009666523896158 ] ] ] } },
{ "type": "Feature", "properties": { "name": "HausEiche 06", "GI": 0.3510826799707969, "MGRVI": -0.053122383092874231, "MGRVI_COLOR": "#eab308" }, "geometry": { "type": "Polygon", "coordinates": [ [ [ 479795.707206499122549, 5239919.11354332882911 ], [ 479796.614342569897417, 5239920.002365103922784 ], [ 479923.807500922644977, 5239790.188374278135598 ], [ 479922.900364851870108, 5239789.299552503041923 ], [ 479795.707206499122549, 5239919.11354332882911 ] ] ] } },
{ "type": "Feature", "properties": { "name": "HausEiche 07", "GI": 0.3689718431877842, "MGRVI": 0.022558863275445633, "MGRVI_COLOR": "#a3e635" }, "geometry": { "type": "Polygon", "coordinates": [ [ [ 479797.103599691879936, 5239920.21745571307838 ], [ 479798.010735762421973, 5239921.106277487240732 ], [ 479925.205532937136013, 5239791.290614074096084 ], [ 479924.29839686647756, 5239790.401792299002409 ], [ 479797.103599691879936, 5239920.21745571307838 ] ] ] } },
{ "type": "Feature", "properties": { "name": "HausEiche 08", "GI": 0.40712134138551875, "MGRVI": 0.14433859108437139, "MGRVI_COLOR": "#a3e635" }, "geometry": { "type": "Polygon", "coordinates": [ [ [ 479798.499956462474074, 5239921.321405270136893 ], [ 479799.407092533074319, 5239922.210227045230567 ], [ 479926.603561213123612, 5239792.392857681028545 ], [ 479925.696425142406952, 5239791.50403590593487 ], [ 479798.499956462474074, 5239921.321405270136893 ] ] ] } },
{ "type": "Feature", "properties": { "name": "HausEiche 09", "GI": 0.38569695000182236, "MGRVI": 0.18999863974666339, "MGRVI_COLOR": "#a3e635" }, "geometry": { "type": "Polygon", "coordinates": [ [ [ 479799.896313232486136, 5239922.425354826264083 ], [ 479800.803449303086381, 5239923.314176604151726 ], [ 479928.001589488820173, 5239793.495101292617619 ], [ 479927.094453418045305, 5239792.606279518455267 ], [ 479799.896313232486136, 5239922.425354826264083 ] ] ] } },
{ "type": "Feature", "properties": { "name": "HausEiche 10", "GI": 0.37318012493556346, "MGRVI": 0.14545986399217589, "MGRVI_COLOR": "#a3e635" }, "geometry": { "type": "Polygon", "coordinates": [ [ [ 479801.292670004011597, 5239923.529304383322597 ], [ 479802.199806074728258, 5239924.418126158416271 ], [ 479929.399617765622679, 5239794.597344902344048 ], [ 479928.492481694964226, 5239793.708523126319051 ], [ 479801.292670004011597, 5239923.529304383322597 ] ] ] } },
{ "type": "Feature", "properties": { "name": "HausEiche 11", "GI": 0.36771972117664015, "MGRVI": 0.12679538490930262, "MGRVI_COLOR": "#a3e635" }, "geometry": { "type": "Polygon", "coordinates": [ [ [ 479802.689026774431113, 5239924.633253941312432 ], [ 479803.596162845089566, 5239925.522075716406107 ], [ 479930.797646041610278, 5239795.6995885130018 ], [ 479929.89050997083541, 5239794.810766736976802 ], [ 479802.689026774431113, 5239924.633253941312432 ] ] ] } },
{ "type": "Feature", "properties": { "name": "HausEiche 12", "GI": 0.37926116656942449, "MGRVI": 0.16590856321207237, "MGRVI_COLOR": "#a3e635" }, "geometry": { "type": "Polygon", "coordinates": [ [ [ 479804.085383544850629, 5239925.7372034965083 ], [ 479804.992519615625497, 5239926.626025271601975 ], [ 479932.195674317481462, 5239796.801832120865583 ], [ 479931.288538246881217, 5239795.913010348565876 ], [ 479804.085383544850629, 5239925.7372034965083 ] ] ] } },
{ "type": "Feature", "properties": { "name": "HausEiche 13", "GI": 0.37416988030716647, "MGRVI": 0.14502707774892865, "MGRVI_COLOR": "#a3e635" }, "geometry": { "type": "Polygon", "coordinates": [ [ [ 479805.481740316201467, 5239926.841153055429459 ], [ 479806.38887638685992, 5239927.729974829591811 ], [ 479933.593702594342176, 5239797.904075731523335 ], [ 479932.686566523450892, 5239797.01525395642966 ], [ 479805.481740316201467, 5239926.841153055429459 ] ] ] } },
{ "type": "Feature", "properties": { "name": "HausEiche 14", "GI": 0.355403096457164, "MGRVI": 0.02327578735597876, "MGRVI_COLOR": "#a3e635" }, "geometry": { "type": "Polygon", "coordinates": [ [ [ 479806.878097086737398, 5239927.945102613419294 ], [ 479807.785233157454059, 5239928.833924388512969 ], [ 479934.991730870096944, 5239799.006319342181087 ], [ 479934.084594799613114, 5239798.117497567087412 ], [ 479806.878097086737398, 5239927.945102613419294 ] ] ] } },
{ "type": "Feature", "properties": { "name": "HausEiche 15", "GI": 0.35215622079941117, "MGRVI": -0.007829353078109445, "MGRVI_COLOR": "#eab308" }, "geometry": { "type": "Polygon", "coordinates": [ [ [ 479808.004453857545741, 5239928.659052166156471 ], [ 479808.911589928087778, 5239929.5478739393875 ], [ 479936.11975914647337, 5239799.718562950380147 ], [ 479935.212623075814918, 5239798.829741174355149 ], [ 479808.004453857545741, 5239928.659052166156471 ] ] ] } },
{ "type": "Feature", "properties": { "name": "HausEiche 16", "GI": 0.32731125762091323, "MGRVI": -0.10442202295531511, "MGRVI_COLOR": "#eab308" }, "geometry": { "type": "Polygon", "coordinates": [ [ [ 479809.400810627965257, 5239929.763001723214984 ], [ 479810.307946698740125, 5239930.651823500171304 ], [ 479937.517767926794477, 5239800.820826457813382 ], [ 479936.610631856019609, 5239799.932004681788385 ], [ 479809.400810627965257, 5239929.763001723214984 ] ] ] } },
{ "type": "Feature", "properties": { "name": "HausEiche 17", "GI": 0.32197948988198416, "MGRVI": -0.10226146744761118, "MGRVI_COLOR": "#eab308" }, "geometry": { "type": "Polygon", "coordinates": [ [ [ 479810.797167398734018, 5239930.866951283998787 ], [ 479811.704303469392471, 5239931.755773056298494 ], [ 479938.915762414922938, 5239801.923104552552104 ], [ 479938.008626344264485, 5239801.034282778389752 ], [ 479810.797167398734018, 5239930.866951283998787 ] ] ] } },
{ "type": "Feature", "properties": { "name": "HausEiche 18", "GI": 0.34666943829925229, "MGRVI": 0.0060467668258657303, "MGRVI_COLOR": "#a3e635" }, "geometry": { "type": "Polygon", "coordinates": [ [ [ 479812.193527686235029, 5239931.970897249877453 ], [ 479813.100663756893482, 5239932.859719026833773 ], [ 479940.313756903109606, 5239803.025382646359503 ], [ 479939.406620832509361, 5239802.136560872197151 ], [ 479812.193527686235029, 5239931.970897249877453 ] ] ] } },
{ "type": "Feature", "properties": { "name": "HausEiche 19", "GI": 0.35909365973878543, "MGRVI": 0.06411575831289007, "MGRVI_COLOR": "#a3e635" }, "geometry": { "type": "Polygon", "coordinates": [ [ [ 479813.589888929913286, 5239933.074842241592705 ], [ 479814.497025000629947, 5239933.96366401668638 ], [ 479941.711751391005237, 5239804.127660741098225 ], [ 479940.804615320113953, 5239803.238838966935873 ], [ 479813.589888929913286, 5239933.074842241592705 ] ] ] } },
{ "type": "Feature", "properties": { "name": "HausEiche 20", "GI": 0.36199172124029066, "MGRVI": 0.079387645361595954, "MGRVI_COLOR": "#a3e635" }, "geometry": { "type": "Polygon", "coordinates": [ [ [ 479814.986250174290035, 5239934.178787233307958 ], [ 479815.89338624489028, 5239935.067609008401632 ], [ 479943.109745879191905, 5239805.229938834905624 ], [ 479942.20260980859166, 5239804.34111705981195 ], [ 479814.986250174290035, 5239934.178787233307958 ] ] ] } },
{ "type": "Feature", "properties": { "name": "HausEiche 21", "GI": 0.3612419628601175, "MGRVI": 0.062241739913350205, "MGRVI_COLOR": "#a3e635" }, "geometry": { "type": "Polygon", "coordinates": [ [ [ 479816.382611419132445, 5239935.282732223160565 ], [ 479817.289747489790898, 5239936.171553997322917 ], [ 479944.507740367786027, 5239806.332216927781701 ], [ 479943.600604297302198, 5239805.443395153619349 ], [ 479816.382611419132445, 5239935.282732223160565 ] ] ] } },
{ "type": "Feature", "properties": { "name": "HausEiche 22", "GI": 0.36212135483305674, "MGRVI": 0.065022066662235228, "MGRVI_COLOR": "#a3e635" }, "geometry": { "type": "Polygon", "coordinates": [ [ [ 479817.779026803851593, 5239936.386621961370111 ], [ 479818.686162874451838, 5239937.275443735532463 ], [ 479945.905734856321942, 5239807.434495023451746 ], [ 479944.998598785779905, 5239806.545673248358071 ], [ 479817.779026803851593, 5239936.386621961370111 ] ] ] } },
{ "type": "Feature", "properties": { "name": "HausEiche 23", "GI": 0.36600410770899605, "MGRVI": 0.073782198218184492, "MGRVI_COLOR": "#a3e635" }, "geometry": { "type": "Polygon", "coordinates": [ [ [ 479819.175555928901304, 5239937.490395611152053 ], [ 479820.082691999501549, 5239938.379217384383082 ], [ 479947.303729344392195, 5239808.536773118190467 ], [ 479946.396593273675535, 5239807.64795134216547 ], [ 479819.175555928901304, 5239937.490395611152053 ] ] ] } },
{ "type": "Feature", "properties": { "name": "HausEiche 24", "GI": 0.36714807790983289, "MGRVI": 0.073895006054314066, "MGRVI_COLOR": "#a3e635" }, "geometry": { "type": "Polygon", "coordinates": [ [ [ 479820.571827510662843, 5239938.594432112760842 ], [ 479821.478963581263088, 5239939.483253885060549 ], [ 479948.70172383193858, 5239809.639051211066544 ], [ 479947.794587761221919, 5239808.750229435041547 ], [ 479820.571827510662843, 5239938.594432112760842 ] ] ] } },
{ "type": "Feature", "properties": { "name": "HausEiche 25", "GI": 0.36627456868961905, "MGRVI": 0.073112337012509507, "MGRVI_COLOR": "#a3e635" }, "geometry": { "type": "Polygon", "coordinates": [ [ [ 479821.818343669758178, 5239939.458218996413052 ], [ 479822.725479740474839, 5239940.347040771506727 ], [ 479949.949718320567627, 5239810.501329303719103 ], [ 479949.042582249909174, 5239809.612507530488074 ], [ 479821.818343669758178, 5239939.458218996413052 ] ] ] } },
{ "type": "Feature", "properties": { "name": "HausEiche 26", "GI": 0.36209465317341083, "MGRVI": 0.0600671529738157, "MGRVI_COLOR": "#a3e635" }, "geometry": { "type": "Polygon", "coordinates": [ [ [ 479823.214942153077573, 5239940.561921854503453 ], [ 479824.122078223794233, 5239941.450743631459773 ], [ 479951.347587374853902, 5239811.603735414333642 ], [ 479950.440451304195449, 5239810.714913641102612 ], [ 479823.214942153077573, 5239940.561921854503453 ] ] ] } },
{ "type": "Feature", "properties": { "name": "HausEiche 27", "GI": 0.35687497291966663, "MGRVI": 0.045361773815276583, "MGRVI_COLOR": "#a3e635" }, "geometry": { "type": "Polygon", "coordinates": [ [ [ 479824.611073698266409, 5239941.666101280599833 ], [ 479825.518209768750239, 5239942.554923054762185 ], [ 479952.745599815796595, 5239812.705995185300708 ], [ 479951.838463745138142, 5239811.817173413001001 ], [ 479824.611073698266409, 5239941.666101280599833 ] ] ] } },
{ "type": "Feature", "properties": { "name": "HausEiche 28", "GI": 0.35572101239198178, "MGRVI": 0.045487681860183732, "MGRVI_COLOR": "#a3e635" }, "geometry": { "type": "Polygon", "coordinates": [ [ [ 479826.00846537493635, 5239942.7689946051687 ], [ 479826.91560144565301, 5239943.657816381193697 ], [ 479954.14361225644825, 5239813.808254959061742 ], [ 479953.236476185789797, 5239812.919433183036745 ], [ 479826.00846537493635, 5239942.7689946051687 ] ] ] } },
{ "type": "Feature", "properties": { "name": "HausEiche 29", "GI": 0.35682236444617949, "MGRVI": 0.048613917878990755, "MGRVI_COLOR": "#a3e635" }, "geometry": { "type": "Polygon", "coordinates": [ [ [ 479827.409590170602314, 5239943.868077894672751 ], [ 479828.316726241493598, 5239944.756899668835104 ], [ 479955.541624697856605, 5239814.910514730028808 ], [ 479954.634488627198152, 5239814.021692954935133 ], [ 479827.409590170602314, 5239943.868077894672751 ] ] ] } },
{ "type": "Feature", "properties": { "name": "HausEiche 30", "GI": 0.36850203796338266, "MGRVI": 0.048745325993215301, "MGRVI_COLOR": "#a3e635" }, "geometry": { "type": "Polygon", "coordinates": [ [ [ 479828.81071496574441, 5239944.967161181382835 ], [ 479829.717851036519278, 5239945.85598295647651 ], [ 479956.939637138799299, 5239816.012774503789842 ], [ 479956.03250106802443, 5239815.123952728696167 ], [ 479828.81071496574441, 5239944.967161181382835 ] ] ] } },
{ "type": "Feature", "properties": { "name": "HausEiche 31", "GI": 0.38281885398973781, "MGRVI": 0.10498300586004539, "MGRVI_COLOR": "#a3e635" }, "geometry": { "type": "Polygon", "coordinates": [ [ [ 479830.211839760595467, 5239946.066244468092918 ], [ 479831.118975831312127, 5239946.95506624225527 ], [ 479958.335616286494769, 5239817.117109464481473 ], [ 479957.428480215719901, 5239816.228287690319121 ], [ 479830.211839760595467, 5239946.066244468092918 ] ] ] } },
{ "type": "Feature", "properties": { "name": "HausEiche 32", "GI": 0.37503000755745686, "MGRVI": 0.090710231943483113, "MGRVI_COLOR": "#a3e635" }, "geometry": { "type": "Polygon", "coordinates": [ [ [ 479831.612964555679355, 5239947.165327752009034 ], [ 479832.520100626221392, 5239948.054149528034031 ], [ 479959.729693888395559, 5239818.223385150544345 ], [ 479958.822557817795314, 5239817.334563377313316 ], [ 479831.612964555679355, 5239947.165327752009034 ] ] ] } },
{ "type": "Feature", "properties": { "name": "HausEiche 33", "GI": 0.37871052778527281, "MGRVI": 0.10620569198315286, "MGRVI_COLOR": "#a3e635" }, "geometry": { "type": "Polygon", "coordinates": [ [ [ 479833.014089350006543, 5239948.264411040581763 ], [ 479833.921225420723204, 5239949.153232815675437 ], [ 479961.123771489888895, 5239819.329660838469863 ], [ 479960.216635419405065, 5239818.440839063376188 ], [ 479833.014089350006543, 5239948.264411040581763 ] ] ] } },
{ "type": "Feature", "properties": { "name": "HausEiche 34", "GI": 0.38371174888565401, "MGRVI": 0.13835017412828118, "MGRVI_COLOR": "#a3e635" }, "geometry": { "type": "Polygon", "coordinates": [ [ [ 479834.415214145206846, 5239949.363494327291846 ], [ 479835.322350215981714, 5239950.252316104248166 ], [ 479962.517849092080723, 5239820.435936524532735 ], [ 479961.610713021422271, 5239819.547114751301706 ], [ 479834.415214145206846, 5239949.363494327291846 ] ] ] } },
{ "type": "Feature", "properties": { "name": "HausEiche 35", "GI": 0.39467527485687109, "MGRVI": 0.17210967245241718, "MGRVI_COLOR": "#a3e635" }, "geometry": { "type": "Polygon", "coordinates": [ [ [ 479835.816338940872811, 5239949.832577610388398 ], [ 479836.723475011414848, 5239950.721399383619428 ], [ 479963.911926694680005, 5239820.912212210707366 ], [ 479963.004790624137968, 5239820.023390436545014 ], [ 479835.816338940872811, 5239949.832577610388398 ] ] ] } },
{ "type": "Feature", "properties": { "name": "HausEiche 36", "GI": 0.38094459141283177, "MGRVI": 0.1163462845787834, "MGRVI_COLOR": "#a3e635" }, "geometry": { "type": "Polygon", "coordinates": [ [ [ 479837.175399173866026, 5239950.890301432460546 ], [ 479838.082535244640894, 5239951.779123209416866 ], [ 479941.608803374983836, 5239846.119682166725397 ], [ 479940.701667304208968, 5239845.2308603907004 ], [ 479837.175399173866026, 5239950.890301432460546 ] ] ] } },
{ "type": "Feature", "properties": { "name": "HausEiche 37", "GI": 0.37244046676647397, "MGRVI": 0.07189454777582259, "MGRVI_COLOR": "#a3e635" }, "geometry": { "type": "Polygon", "coordinates": [ [ [ 479838.576523969764821, 5239951.989384723827243 ], [ 479839.483660040539689, 5239952.878206497058272 ], [ 479943.002880977932364, 5239847.22595785651356 ], [ 479942.095744907099288, 5239846.337136082351208 ], [ 479838.576523969764821, 5239951.989384723827243 ] ] ] } },
{ "type": "Feature", "properties": { "name": "HausEiche 38", "GI": 0.37586910652732797, "MGRVI": 0.085459623596713441, "MGRVI_COLOR": "#a3e635" }, "geometry": { "type": "Polygon", "coordinates": [ [ [ 479839.97764876432484, 5239953.088468008674681 ], [ 479840.884784835041501, 5239953.977289785631001 ], [ 479944.396958579309285, 5239848.332233544439077 ], [ 479943.489822508883663, 5239847.443411770276725 ], [ 479839.97764876432484, 5239953.088468008674681 ] ] ] } },
{ "type": "Feature", "properties": { "name": "HausEiche 39", "GI": 0.36370143428454316, "MGRVI": 0.043314564954142425, "MGRVI_COLOR": "#a3e635" }, "geometry": { "type": "Polygon", "coordinates": [ [ [ 479841.378773559175897, 5239954.187551296316087 ], [ 479842.285909629776143, 5239955.076373071409762 ], [ 479945.791036181093659, 5239849.438509232364595 ], [ 479944.883900110551622, 5239848.549687456339598 ], [ 479841.378773559175897, 5239954.187551296316087 ] ] ] } },
{ "type": "Feature", "properties": { "name": "HausEiche 40", "GI": 0.35376000942215929, "MGRVI": -0.042938216380583018, "MGRVI_COLOR": "#eab308" }, "geometry": { "type": "Polygon", "coordinates": [ [ [ 479842.779898354667239, 5239955.286634583957493 ], [ 479843.687034425325692, 5239956.175456358119845 ], [ 479947.185113783809356, 5239850.54478491935879 ], [ 479946.277977713092696, 5239849.655963144265115 ], [ 479842.779898354667239, 5239955.286634583957493 ] ] ] } },
{ "type": "Feature", "properties": { "name": "HausEiche 41", "GI": 0.35776357689565874, "MGRVI": -0.048796861853167228, "MGRVI_COLOR": "#eab308" }, "geometry": { "type": "Polygon", "coordinates": [ [ [ 479844.181023149401881, 5239956.385717869736254 ], [ 479845.088159220176749, 5239957.274539644829929 ], [ 479948.579191385535523, 5239851.651060611009598 ], [ 479947.672055314993486, 5239850.762238835915923 ], [ 479844.181023149401881, 5239956.385717869736254 ] ] ] } },
{ "type": "Feature", "properties": { "name": "HausEiche 42", "GI": 0.35393308283412184, "MGRVI": -0.07499340765403642, "MGRVI_COLOR": "#eab308" }, "geometry": { "type": "Polygon", "coordinates": [ [ [ 479845.582147943845484, 5239957.484801155515015 ], [ 479846.489284014503937, 5239958.373622928746045 ], [ 479949.973268986912444, 5239852.757336296141148 ], [ 479949.066132916312199, 5239851.86851452011615 ], [ 479845.582147943845484, 5239957.484801155515015 ] ] ] } },
{ "type": "Feature", "properties": { "name": "HausEiche 43", "GI": 0.35302120899206474, "MGRVI": -0.078764207569224323, "MGRVI_COLOR": "#eab308" }, "geometry": { "type": "Polygon", "coordinates": [ [ [ 479846.98327273974428, 5239958.583884443156421 ], [ 479847.890408810286317, 5239959.472706217318773 ], [ 479951.367346589569934, 5239853.863611986860633 ], [ 479950.460210518911481, 5239852.974790209904313 ], [ 479846.98327273974428, 5239958.583884443156421 ] ] ] } },
{ "type": "Feature", "properties": { "name": "HausEiche 44", "GI": 0.3591994275873226, "MGRVI": -0.060291083791558037, "MGRVI_COLOR": "#eab308" }, "geometry": { "type": "Polygon", "coordinates": [ [ [ 479847.784397533803713, 5239959.802967730909586 ], [ 479848.691533604520373, 5239960.691789506003261 ], [ 479952.161424191028345, 5239855.089887673035264 ], [ 479951.254288120253477, 5239854.201065898872912 ], [ 479847.784397533803713, 5239959.802967730909586 ] ] ] } },
{ "type": "Feature", "properties": { "name": "HausEiche 45", "GI": 0.34789289341960894, "MGRVI": -0.022054052152845893, "MGRVI_COLOR": "#eab308" }, "geometry": { "type": "Polygon", "coordinates": [ [ [ 479849.185522329586092, 5239960.902051016688347 ], [ 479850.092658400360961, 5239961.790872793644667 ], [ 479953.555501793744043, 5239856.196163362823427 ], [ 479952.648365723202005, 5239855.307341588661075 ], [ 479849.185522329586092, 5239960.902051016688347 ] ] ] } },
{ "type": "Feature", "properties": { "name": "HausEiche 46", "GI": 0.35010461901058931, "MGRVI": -0.0050304549269638878, "MGRVI_COLOR": "#eab308" }, "geometry": { "type": "Polygon", "coordinates": [ [ [ 479850.58664712443715, 5239962.001134306192398 ], [ 479851.493783195095602, 5239962.889956079423428 ], [ 479954.949579395470209, 5239857.302439052611589 ], [ 479954.042443324811757, 5239856.41361727565527 ], [ 479850.58664712443715, 5239962.001134306192398 ] ] ] } },
{ "type": "Feature", "properties": { "name": "HausEiche 47", "GI": 0.34582514635073847, "MGRVI": -0.020506381622440541, "MGRVI_COLOR": "#eab308" }, "geometry": { "type": "Polygon", "coordinates": [ [ [ 479851.987771919753868, 5239963.100217590108514 ], [ 479852.894907990470529, 5239963.989039367064834 ], [ 479956.343656997778453, 5239858.408714736811817 ], [ 479955.43652092712, 5239857.519892962649465 ], [ 479851.987771919753868, 5239963.100217590108514 ] ] ] } },
{ "type": "Feature", "properties": { "name": "HausEiche 48", "GI": 0.35079701441592664, "MGRVI": -0.0054381230056343259, "MGRVI_COLOR": "#eab308" }, "geometry": { "type": "Polygon", "coordinates": [ [ [ 479853.388896715187002, 5239964.199300879612565 ], [ 479854.296032785845455, 5239965.08812265470624 ], [ 479957.737734600261319, 5239859.514990426599979 ], [ 479956.830598529602867, 5239858.626168652437627 ], [ 479853.388896715187002, 5239964.199300879612565 ] ] ] } },
{ "type": "Feature", "properties": { "name": "HausEiche 49", "GI": 0.36376787384266868, "MGRVI": 0.035981293152063387, "MGRVI_COLOR": "#a3e635" }, "geometry": { "type": "Polygon", "coordinates": [ [ [ 479854.790021509747021, 5239965.298384165391326 ], [ 479855.697157580463681, 5239966.187205940485001 ], [ 479959.131812201929279, 5239860.621266116388142 ], [ 479958.224676131270826, 5239859.732444340363145 ], [ 479854.790021509747021, 5239965.298384165391326 ] ] ] } },
{ "type": "Feature", "properties": { "name": "HausEiche 50", "GI": 0.35798995319417881, "MGRVI": 0.016288034350629813, "MGRVI_COLOR": "#a3e635" }, "geometry": { "type": "Polygon", "coordinates": [ [ [ 479856.191146304598078, 5239966.397467452101409 ], [ 479857.098282375140116, 5239967.286289228126407 ], [ 479960.52588980353903, 5239861.72754180431366 ], [ 479959.618753732996993, 5239860.838720029219985 ], [ 479856.191146304598078, 5239966.397467452101409 ] ] ] } },
{ "type": "Feature", "properties": { "name": "HausEiche 51", "GI": 0.35184496277931404, "MGRVI": -0.0074989011756050102, "MGRVI_COLOR": "#eab308" }, "geometry": { "type": "Polygon", "coordinates": [ [ [ 479857.616075147292577, 5239967.553169162943959 ], [ 479858.523211218009237, 5239968.441990937106311 ], [ 479961.570689429936465, 5239863.271205337718129 ], [ 479960.663553359278012, 5239862.382383562624454 ], [ 479857.616075147292577, 5239967.553169162943959 ] ] ] } },
{ "type": "Feature", "properties": { "name": "HausEiche 52", "GI": 0.36021797380705078, "MGRVI": 0.018059649220772439, "MGRVI_COLOR": "#a3e635" }, "geometry": { "type": "Polygon", "coordinates": [ [ [ 479859.059264504292514, 5239968.660398519597948 ], [ 479859.966400574834552, 5239969.54922029748559 ], [ 479963.54935309139546, 5239863.831926830112934 ], [ 479962.642217020795215, 5239862.943105055019259 ], [ 479859.059264504292514, 5239968.660398519597948 ] ] ] } },
{ "type": "Feature", "properties": { "name": "HausEiche 53", "GI": 0.43368209393425405, "MGRVI": 0.19862974130967984, "MGRVI_COLOR": "#a3e635" }, "geometry": { "type": "Polygon", "coordinates": [ [ [ 479859.956585252599325, 5239970.306076778098941 ], [ 479860.863721323141363, 5239971.194898552261293 ], [ 479927.940732258604839, 5239902.735756613314152 ], [ 479927.033596188004594, 5239901.846934837289155 ], [ 479859.956585252599325, 5239970.306076778098941 ] ] ] } },
{ "type": "Feature", "properties": { "name": "HausEiche 54", "GI": 0.41950728135142623, "MGRVI": 0.15457951983481066, "MGRVI_COLOR": "#a3e635" }, "geometry": { "type": "Polygon", "coordinates": [ [ [ 479861.357710046693683, 5239971.405160064809024 ], [ 479862.264846117352135, 5239972.293981838971376 ], [ 479906.222195007896516, 5239927.430885750800371 ], [ 479905.315058937179856, 5239926.542063975706697 ], [ 479861.357710046693683, 5239971.405160064809024 ] ] ] } },
{ "type": "Feature", "properties": { "name": "HausEiche 55", "GI": 0.42531818472275079, "MGRVI": 0.13907730408454694, "MGRVI_COLOR": "#a3e635" }, "geometry": { "type": "Polygon", "coordinates": [ [ [ 479862.758834843058139, 5239972.504243353381753 ], [ 479863.6659709137748, 5239973.393065127544105 ], [ 479884.503657723369543, 5239952.126014932058752 ], [ 479883.596521652652882, 5239951.237193156965077 ], [ 479862.758834843058139, 5239972.504243353381753 ] ] ] } },
{ "type": "Feature", "properties": { "name": "HausEiche 56", "GI": 0.4343854789578841, "MGRVI": 0.17766661097896963, "MGRVI_COLOR": "#a3e635" }, "geometry": { "type": "Polygon", "coordinates": [ [ [ 479864.159959637385327, 5239973.603326638229191 ], [ 479865.06709570804378, 5239974.492148414254189 ], [ 479862.785120468470268, 5239976.821144074201584 ], [ 479861.877984398219269, 5239975.932322300970554 ], [ 479864.159959637385327, 5239973.603326638229191 ] ] ] } }
]
}
