{
"type": "FeatureCollection",
"name": "MarketGarden_251007",
"crs": { "type": "name", "properties": { "name": "urn:ogc:def:crs:EPSG::32632" } },
"features": [
{ "type": "Feature", "properties": { "name": "MarketGarden 5", "GI": 0.42266050094886143 }, "geometry": { "type": "Polygon", "coordinates": [ [ [ 480097.636457302607596, 5239903.906351272016764 ], [ 480098.422627845022362, 5239902.908936676569283 ], [ 480080.121736643079203, 5239888.48402089253068 ], [ 480079.335566100722644, 5239889.481435488909483 ], [ 480097.636457302607596, 5239903.906351272016764 ] ] ] } },
{ "type": "Feature", "properties": { "name": "MarketGarden 6", "GI": 0.35115303122358887 }, "geometry": { "type": "Polygon", "coordinates": [ [ [ 480098.787281523400452, 5239902.559713774360716 ], [ 480099.573452065815218, 5239901.562299178913236 ], [ 480080.607159366365522, 5239886.61290835775435 ], [ 480079.820988824008964, 5239887.610322954133153 ], [ 480098.787281523400452, 5239902.559713774360716 ] ] ] } },
{ "type": "Feature", "properties": { "name": "MarketGarden 7", "GI": 0.33690420043445135 }, "geometry": { "type": "Polygon", "coordinates": [ [ [ 480099.938105743553024, 5239901.213076275773346 ], [ 480100.724276286084205, 5239900.215661679394543 ], [ 480081.092582089535426, 5239884.74179582297802 ], [ 480080.306411547004245, 5239885.739210420288146 ], [ 480099.938105743553024, 5239901.213076275773346 ] ] ] } },
{ "type": "Feature", "properties": { "name": "MarketGarden 8", "GI": 0.33858997437358224 }, "geometry": { "type": "Polygon", "coordinates": [ [ [ 480101.088929964171257, 5239899.866438776254654 ], [ 480101.87510050664423, 5239898.869024179875851 ], [ 480081.578004812763538, 5239882.87068328820169 ], [ 480080.791834270348772, 5239883.868097885511816 ], [ 480101.088929964171257, 5239899.866438776254654 ] ] ] } },
{ "type": "Feature", "properties": { "name": "MarketGarden 9", "GI": 0.33759119049741881 }, "geometry": { "type": "Polygon", "coordinates": [ [ [ 480102.239754184323829, 5239898.519801278598607 ], [ 480103.025924726796802, 5239897.522386681288481 ], [ 480082.063427535875235, 5239880.999570756219327 ], [ 480081.277256993285846, 5239881.996985351666808 ], [ 480102.239754184323829, 5239898.519801278598607 ] ] ] } },
{ "type": "Feature", "properties": { "name": "MarketGarden 10", "GI": 0.38237038453715583 }, "geometry": { "type": "Polygon", "coordinates": [ [ [ 480103.390578405174892, 5239897.173163778148592 ], [ 480104.176748947647866, 5239896.175749180838466 ], [ 480082.548850259161554, 5239879.128458219580352 ], [ 480081.762679716804996, 5239880.125872816890478 ], [ 480103.390578405174892, 5239897.173163778148592 ] ] ] } },
{ "type": "Feature", "properties": { "name": "MarketGarden 11", "GI": 0.5581707015055235 }, "geometry": { "type": "Polygon", "coordinates": [ [ [ 480104.54140262544388, 5239895.826526278629899 ], [ 480105.327573167916853, 5239894.829111682251096 ], [ 480074.805354307696689, 5239870.771243038587272 ], [ 480074.019183765223715, 5239871.768657634034753 ], [ 480104.54140262544388, 5239895.826526278629899 ] ] ] } },
{ "type": "Feature", "properties": { "name": "MarketGarden 12", "GI": 0.34034339516421247 }, "geometry": { "type": "Polygon", "coordinates": [ [ [ 480105.692226845596451, 5239894.479888780973852 ], [ 480106.47839738818584, 5239893.482474183663726 ], [ 480067.008255056047346, 5239862.371777286753058 ], [ 480066.222084513632581, 5239863.369191883131862 ], [ 480105.692226845596451, 5239894.479888780973852 ] ] ] } },
{ "type": "Feature", "properties": { "name": "MarketGarden 13", "GI": 0.34019168890096912 }, "geometry": { "type": "Polygon", "coordinates": [ [ [ 480106.843051066505723, 5239893.133251281455159 ], [ 480107.629221609211527, 5239892.135836683213711 ], [ 480067.671128265210427, 5239860.640532711520791 ], [ 480066.884957722679246, 5239861.637947306968272 ], [ 480106.843051066505723, 5239893.133251281455159 ] ] ] } },
{ "type": "Feature", "properties": { "name": "MarketGarden 14", "GI": 0.50961889552441153 }, "geometry": { "type": "Polygon", "coordinates": [ [ [ 480107.993875286891125, 5239891.786613781005144 ], [ 480108.780045829305891, 5239890.789199185557663 ], [ 480068.334001473849639, 5239858.909288137219846 ], [ 480067.547830931318458, 5239859.906702732667327 ], [ 480107.993875286891125, 5239891.786613781005144 ] ] ] } },
{ "type": "Feature", "properties": { "name": "MarketGarden 15", "GI": 0.49606903550947973 }, "geometry": { "type": "Polygon", "coordinates": [ [ [ 480109.144699507101905, 5239890.439976282417774 ], [ 480109.93087004951667, 5239889.442561686038971 ], [ 480068.996874682547059, 5239857.178043562918901 ], [ 480068.210704140132293, 5239858.175458159297705 ], [ 480109.144699507101905, 5239890.439976282417774 ] ] ] } },
{ "type": "Feature", "properties": { "name": "MarketGarden 16", "GI": 0.49927605734642277 }, "geometry": { "type": "Polygon", "coordinates": [ [ [ 480110.295523727836553, 5239889.093338782899082 ], [ 480111.081694270251319, 5239888.095924188382924 ], [ 480069.659747891477309, 5239855.446798987686634 ], [ 480068.873577349004336, 5239856.444213584065437 ], [ 480110.295523727836553, 5239889.093338782899082 ] ] ] } },
{ "type": "Feature", "properties": { "name": "MarketGarden 17", "GI": 0.48742374483310974 }, "geometry": { "type": "Polygon", "coordinates": [ [ [ 480111.446347948687617, 5239887.746701285243034 ], [ 480112.23251849092776, 5239886.749286687932909 ], [ 480070.322621100465767, 5239853.715554411523044 ], [ 480069.536450558167417, 5239854.712969009764493 ], [ 480111.446347948687617, 5239887.746701285243034 ] ] ] } },
{ "type": "Feature", "properties": { "name": "MarketGarden 18", "GI": 0.42915724634950037 }, "geometry": { "type": "Polygon", "coordinates": [ [ [ 480112.597172168490943, 5239886.400063785724342 ], [ 480113.383342710847501, 5239885.402649190276861 ], [ 480070.985494308988564, 5239851.984309838153422 ], [ 480070.199323766573798, 5239852.981724434532225 ], [ 480112.597172168490943, 5239886.400063785724342 ] ] ] } },
{ "type": "Feature", "properties": { "name": "MarketGarden 19", "GI": 0.43083020177357756 }, "geometry": { "type": "Polygon", "coordinates": [ [ [ 480113.747996389458422, 5239885.053426286205649 ], [ 480114.534166931931395, 5239884.056011689826846 ], [ 480071.648367518151645, 5239850.253065262921154 ], [ 480070.862196975562256, 5239851.250479858368635 ], [ 480113.747996389458422, 5239885.053426286205649 ] ] ] } },
{ "type": "Feature", "properties": { "name": "MarketGarden 20", "GI": 0.41258421627916103 }, "geometry": { "type": "Polygon", "coordinates": [ [ [ 480114.898820609727409, 5239883.706788787618279 ], [ 480115.684991152025759, 5239882.709374190308154 ], [ 480072.311240726732649, 5239848.52182068862021 ], [ 480071.525070184550714, 5239849.51923528406769 ], [ 480114.898820609727409, 5239883.706788787618279 ] ] ] } },
{ "type": "Feature", "properties": { "name": "MarketGarden 21", "GI": 0.39906150172932386 }, "geometry": { "type": "Polygon", "coordinates": [ [ [ 480116.049644829821773, 5239882.360151289962232 ], [ 480116.835815372294746, 5239881.362736692652106 ], [ 480072.974113935371861, 5239846.790576113387942 ], [ 480072.18794339307351, 5239847.787990709766746 ], [ 480116.049644829821773, 5239882.360151289962232 ] ] ] } },
{ "type": "Feature", "properties": { "name": "MarketGarden 22", "GI": 0.42682472985204428 }, "geometry": { "type": "Polygon", "coordinates": [ [ [ 480117.200469050381798, 5239881.013513789512217 ], [ 480117.986639592796564, 5239880.016099194996059 ], [ 480073.636987144360319, 5239845.059331539086998 ], [ 480072.85081660177093, 5239846.056746134534478 ], [ 480117.200469050381798, 5239881.013513789512217 ] ] ] } },
{ "type": "Feature", "properties": { "name": "MarketGarden 23", "GI": 0.45121799361151832 }, "geometry": { "type": "Polygon", "coordinates": [ [ [ 480118.351293270708993, 5239879.66687629185617 ], [ 480119.137463813123759, 5239878.669461694546044 ], [ 480074.299860353057738, 5239843.328086964786053 ], [ 480073.513689810759388, 5239844.325501561164856 ], [ 480118.351293270708993, 5239879.66687629185617 ] ] ] } },
{ "type": "Feature", "properties": { "name": "MarketGarden 24", "GI": 0.46365063843086635 }, "geometry": { "type": "Polygon", "coordinates": [ [ [ 480119.502117491269019, 5239878.320238792337477 ], [ 480120.2882880338002, 5239877.322824195027351 ], [ 480074.962733561871573, 5239841.596842390485108 ], [ 480074.176563019456808, 5239842.594256985932589 ], [ 480119.502117491269019, 5239878.320238792337477 ] ] ] } },
{ "type": "Feature", "properties": { "name": "MarketGarden 25", "GI": 0.47194498194835094 }, "geometry": { "type": "Polygon", "coordinates": [ [ [ 480120.652941712352913, 5239876.973601291887462 ], [ 480121.439112254651263, 5239875.976186696439981 ], [ 480075.625606771034654, 5239839.865597814321518 ], [ 480074.839436228619888, 5239840.863012410700321 ], [ 480120.652941712352913, 5239876.973601291887462 ] ] ] } },
{ "type": "Feature", "properties": { "name": "MarketGarden 26", "GI": 0.47553751882459422 }, "geometry": { "type": "Polygon", "coordinates": [ [ [ 480121.803765933145769, 5239875.62696379236877 ], [ 480122.589936475618742, 5239874.629549196921289 ], [ 480076.28847998008132, 5239838.134353239089251 ], [ 480075.502309437666554, 5239839.131767834536731 ], [ 480121.803765933145769, 5239875.62696379236877 ] ] ] } },
{ "type": "Feature", "properties": { "name": "MarketGarden 27", "GI": 0.42951435499136098 }, "geometry": { "type": "Polygon", "coordinates": [ [ [ 480122.954590153531171, 5239874.280326294712722 ], [ 480123.74076069612056, 5239873.282911698333919 ], [ 480077.029522461118177, 5239836.464722339995205 ], [ 480076.243351918528788, 5239837.462136935442686 ], [ 480122.954590153531171, 5239874.280326294712722 ] ] ] } },
{ "type": "Feature", "properties": { "name": "MarketGarden 28", "GI": 0.42731888624020037 }, "geometry": { "type": "Polygon", "coordinates": [ [ [ 480124.105414373916574, 5239872.933688794262707 ], [ 480124.891584916273132, 5239871.936274198815227 ], [ 480077.944225973566063, 5239834.931972519494593 ], [ 480077.158055431267712, 5239835.929387116804719 ], [ 480124.105414373916574, 5239872.933688794262707 ] ] ] } },
{ "type": "Feature", "properties": { "name": "MarketGarden 29", "GI": 0.44128196048478147 }, "geometry": { "type": "Polygon", "coordinates": [ [ [ 480125.256238594534807, 5239871.587051297537982 ], [ 480126.042409136833157, 5239870.589636701159179 ], [ 480078.85892948624678, 5239833.399222700856626 ], [ 480078.072758943773806, 5239834.396637297235429 ], [ 480125.256238594534807, 5239871.587051297537982 ] ] ] } },
{ "type": "Feature", "properties": { "name": "MarketGarden 30", "GI": 0.48512618944214503 }, "geometry": { "type": "Polygon", "coordinates": [ [ [ 480126.407062814978417, 5239870.240413796156645 ], [ 480127.193233357276767, 5239869.242999201640487 ], [ 480079.773632998752873, 5239831.866472881287336 ], [ 480078.987462456454523, 5239832.863887478597462 ], [ 480126.407062814978417, 5239870.240413796156645 ] ] ] } },
{ "type": "Feature", "properties": { "name": "MarketGarden 31", "GI": 0.5072075433460872 }, "geometry": { "type": "Polygon", "coordinates": [ [ [ 480127.557887035072781, 5239868.893776298500597 ], [ 480128.344057577487547, 5239867.896361701190472 ], [ 480080.688336511317175, 5239830.333723063580692 ], [ 480079.902165968902409, 5239831.331137659959495 ], [ 480127.557887035072781, 5239868.893776298500597 ] ] ] } },
{ "type": "Feature", "properties": { "name": "MarketGarden 32", "GI": 0.46145662762759748 }, "geometry": { "type": "Polygon", "coordinates": [ [ [ 480128.708711255632807, 5239867.547138799913228 ], [ 480129.494881798047572, 5239866.549724203534424 ], [ 480081.603040023997892, 5239828.80097324308008 ], [ 480080.816869481524918, 5239829.798387839458883 ], [ 480128.708711255632807, 5239867.547138799913228 ] ] ] } },
{ "type": "Feature", "properties": { "name": "MarketGarden 33", "GI": 0.55893695428243662 }, "geometry": { "type": "Polygon", "coordinates": [ [ [ 480129.85953547648387, 5239866.200501300394535 ], [ 480130.645706019073259, 5239865.203086704015732 ], [ 480082.517743536969647, 5239827.26822342351079 ], [ 480081.731572994438466, 5239828.265638019889593 ], [ 480129.85953547648387, 5239866.200501300394535 ] ] ] } },
{ "type": "Feature", "properties": { "name": "MarketGarden 34", "GI": 0.44092479641058002 }, "geometry": { "type": "Polygon", "coordinates": [ [ [ 480131.010359697043896, 5239864.853863800875843 ], [ 480131.796530239342246, 5239863.856449203565717 ], [ 480083.432447049592156, 5239825.735473604872823 ], [ 480082.64627650717739, 5239826.732888200320303 ], [ 480131.010359697043896, 5239864.853863800875843 ] ] ] } },
{ "type": "Feature", "properties": { "name": "MarketGarden 35", "GI": 0.38372835027810803 }, "geometry": { "type": "Polygon", "coordinates": [ [ [ 480132.161183917487506, 5239863.507226303219795 ], [ 480132.947354459785856, 5239862.509811705909669 ], [ 480084.34715056233108, 5239824.202723783440888 ], [ 480083.560980019858107, 5239825.200138381682336 ], [ 480132.161183917487506, 5239863.507226303219795 ] ] ] } },
{ "type": "Feature", "properties": { "name": "MarketGarden 36", "GI": 0.34247705333675577 }, "geometry": { "type": "Polygon", "coordinates": [ [ [ 480133.312008137814701, 5239862.160588803701103 ], [ 480134.098178680462297, 5239861.163174206390977 ], [ 480085.26185407495359, 5239822.669973965734243 ], [ 480084.475683532480616, 5239823.667388560250401 ], [ 480133.312008137814701, 5239862.160588803701103 ] ] ] } },
{ "type": "Feature", "properties": { "name": "MarketGarden 37", "GI": 0.38527018750084524 }, "geometry": { "type": "Polygon", "coordinates": [ [ [ 480134.46283235802548, 5239860.81395130418241 ], [ 480135.249002900323831, 5239859.816536707803607 ], [ 480086.17655758728506, 5239821.137224147096276 ], [ 480085.390387044812087, 5239822.134638742543757 ], [ 480134.46283235802548, 5239860.81395130418241 ] ] ] } },
{ "type": "Feature", "properties": { "name": "MarketGarden 38", "GI": 0.38784026194469795 }, "geometry": { "type": "Polygon", "coordinates": [ [ [ 480135.613656578178052, 5239859.46731380559504 ], [ 480136.399827120592818, 5239858.46989921014756 ], [ 480087.091261099558324, 5239819.604474327526987 ], [ 480086.305090557259973, 5239820.60188892390579 ], [ 480135.613656578178052, 5239859.46731380559504 ] ] ] } },
{ "type": "Feature", "properties": { "name": "MarketGarden 39", "GI": 0.33937087018096773 }, "geometry": { "type": "Polygon", "coordinates": [ [ [ 480136.764480799261946, 5239858.120676305145025 ], [ 480137.55065134173492, 5239857.123261709697545 ], [ 480088.005964612879325, 5239818.071724507957697 ], [ 480087.219794070406351, 5239819.069139102473855 ], [ 480136.764480799261946, 5239858.120676305145025 ] ] ] } },
{ "type": "Feature", "properties": { "name": "MarketGarden 40", "GI": 0.40539764714732263 }, "geometry": { "type": "Polygon", "coordinates": [ [ [ 480137.915305019763764, 5239856.774038806557655 ], [ 480138.701475562236737, 5239855.776624211110175 ], [ 480088.920668125560042, 5239816.538974688388407 ], [ 480088.134497583145276, 5239817.53638928476721 ], [ 480137.915305019763764, 5239856.774038806557655 ] ] ] } },
{ "type": "Feature", "properties": { "name": "MarketGarden 41", "GI": 0.43864504118287151 }, "geometry": { "type": "Polygon", "coordinates": [ [ [ 480139.066129239625297, 5239855.427401307970285 ], [ 480139.852299782098271, 5239854.429986711591482 ], [ 480089.835371637775097, 5239815.006224868819118 ], [ 480089.049201095360331, 5239816.003639465197921 ], [ 480139.066129239625297, 5239855.427401307970285 ] ] ] } },
{ "type": "Feature", "properties": { "name": "MarketGarden 42", "GI": 0.43598459128577099 }, "geometry": { "type": "Polygon", "coordinates": [ [ [ 480140.216953460534569, 5239854.080763810314238 ], [ 480141.003124002949335, 5239853.083349213004112 ], [ 480090.750075150630437, 5239813.473475048318505 ], [ 480089.963904608099256, 5239814.470889646559954 ], [ 480140.216953460534569, 5239854.080763810314238 ] ] ] } },
{ "type": "Feature", "properties": { "name": "MarketGarden 43", "GI": 0.34668931634720207 }, "geometry": { "type": "Polygon", "coordinates": [ [ [ 480141.367777680978179, 5239852.734126309864223 ], [ 480142.153948223334737, 5239851.736711712554097 ], [ 480091.664778663485777, 5239811.940725230611861 ], [ 480090.878608120954596, 5239812.938139826059341 ], [ 480141.367777680978179, 5239852.734126309864223 ] ] ] } },
{ "type": "Feature", "properties": { "name": "MarketGarden 44", "GI": 0.37546617923988784 }, "geometry": { "type": "Polygon", "coordinates": [ [ [ 480142.518601901363581, 5239851.387488811276853 ], [ 480143.304772443836555, 5239850.390074213966727 ], [ 480092.579482175875455, 5239810.407975411973894 ], [ 480091.793311633518897, 5239811.405390007421374 ], [ 480142.518601901363581, 5239851.387488811276853 ] ] ] } },
{ "type": "Feature", "properties": { "name": "MarketGarden 45", "GI": 0.41723393925509478 }, "geometry": { "type": "Polygon", "coordinates": [ [ [ 480143.669426121865399, 5239850.040851310826838 ], [ 480144.455596664221957, 5239849.043436714448035 ], [ 480093.494185688556172, 5239808.875225590541959 ], [ 480092.708015146199614, 5239809.872640187852085 ], [ 480143.669426121865399, 5239850.040851310826838 ] ] ] } },
{ "type": "Feature", "properties": { "name": "MarketGarden 46", "GI": 0.37814466935637736 }, "geometry": { "type": "Polygon", "coordinates": [ [ [ 480144.820250342716463, 5239848.694213812239468 ], [ 480145.606420884956606, 5239847.696799215860665 ], [ 480094.408889201411512, 5239807.342475770972669 ], [ 480093.622718659113161, 5239808.339890367351472 ], [ 480144.820250342716463, 5239848.694213812239468 ] ] ] } },
{ "type": "Feature", "properties": { "name": "MarketGarden 47", "GI": 0.44711291095281946 }, "geometry": { "type": "Polygon", "coordinates": [ [ [ 480145.971074562810827, 5239847.347576314583421 ], [ 480146.757245105109178, 5239846.350161716341972 ], [ 480095.323592713859398, 5239805.809725953266025 ], [ 480094.53742217150284, 5239806.807140548713505 ], [ 480145.971074562810827, 5239847.347576314583421 ] ] ] } },
{ "type": "Feature", "properties": { "name": "MarketGarden 48", "GI": 0.44300264471345518 }, "geometry": { "type": "Polygon", "coordinates": [ [ [ 480147.121898783370852, 5239846.000938814133406 ], [ 480147.908069325902034, 5239845.003524218685925 ], [ 480096.23829622665653, 5239804.276976134628057 ], [ 480095.452125684183557, 5239805.274390730075538 ], [ 480147.121898783370852, 5239846.000938814133406 ] ] ] } },
{ "type": "Feature", "properties": { "name": "MarketGarden 49", "GI": 0.33714199381790821 }, "geometry": { "type": "Polygon", "coordinates": [ [ [ 480148.272723003698047, 5239844.654301314614713 ], [ 480149.058893546054605, 5239843.656886719167233 ], [ 480097.318664518825244, 5239802.874804681167006 ], [ 480096.532493976410478, 5239803.87221927754581 ], [ 480148.272723003698047, 5239844.654301314614713 ] ] ] } },
{ "type": "Feature", "properties": { "name": "MarketGarden 50", "GI": 0.33495115630007011 }, "geometry": { "type": "Polygon", "coordinates": [ [ [ 480149.423547224141657, 5239843.307663816958666 ], [ 480150.209717766614631, 5239842.31024921964854 ], [ 480098.430867509916425, 5239801.497725605964661 ], [ 480097.644696967501659, 5239802.495140202343464 ], [ 480149.423547224141657, 5239843.307663816958666 ] ] ] } },
{ "type": "Feature", "properties": { "name": "MarketGarden 51", "GI": 0.43681286751224246 }, "geometry": { "type": "Polygon", "coordinates": [ [ [ 480150.574371444876306, 5239841.961026317439973 ], [ 480151.360541987465695, 5239840.963611720129848 ], [ 480099.54307050089119, 5239800.120646529830992 ], [ 480098.756899958360009, 5239801.118061127141118 ], [ 480150.574371444876306, 5239841.961026317439973 ] ] ] } },
{ "type": "Feature", "properties": { "name": "MarketGarden 52", "GI": 0.33592599154189218 }, "geometry": { "type": "Polygon", "coordinates": [ [ [ 480151.725195665669162, 5239840.614388816989958 ], [ 480152.51136620802572, 5239839.616974221542478 ], [ 480100.655273491924163, 5239798.743567453697324 ], [ 480099.869102949567605, 5239799.740982050076127 ], [ 480151.725195665669162, 5239840.614388816989958 ] ] ] } },
{ "type": "Feature", "properties": { "name": "MarketGarden 53", "GI": 0.33310088307288049 }, "geometry": { "type": "Polygon", "coordinates": [ [ [ 480152.876019885472488, 5239839.267751321196556 ], [ 480153.662190427770838, 5239838.27033672388643 ], [ 480101.767476482200436, 5239797.366488379426301 ], [ 480100.981305939843878, 5239798.363902974873781 ], [ 480152.876019885472488, 5239839.267751321196556 ] ] ] } },
{ "type": "Feature", "properties": { "name": "MarketGarden 54", "GI": 0.33527953085757389 }, "geometry": { "type": "Polygon", "coordinates": [ [ [ 480154.026844105799682, 5239837.921113821677864 ], [ 480154.813014648156241, 5239836.923699223436415 ], [ 480102.879679473116994, 5239795.989409304223955 ], [ 480102.093508930760436, 5239796.986823899671435 ], [ 480154.026844105799682, 5239837.921113821677864 ] ] ] } },
{ "type": "Feature", "properties": { "name": "MarketGarden 55", "GI": 0.3316061055033554 }, "geometry": { "type": "Polygon", "coordinates": [ [ [ 480155.177668326825369, 5239836.574476320296526 ], [ 480155.963838869181927, 5239835.577061723917723 ], [ 480103.99188246455742, 5239794.612330228090286 ], [ 480103.205711922200862, 5239795.609744823537767 ], [ 480155.177668326825369, 5239836.574476320296526 ] ] ] } },
{ "type": "Feature", "properties": { "name": "MarketGarden 56", "GI": 0.33495736566878404 }, "geometry": { "type": "Polygon", "coordinates": [ [ [ 480156.328492546977941, 5239835.227838822640479 ], [ 480157.114663089450914, 5239834.230424225330353 ], [ 480105.10408545518294, 5239793.235251150093973 ], [ 480104.317914912709966, 5239794.232665748335421 ], [ 480156.328492546977941, 5239835.227838822640479 ] ] ] } },
{ "type": "Feature", "properties": { "name": "MarketGarden 57", "GI": 0.34281958944493041 }, "geometry": { "type": "Polygon", "coordinates": [ [ [ 480157.479316767246928, 5239833.881201323121786 ], [ 480158.265487309661694, 5239832.883786726742983 ], [ 480106.216288445924874, 5239791.858172076754272 ], [ 480105.430117903568316, 5239792.855586672201753 ], [ 480157.479316767246928, 5239833.881201323121786 ] ] ] } },
{ "type": "Feature", "properties": { "name": "MarketGarden 58", "GI": 0.33964918986563697 }, "geometry": { "type": "Polygon", "coordinates": [ [ [ 480158.630140988214407, 5239832.534563824534416 ], [ 480159.416311530629173, 5239831.537149228155613 ], [ 480107.328491437248886, 5239790.481092999689281 ], [ 480106.542320894775912, 5239791.478507596068084 ], [ 480158.630140988214407, 5239832.534563824534416 ] ] ] } },
{ "type": "Feature", "properties": { "name": "MarketGarden 59", "GI": 0.33686508540672583 }, "geometry": { "type": "Polygon", "coordinates": [ [ [ 480159.780965209007263, 5239831.187926325947046 ], [ 480160.567135751247406, 5239830.190511727705598 ], [ 480108.440694428281859, 5239789.104013923555613 ], [ 480107.654523886041716, 5239790.101428519934416 ], [ 480159.780965209007263, 5239831.187926325947046 ] ] ] } },
{ "type": "Feature", "properties": { "name": "MarketGarden 60", "GI": 0.33503686643236547 }, "geometry": { "type": "Polygon", "coordinates": [ [ [ 480160.931789428635966, 5239829.841288827359676 ], [ 480161.717959971108939, 5239828.843874230049551 ], [ 480109.55289741861634, 5239787.726934848353267 ], [ 480108.766726876143366, 5239788.72434944473207 ], [ 480160.931789428635966, 5239829.841288827359676 ] ] ] } },
{ "type": "Feature", "properties": { "name": "MarketGarden 61", "GI": 0.34989265835435812 }, "geometry": { "type": "Polygon", "coordinates": [ [ [ 480162.082613649370614, 5239828.494651327840984 ], [ 480162.868784191727173, 5239827.497236731462181 ], [ 480110.665100409882143, 5239786.349855773150921 ], [ 480109.878929867292754, 5239787.347270370461047 ], [ 480162.082613649370614, 5239828.494651327840984 ] ] ] } },
{ "type": "Feature", "properties": { "name": "MarketGarden 62", "GI": 0.43233972002150195 }, "geometry": { "type": "Polygon", "coordinates": [ [ [ 480163.233437870454509, 5239827.148013827390969 ], [ 480164.019608412869275, 5239826.150599231943488 ], [ 480111.777303401264362, 5239784.97277669608593 ], [ 480110.991132859082427, 5239785.970191292464733 ], [ 480163.233437870454509, 5239827.148013827390969 ] ] ] } },
{ "type": "Feature", "properties": { "name": "MarketGarden 63", "GI": 0.46981063014798885 }, "geometry": { "type": "Polygon", "coordinates": [ [ [ 480164.384262090839911, 5239825.801376328803599 ], [ 480165.170432633080054, 5239824.803961732424796 ], [ 480112.889506392006297, 5239783.595697620883584 ], [ 480112.103335849824362, 5239784.59311221819371 ], [ 480164.384262090839911, 5239825.801376328803599 ] ] ] } },
{ "type": "Feature", "properties": { "name": "MarketGarden 64", "GI": 0.51173454780105165 }, "geometry": { "type": "Polygon", "coordinates": [ [ [ 480165.535086311225314, 5239824.454738830216229 ], [ 480166.32125685387291, 5239823.457324234768748 ], [ 480114.001709383155685, 5239782.218618545681238 ], [ 480113.215538840449881, 5239783.216033141128719 ], [ 480165.535086311225314, 5239824.454738830216229 ] ] ] } },
{ "type": "Feature", "properties": { "name": "MarketGarden 65", "GI": 0.42973911236489715 }, "geometry": { "type": "Polygon", "coordinates": [ [ [ 480166.685910531959962, 5239823.108101329766214 ], [ 480167.472081074432936, 5239822.110686733387411 ], [ 480115.113912374072243, 5239780.841539468616247 ], [ 480114.327741831657477, 5239781.83895406499505 ], [ 480166.685910531959962, 5239823.108101329766214 ] ] ] } },
{ "type": "Feature", "properties": { "name": "MarketGarden 66", "GI": 0.41804944092375318 }, "geometry": { "type": "Polygon", "coordinates": [ [ [ 480167.83673475246178, 5239821.761463832110167 ], [ 480168.62290529476013, 5239820.764049233868718 ], [ 480116.226115365047008, 5239779.464460392482579 ], [ 480115.439944822632242, 5239780.461874990724027 ], [ 480167.83673475246178, 5239821.761463832110167 ] ] ] } },
{ "type": "Feature", "properties": { "name": "MarketGarden 67", "GI": 0.34593766522273345 }, "geometry": { "type": "Polygon", "coordinates": [ [ [ 480168.987558972672559, 5239820.414826332591474 ], [ 480169.773729515087325, 5239819.417411737143993 ], [ 480117.338318355730735, 5239778.087381317280233 ], [ 480116.552147813432384, 5239779.084795913659036 ], [ 480168.987558972672559, 5239820.414826332591474 ] ] ] } },
{ "type": "Feature", "properties": { "name": "MarketGarden 68", "GI": 0.33748242301837128 }, "geometry": { "type": "Polygon", "coordinates": [ [ [ 480170.138383193407208, 5239819.068188834004104 ], [ 480170.924553735763766, 5239818.070774237625301 ], [ 480118.450521346821915, 5239776.710302240215242 ], [ 480117.664350804523565, 5239777.707716836594045 ], [ 480170.138383193407208, 5239819.068188834004104 ] ] ] } },
{ "type": "Feature", "properties": { "name": "MarketGarden 69", "GI": 0.34407852140108031 }, "geometry": { "type": "Polygon", "coordinates": [ [ [ 480171.289207414316479, 5239817.721551334485412 ], [ 480172.075377956789453, 5239816.724136738106608 ], [ 480119.562724338145927, 5239775.333223165012896 ], [ 480118.776553795731161, 5239776.330637761391699 ], [ 480171.289207414316479, 5239817.721551334485412 ] ] ] } },
{ "type": "Feature", "properties": { "name": "MarketGarden 70", "GI": 0.33795016201509037 }, "geometry": { "type": "Polygon", "coordinates": [ [ [ 480172.440031634294428, 5239816.374913835898042 ], [ 480173.226202176709194, 5239815.377499238587916 ], [ 480120.674927328713238, 5239773.956144090741873 ], [ 480119.888756786182057, 5239774.953558686189353 ], [ 480172.440031634294428, 5239816.374913835898042 ] ] ] } },
{ "type": "Feature", "properties": { "name": "MarketGarden 71", "GI": 0.33254261815185693 }, "geometry": { "type": "Polygon", "coordinates": [ [ [ 480173.590855854563415, 5239815.028276335448027 ], [ 480174.377026396861766, 5239814.030861740931869 ], [ 480121.78713031928055, 5239772.579065015539527 ], [ 480121.000959777040407, 5239773.576479610987008 ], [ 480173.590855854563415, 5239815.028276335448027 ] ] ] } },
{ "type": "Feature", "properties": { "name": "MarketGarden 72", "GI": 0.33453851646370875 }, "geometry": { "type": "Polygon", "coordinates": [ [ [ 480174.741680074948817, 5239813.681638837791979 ], [ 480175.527850617596414, 5239812.684224241413176 ], [ 480122.899333310313523, 5239771.201985937543213 ], [ 480122.113162767898757, 5239772.199400534853339 ], [ 480174.741680074948817, 5239813.681638837791979 ] ] ] } },
{ "type": "Feature", "properties": { "name": "MarketGarden 73", "GI": 0.34598843129320717 }, "geometry": { "type": "Polygon", "coordinates": [ [ [ 480175.892504295450635, 5239812.335001338273287 ], [ 480176.678674837807193, 5239811.337586740963161 ], [ 480124.01153630123008, 5239769.82490686327219 ], [ 480123.225365758815315, 5239770.822321458719671 ], [ 480175.892504295450635, 5239812.335001338273287 ] ] ] } },
{ "type": "Feature", "properties": { "name": "MarketGarden 74", "GI": 0.45361994899163144 }, "geometry": { "type": "Polygon", "coordinates": [ [ [ 480177.043328516301699, 5239810.988363839685917 ], [ 480177.829499058658257, 5239809.990949243307114 ], [ 480125.123739292146638, 5239768.447827787138522 ], [ 480124.337568749906495, 5239769.445242383517325 ], [ 480177.043328516301699, 5239810.988363839685917 ] ] ] } },
{ "type": "Feature", "properties": { "name": "MarketGarden 75", "GI": 0.39414088445511419 }, "geometry": { "type": "Polygon", "coordinates": [ [ [ 480178.194152736628894, 5239809.641726341098547 ], [ 480178.980323279160075, 5239808.644311742857099 ], [ 480126.256782002164982, 5239767.087174752727151 ], [ 480125.470611459575593, 5239768.084589349105954 ], [ 480178.194152736628894, 5239809.641726341098547 ] ] ] } },
{ "type": "Feature", "properties": { "name": "MarketGarden 76", "GI": 0.40302190699264717 }, "geometry": { "type": "Polygon", "coordinates": [ [ [ 480179.344976956839673, 5239808.295088841579854 ], [ 480180.131147499254439, 5239807.297674246132374 ], [ 480127.436509459919762, 5239765.763319027610123 ], [ 480126.650338917679619, 5239766.760733623988926 ], [ 480179.344976956839673, 5239808.295088841579854 ] ] ] } },
{ "type": "Feature", "properties": { "name": "MarketGarden 77", "GI": 0.42328970924123399 }, "geometry": { "type": "Polygon", "coordinates": [ [ [ 480180.495801177632529, 5239806.948451340198517 ], [ 480181.281971719989087, 5239805.951036745682359 ], [ 480128.616236918489449, 5239764.439463301561773 ], [ 480127.830066376191098, 5239765.436877897940576 ], [ 480180.495801177632529, 5239806.948451340198517 ] ] ] } },
{ "type": "Feature", "properties": { "name": "MarketGarden 78", "GI": 0.3462504602307715 }, "geometry": { "type": "Polygon", "coordinates": [ [ [ 480181.646625397843309, 5239805.601813843473792 ], [ 480182.432795940258075, 5239804.604399248026311 ], [ 480129.795964376768097, 5239763.11560757830739 ], [ 480129.009793834411539, 5239764.113022174686193 ], [ 480181.646625397843309, 5239805.601813843473792 ] ] ] } },
{ "type": "Feature", "properties": { "name": "MarketGarden 79", "GI": 0.41557297590619163 }, "geometry": { "type": "Polygon", "coordinates": [ [ [ 480182.797449618519749, 5239804.2551763439551 ], [ 480183.583620160934515, 5239803.257761748507619 ], [ 480130.975691835454199, 5239761.791751853190362 ], [ 480130.189521293039434, 5239762.789166449569166 ], [ 480182.797449618519749, 5239804.2551763439551 ] ] ] } },
{ "type": "Feature", "properties": { "name": "MarketGarden 80", "GI": 0.48401206748262587 }, "geometry": { "type": "Polygon", "coordinates": [ [ [ 480183.94827383896336, 5239802.90853884536773 ], [ 480184.734444381436333, 5239801.911124249920249 ], [ 480132.155419293616433, 5239760.467896128073335 ], [ 480131.369248751143459, 5239761.465310724452138 ], [ 480183.94827383896336, 5239802.90853884536773 ] ] ] } },
{ "type": "Feature", "properties": { "name": "MarketGarden 81", "GI": 0.4433393008746731 }, "geometry": { "type": "Polygon", "coordinates": [ [ [ 480185.0990980596398, 5239801.561901345849037 ], [ 480185.885268602054566, 5239800.564486750401556 ], [ 480133.33514675218612, 5239759.144040402956307 ], [ 480132.548976209654938, 5239760.141455000266433 ], [ 480185.0990980596398, 5239801.561901345849037 ] ] ] } },
{ "type": "Feature", "properties": { "name": "MarketGarden 82", "GI": 0.33947405578943779 }, "geometry": { "type": "Polygon", "coordinates": [ [ [ 480186.249922279617749, 5239800.21526384819299 ], [ 480187.036092821799684, 5239799.217849251814187 ], [ 480134.514874209766276, 5239757.820184678770602 ], [ 480133.728703667409718, 5239758.817599276080728 ], [ 480186.249922279617749, 5239800.21526384819299 ] ] ] } },
{ "type": "Feature", "properties": { "name": "MarketGarden 83", "GI": 0.40506587478511097 }, "geometry": { "type": "Polygon", "coordinates": [ [ [ 480187.400746500119567, 5239798.868626347742975 ], [ 480188.186917042534333, 5239797.871211752295494 ], [ 480135.694601668277755, 5239756.496328955516219 ], [ 480134.908431125921197, 5239757.4937435509637 ], [ 480187.400746500119567, 5239798.868626347742975 ] ] ] } },
{ "type": "Feature", "properties": { "name": "MarketGarden 84", "GI": 0.42231494380571905 }, "geometry": { "type": "Polygon", "coordinates": [ [ [ 480188.551570720679592, 5239797.521988849155605 ], [ 480189.337741262919735, 5239796.524574252776802 ], [ 480136.874329126672819, 5239755.172473229467869 ], [ 480136.088158584432676, 5239756.169887824915349 ], [ 480188.551570720679592, 5239797.521988849155605 ] ] ] } },
{ "type": "Feature", "properties": { "name": "MarketGarden 85", "GI": 0.39798458790483343 }, "geometry": { "type": "Polygon", "coordinates": [ [ [ 480189.702394941064995, 5239796.175351349636912 ], [ 480190.48856548324693, 5239795.177936754189432 ], [ 480138.054056584951468, 5239753.848617504350841 ], [ 480137.267886042478494, 5239754.846032101660967 ], [ 480189.702394941064995, 5239796.175351349636912 ] ] ] } },
{ "type": "Feature", "properties": { "name": "MarketGarden 86", "GI": 0.37551903085482186 }, "geometry": { "type": "Polygon", "coordinates": [ [ [ 480190.853219161566813, 5239794.828713849186897 ], [ 480191.639389703865163, 5239793.831299254670739 ], [ 480139.233784043346532, 5239752.524761780165136 ], [ 480138.447613501106389, 5239753.522176375612617 ], [ 480190.853219161566813, 5239794.828713849186897 ] ] ] } },
{ "type": "Feature", "properties": { "name": "MarketGarden 87", "GI": 0.44763086923217821 }, "geometry": { "type": "Polygon", "coordinates": [ [ [ 480192.004043382126838, 5239793.482076352462173 ], [ 480192.790213924483396, 5239792.484661756083369 ], [ 480140.413511501858011, 5239751.200906054116786 ], [ 480139.627340959268622, 5239752.198320651426911 ], [ 480192.004043382126838, 5239793.482076352462173 ] ] ] } },
{ "type": "Feature", "properties": { "name": "MarketGarden 88", "GI": 0.43666262764894115 }, "geometry": { "type": "Polygon", "coordinates": [ [ [ 480193.154867602221202, 5239792.135438853874803 ], [ 480193.941038144694176, 5239791.138024256564677 ], [ 480141.593238959787413, 5239749.877050330862403 ], [ 480140.80706841731444, 5239750.874464927241206 ], [ 480193.154867602221202, 5239792.135438853874803 ] ] ] } },
{ "type": "Feature", "properties": { "name": "MarketGarden 89", "GI": 0.43916963778763213 }, "geometry": { "type": "Polygon", "coordinates": [ [ [ 480194.305691822955851, 5239790.78880135435611 ], [ 480195.091862365312409, 5239789.791386758908629 ], [ 480142.772966418240685, 5239748.553194605745375 ], [ 480141.986795876000542, 5239749.550609202124178 ], [ 480194.305691822955851, 5239790.78880135435611 ] ] ] } },
{ "type": "Feature", "properties": { "name": "MarketGarden 90", "GI": 0.42577736006658723 }, "geometry": { "type": "Polygon", "coordinates": [ [ [ 480195.456516043632291, 5239789.442163853906095 ], [ 480196.242686586163472, 5239788.444749258458614 ], [ 480143.952693876810372, 5239747.22933888155967 ], [ 480143.166523334453814, 5239748.226753477007151 ], [ 480195.456516043632291, 5239789.442163853906095 ] ] ] } },
{ "type": "Feature", "properties": { "name": "MarketGarden 91", "GI": 0.34132825810407491 }, "geometry": { "type": "Polygon", "coordinates": [ [ [ 480196.607340263959486, 5239788.09552635718137 ], [ 480197.393510806316044, 5239787.098111759871244 ], [ 480145.13242133508902, 5239745.905483156442642 ], [ 480144.346250792674255, 5239746.902897751890123 ], [ 480196.607340263959486, 5239788.09552635718137 ] ] ] } },
{ "type": "Feature", "properties": { "name": "MarketGarden 92", "GI": 0.3468576533434396 }, "geometry": { "type": "Polygon", "coordinates": [ [ [ 480197.758164484112058, 5239786.748888856731355 ], [ 480198.544335026585031, 5239785.751474261283875 ], [ 480146.312148793134838, 5239744.581627431325614 ], [ 480145.52597825054545, 5239745.579042027704418 ], [ 480197.758164484112058, 5239786.748888856731355 ] ] ] } },
{ "type": "Feature", "properties": { "name": "MarketGarden 93", "GI": 0.33889333275740363 }, "geometry": { "type": "Polygon", "coordinates": [ [ [ 480198.908988705370575, 5239785.402251358143985 ], [ 480199.695159247785341, 5239784.404836760833859 ], [ 480147.491876252111979, 5239743.257771707139909 ], [ 480146.705705709580798, 5239744.25518630258739 ], [ 480198.908988705370575, 5239785.402251358143985 ] ] ] } },
{ "type": "Feature", "properties": { "name": "MarketGarden 94", "GI": 0.34089806516811527 }, "geometry": { "type": "Polygon", "coordinates": [ [ [ 480200.059812925348524, 5239784.055613858625293 ], [ 480200.845983467821497, 5239783.058199263177812 ], [ 480148.671603710041381, 5239741.933915981091559 ], [ 480147.885433167626616, 5239742.931330579333007 ], [ 480200.059812925348524, 5239784.055613858625293 ] ] ] } },
{ "type": "Feature", "properties": { "name": "MarketGarden 95", "GI": 0.34140983505467387 }, "geometry": { "type": "Polygon", "coordinates": [ [ [ 480201.210637145442888, 5239782.708976360969245 ], [ 480201.996807687915862, 5239781.71156176365912 ], [ 480149.851331167970784, 5239740.610060256905854 ], [ 480149.065160625556018, 5239741.60747485421598 ], [ 480201.210637145442888, 5239782.708976360969245 ] ] ] } },
{ "type": "Feature", "properties": { "name": "MarketGarden 96", "GI": 0.3319352146158876 }, "geometry": { "type": "Polygon", "coordinates": [ [ [ 480202.361461366468575, 5239781.362338861450553 ], [ 480203.147631908883341, 5239780.36492426507175 ], [ 480151.031058626831509, 5239739.286204531788826 ], [ 480150.244888084416743, 5239740.283619129098952 ], [ 480202.361461366468575, 5239781.362338861450553 ] ] ] } },
{ "type": "Feature", "properties": { "name": "MarketGarden 97", "GI": 0.33533846960644609 }, "geometry": { "type": "Polygon", "coordinates": [ [ [ 480203.512285586853977, 5239780.01570136193186 ], [ 480204.298456129268743, 5239779.018286765553057 ], [ 480152.210786085226573, 5239737.962348806671798 ], [ 480151.424615542870015, 5239738.959763403981924 ], [ 480203.512285586853977, 5239780.01570136193186 ] ] ] } },
{ "type": "Feature", "properties": { "name": "MarketGarden 98", "GI": 0.34681694412636521 }, "geometry": { "type": "Polygon", "coordinates": [ [ [ 480204.663109807937872, 5239778.669063863344491 ], [ 480205.449280350410845, 5239777.671649265103042 ], [ 480153.390513544029091, 5239736.63849308155477 ], [ 480152.604343001672532, 5239737.635907677933574 ], [ 480204.663109807937872, 5239778.669063863344491 ] ] ] } },
{ "type": "Feature", "properties": { "name": "MarketGarden 99", "GI": 0.3370509700289297 }, "geometry": { "type": "Polygon", "coordinates": [ [ [ 480205.813934028439689, 5239777.322426363825798 ], [ 480206.60010457073804, 5239776.32501176558435 ], [ 480154.570241002482362, 5239735.314637357369065 ], [ 480153.784070460009389, 5239736.312051952816546 ], [ 480205.813934028439689, 5239777.322426363825798 ] ] ] } },
{ "type": "Feature", "properties": { "name": "MarketGarden 100", "GI": 0.34525305050720545 }, "geometry": { "type": "Polygon", "coordinates": [ [ [ 480206.964758248592261, 5239775.975788864307106 ], [ 480207.750928791007027, 5239774.978374267928302 ], [ 480157.251807793451007, 5239735.174543978646398 ], [ 480156.465637251036242, 5239736.171958575956523 ], [ 480206.964758248592261, 5239775.975788864307106 ] ] ] } },
{ "type": "Feature", "properties": { "name": "MarketGarden 101", "GI": 0.47877941296208471 }, "geometry": { "type": "Polygon", "coordinates": [ [ [ 480208.115582469035871, 5239774.629151365719736 ], [ 480208.901753011508845, 5239773.631736770272255 ], [ 480162.022923311276827, 5239736.681450413540006 ], [ 480161.236752768803854, 5239737.678865010850132 ], [ 480208.115582469035871, 5239774.629151365719736 ] ] ] } },
{ "type": "Feature", "properties": { "name": "MarketGarden 102", "GI": 0.33282057844025659 }, "geometry": { "type": "Polygon", "coordinates": [ [ [ 480209.266406689537689, 5239773.282513866201043 ], [ 480210.052577231952455, 5239772.28509926982224 ], [ 480166.794038829451893, 5239738.188356849364936 ], [ 480166.007868287153542, 5239739.185771444812417 ], [ 480209.266406689537689, 5239773.282513866201043 ] ] ] } },
{ "type": "Feature", "properties": { "name": "MarketGarden 103", "GI": 0.34728145622590634 }, "geometry": { "type": "Polygon", "coordinates": [ [ [ 480210.417230910155922, 5239771.935876367613673 ], [ 480211.203401452745311, 5239770.93846177123487 ], [ 480168.977884559368249, 5239737.655955559574068 ], [ 480168.191714016895276, 5239738.653370155021548 ], [ 480210.417230910155922, 5239771.935876367613673 ] ] ] } },
{ "type": "Feature", "properties": { "name": "MarketGarden 104", "GI": 0.47233102438059399 }, "geometry": { "type": "Polygon", "coordinates": [ [ [ 480211.568055130192079, 5239770.589238869957626 ], [ 480212.354225672548637, 5239769.5918242726475 ], [ 480170.708343841368333, 5239736.766191272996366 ], [ 480169.922173298953567, 5239737.763605868443847 ], [ 480211.568055130192079, 5239770.589238869957626 ] ] ] } },
{ "type": "Feature", "properties": { "name": "MarketGarden 105", "GI": 0.33452857292758087 }, "geometry": { "type": "Polygon", "coordinates": [ [ [ 480212.71887935110135, 5239769.242601368576288 ], [ 480213.505049893690739, 5239768.245186772197485 ], [ 480172.438803125056438, 5239735.876426986418664 ], [ 480171.652632582583465, 5239736.873841581866145 ], [ 480212.71887935110135, 5239769.242601368576288 ] ] ] } },
{ "type": "Feature", "properties": { "name": "MarketGarden 106", "GI": 0.33383781428413228 }, "geometry": { "type": "Polygon", "coordinates": [ [ [ 480213.869703571603168, 5239767.895963869988918 ], [ 480214.655874114017934, 5239766.898549274541438 ], [ 480174.169262407696806, 5239734.986662700772285 ], [ 480173.383091865456663, 5239735.984077297151089 ], [ 480213.869703571603168, 5239767.895963869988918 ] ] ] } },
{ "type": "Feature", "properties": { "name": "MarketGarden 107", "GI": 0.34958394046345403 }, "geometry": { "type": "Polygon", "coordinates": [ [ [ 480215.020527792337816, 5239766.549326372332871 ], [ 480215.80669833481079, 5239765.551911774091423 ], [ 480175.969259747886099, 5239734.151708892546594 ], [ 480175.183089205529541, 5239735.149123488925397 ], [ 480215.020527792337816, 5239766.549326372332871 ] ] ] } },
{ "type": "Feature", "properties": { "name": "MarketGarden 108", "GI": 0.4193994320404475 }, "geometry": { "type": "Polygon", "coordinates": [ [ [ 480216.171352012606803, 5239765.202688871882856 ], [ 480216.957522554963361, 5239764.205274276435375 ], [ 480178.307941643695813, 5239733.741350766271353 ], [ 480177.521771101281047, 5239734.738765361718833 ], [ 480216.171352012606803, 5239765.202688871882856 ] ] ] } }
]
}
