{
"type": "FeatureCollection",
"name": "SchopfMoor_251203",
"crs": { "type": "name", "properties": { "name": "urn:ogc:def:crs:EPSG::32632" } },
"features": [
{ "type": "Feature", "properties": { "name": "SchopfMoor 01", "GI": 0.34955283501616724, "MGRVI": -0.07383899802931998, "MGRVI_COLOR": "#eab308" }, "geometry": { "type": "Polygon", "coordinates": [ [ [ 479926.939477071689907, 5239772.617740456946194 ], [ 479927.847056842176244, 5239773.506109163165092 ], [ 480054.010111189738382, 5239644.614766019396484 ], [ 480053.102531419252045, 5239643.726397313177586 ], [ 479926.939477071689907, 5239772.617740456946194 ] ] ] } },
{ "type": "Feature", "properties": { "name": "SchopfMoor 02", "GI": 0.35011454051308999, "MGRVI": -0.056683764234173116, "MGRVI_COLOR": "#eab308" }, "geometry": { "type": "Polygon", "coordinates": [ [ [ 479928.337631736241747, 5239773.719718839973211 ], [ 479929.245211506728083, 5239774.608087547123432 ], [ 480055.406354072561953, 5239645.718697528354824 ], [ 480054.498774302075617, 5239644.830328821204603 ], [ 479928.337631736241747, 5239773.719718839973211 ] ] ] } },
{ "type": "Feature", "properties": { "name": "SchopfMoor 03", "GI": 0.34991230415058666, "MGRVI": -0.046345425252212427, "MGRVI_COLOR": "#eab308" }, "geometry": { "type": "Polygon", "coordinates": [ [ [ 479929.73578639945481, 5239774.821697222068906 ], [ 479930.643366169766523, 5239775.710065931081772 ], [ 480056.802596953930333, 5239646.822629034519196 ], [ 480055.895017183560412, 5239645.934260326437652 ], [ 479929.73578639945481, 5239774.821697222068906 ] ] ] } },
{ "type": "Feature", "properties": { "name": "SchopfMoor 04", "GI": 0.36806160310593694, "MGRVI": 0.019739322737986377, "MGRVI_COLOR": "#a3e635" }, "geometry": { "type": "Polygon", "coordinates": [ [ [ 479931.133892803452909, 5239775.923724909313023 ], [ 479932.041472573881038, 5239776.812093615531921 ], [ 480058.198807973938528, 5239647.926593092270195 ], [ 480057.291228203568608, 5239647.038224385119975 ], [ 479931.133892803452909, 5239775.923724909313023 ] ] ] } },
{ "type": "Feature", "properties": { "name": "SchopfMoor 05", "GI": 0.37012738081347613, "MGRVI": 0.011010821386175826, "MGRVI_COLOR": "#a3e635" }, "geometry": { "type": "Polygon", "coordinates": [ [ [ 479932.531966790673323, 5239777.025785711593926 ], [ 479933.439546561101452, 5239777.914154418744147 ], [ 480059.594970985548571, 5239649.030606197193265 ], [ 480058.687391215004027, 5239648.142237489111722 ], [ 479932.531966790673323, 5239777.025785711593926 ] ] ] } },
{ "type": "Feature", "properties": { "name": "SchopfMoor 06", "GI": 0.37853658507590415, "MGRVI": 0.034579906373894839, "MGRVI_COLOR": "#a3e635" }, "geometry": { "type": "Polygon", "coordinates": [ [ [ 479933.930040777253453, 5239778.127846516668797 ], [ 479934.837620547506958, 5239779.016215223819017 ], [ 480060.991133996460121, 5239650.134619301185012 ], [ 480060.083554226031993, 5239649.246250593103468 ], [ 479933.930040777253453, 5239778.127846516668797 ] ] ] } },
{ "type": "Feature", "properties": { "name": "SchopfMoor 07", "GI": 0.37525012179628137, "MGRVI": 0.14535414237423694, "MGRVI_COLOR": "#a3e635" }, "geometry": { "type": "Polygon", "coordinates": [ [ [ 479935.327784397581127, 5239779.230244831182063 ], [ 479936.235364167951047, 5239780.118613539263606 ], [ 480062.387585961958393, 5239651.23833720292896 ], [ 480061.480006191588473, 5239650.349968496710062 ], [ 479935.327784397581127, 5239779.230244831182063 ] ] ] } },
{ "type": "Feature", "properties": { "name": "SchopfMoor 08", "GI": 0.38616764533458847, "MGRVI": 0.18984950929437375, "MGRVI_COLOR": "#a3e635" }, "geometry": { "type": "Polygon", "coordinates": [ [ [ 479936.725777973886579, 5239780.332387785427272 ], [ 479937.633357744314708, 5239781.220756491646171 ], [ 480063.783973681856878, 5239652.342120740562677 ], [ 480062.87639391142875, 5239651.453752033412457 ], [ 479936.725777973886579, 5239780.332387785427272 ] ] ] } },
{ "type": "Feature", "properties": { "name": "SchopfMoor 09", "GI": 0.38670502051826938, "MGRVI": 0.19651396977457475, "MGRVI_COLOR": "#a3e635" }, "geometry": { "type": "Polygon", "coordinates": [ [ [ 479938.123771549377125, 5239781.434530739672482 ], [ 479939.031351319863461, 5239782.32289944589138 ], [ 480065.180273799865972, 5239653.44599377270788 ], [ 480064.272694029437844, 5239652.557625064626336 ], [ 479938.123771549377125, 5239781.434530739672482 ] ] ] } },
{ "type": "Feature", "properties": { "name": "SchopfMoor 10", "GI": 0.34304033651570348, "MGRVI": 0.024071858155079361, "MGRVI_COLOR": "#a3e635" }, "geometry": { "type": "Polygon", "coordinates": [ [ [ 479939.521765125449747, 5239782.536673692986369 ], [ 479940.429344895819668, 5239783.425042401067913 ], [ 480066.576573917875066, 5239654.549866805784404 ], [ 480065.668994147446938, 5239653.661498099565506 ], [ 479939.521765125449747, 5239782.536673692986369 ] ] ] } },
{ "type": "Feature", "properties": { "name": "SchopfMoor 11", "GI": 0.36610876813412052, "MGRVI": 0.12156909457866244, "MGRVI_COLOR": "#a3e635" }, "geometry": { "type": "Polygon", "coordinates": [ [ [ 479940.829760095337406, 5239783.458815220743418 ], [ 479941.737339865649119, 5239784.347183927893639 ], [ 480067.882874035392888, 5239655.473739837296307 ], [ 480066.975294264964759, 5239654.585371131077409 ], [ 479940.829760095337406, 5239783.458815220743418 ] ] ] } },
{ "type": "Feature", "properties": { "name": "SchopfMoor 12", "GI": 0.37951944354248807, "MGRVI": 0.16018682737884998, "MGRVI_COLOR": "#a3e635" }, "geometry": { "type": "Polygon", "coordinates": [ [ [ 479942.227825677837245, 5239784.560884610749781 ], [ 479943.135405448265374, 5239785.449253318831325 ], [ 480069.279174153634813, 5239656.577612870372832 ], [ 480068.371594383323099, 5239655.689244163222611 ], [ 479942.227825677837245, 5239784.560884610749781 ] ] ] } },
{ "type": "Feature", "properties": { "name": "SchopfMoor 13", "GI": 0.38534593398157618, "MGRVI": 0.18378839093888277, "MGRVI_COLOR": "#a3e635" }, "geometry": { "type": "Polygon", "coordinates": [ [ [ 479943.625891260162462, 5239785.662954000756145 ], [ 479944.53347103059059, 5239786.551322709769011 ], [ 480070.675484895298723, 5239657.681475048884749 ], [ 480069.76790512498701, 5239656.793106343597174 ], [ 479943.625891260162462, 5239785.662954000756145 ] ] ] } },
{ "type": "Feature", "properties": { "name": "SchopfMoor 14", "GI": 0.37682337183471415, "MGRVI": 0.1604300302728989, "MGRVI_COLOR": "#a3e635" }, "geometry": { "type": "Polygon", "coordinates": [ [ [ 479945.023956843302585, 5239786.76502339169383 ], [ 479945.931536613730714, 5239787.653392098844051 ], [ 480072.071797371201683, 5239658.78533545974642 ], [ 480071.164217600773554, 5239657.8969667525962 ], [ 479945.023956843302585, 5239786.76502339169383 ] ] ] } },
{ "type": "Feature", "properties": { "name": "SchopfMoor 15", "GI": 0.38282463699031444, "MGRVI": 0.16943821010588919, "MGRVI_COLOR": "#a3e635" }, "geometry": { "type": "Polygon", "coordinates": [ [ [ 479946.422022424812894, 5239787.867092782631516 ], [ 479947.329602195182815, 5239788.755461488850415 ], [ 480073.468109845591243, 5239659.889195867814124 ], [ 480072.560530074988492, 5239659.000827160663903 ], [ 479946.422022424812894, 5239787.867092782631516 ] ] ] } },
{ "type": "Feature", "properties": { "name": "SchopfMoor 16", "GI": 0.37944266830222922, "MGRVI": 0.16780890325278944, "MGRVI_COLOR": "#a3e635" }, "geometry": { "type": "Polygon", "coordinates": [ [ [ 479947.700088007608429, 5239788.849162170663476 ], [ 479948.607667777978349, 5239789.737530877813697 ], [ 480074.744422320858575, 5239660.873056275770068 ], [ 480073.836842550430447, 5239659.984687568619847 ], [ 479947.700088007608429, 5239788.849162170663476 ] ] ] } },
{ "type": "Feature", "properties": { "name": "SchopfMoor 17", "GI": 0.38273615385698728, "MGRVI": 0.17771185419098107, "MGRVI_COLOR": "#a3e635" }, "geometry": { "type": "Polygon", "coordinates": [ [ [ 479949.098153589002322, 5239789.951231561601162 ], [ 479950.005733359488659, 5239790.839600268751383 ], [ 480076.140734795131721, 5239661.976916684769094 ], [ 480075.2331550247618, 5239661.088547976687551 ], [ 479949.098153589002322, 5239789.951231561601162 ] ] ] } },
{ "type": "Feature", "properties": { "name": "SchopfMoor 18", "GI": 0.37367113639891963, "MGRVI": 0.11450333152420454, "MGRVI_COLOR": "#a3e635" }, "geometry": { "type": "Polygon", "coordinates": [ [ [ 479950.496219171909615, 5239791.053300951607525 ], [ 479951.403798942221329, 5239791.941669659689069 ], [ 480077.537047270743642, 5239663.080777092836797 ], [ 480076.629467500257306, 5239662.192408384755254 ], [ 479950.496219171909615, 5239791.053300951607525 ] ] ] } },
{ "type": "Feature", "properties": { "name": "SchopfMoor 19", "GI": 0.36669565950490618, "MGRVI": 0.086784607211373613, "MGRVI_COLOR": "#a3e635" }, "geometry": { "type": "Polygon", "coordinates": [ [ [ 479951.894284754467662, 5239792.155370342545211 ], [ 479952.801864525070414, 5239793.04373904876411 ], [ 480078.933359746006317, 5239664.184637501835823 ], [ 480078.025779975752812, 5239663.296268794685602 ], [ 479951.894284754467662, 5239792.155370342545211 ] ] ] } },
{ "type": "Feature", "properties": { "name": "SchopfMoor 20", "GI": 0.36555154711243021, "MGRVI": 0.096328564053480073, "MGRVI_COLOR": "#a3e635" }, "geometry": { "type": "Polygon", "coordinates": [ [ [ 479953.292350336094387, 5239793.257439732551575 ], [ 479954.199930106638931, 5239794.145808439701796 ], [ 480080.329672220395878, 5239665.288497909903526 ], [ 480079.422092450025957, 5239664.400129203684628 ], [ 479953.292350336094387, 5239793.257439732551575 ] ] ] } },
{ "type": "Feature", "properties": { "name": "SchopfMoor 21", "GI": 0.36697395060299709, "MGRVI": 0.095267049721204269, "MGRVI_COLOR": "#a3e635" }, "geometry": { "type": "Polygon", "coordinates": [ [ [ 479954.690415918710642, 5239794.359509124420583 ], [ 479955.597995689022355, 5239795.247877831570804 ], [ 480081.725984695658553, 5239666.392358318902552 ], [ 480080.818404925288633, 5239665.503989612683654 ], [ 479954.690415918710642, 5239794.359509124420583 ] ] ] } },
{ "type": "Feature", "properties": { "name": "SchopfMoor 22", "GI": 0.38634805817525192, "MGRVI": 0.048587921694802395, "MGRVI_COLOR": "#a3e635" }, "geometry": { "type": "Polygon", "coordinates": [ [ [ 479956.088481501501519, 5239795.431578513234854 ], [ 479956.996061271929648, 5239796.319947220385075 ], [ 480083.122297171212267, 5239667.466218727640808 ], [ 480082.214717400842346, 5239666.577850020490587 ], [ 479956.088481501501519, 5239795.431578513234854 ] ] ] } },
{ "type": "Feature", "properties": { "name": "SchopfMoor 23", "GI": 0.33049761515092158, "MGRVI": -0.074234220066162718, "MGRVI_COLOR": "#eab308" }, "geometry": { "type": "Polygon", "coordinates": [ [ [ 479957.486547083011828, 5239796.53364790417254 ], [ 479958.394126853439957, 5239797.422016611322761 ], [ 480084.518609645485412, 5239668.570079135708511 ], [ 480083.611029875115491, 5239667.68171042855829 ], [ 479957.486547083011828, 5239796.53364790417254 ] ] ] } },
{ "type": "Feature", "properties": { "name": "SchopfMoor 24", "GI": 0.31971630115609512, "MGRVI": -0.10375437258699972, "MGRVI_COLOR": "#eab308" }, "geometry": { "type": "Polygon", "coordinates": [ [ [ 479958.884612665802706, 5239797.635717293247581 ], [ 479959.792192436230835, 5239798.524086000397801 ], [ 480085.914922120980918, 5239669.673939543776214 ], [ 480085.007342350727413, 5239668.785570836625993 ], [ 479958.884612665802706, 5239797.635717293247581 ] ] ] } },
{ "type": "Feature", "properties": { "name": "SchopfMoor 25", "GI": 0.31940675490584086, "MGRVI": -0.096406418217575673, "MGRVI_COLOR": "#eab308" }, "geometry": { "type": "Polygon", "coordinates": [ [ [ 479960.282678247836884, 5239798.737786684185266 ], [ 479961.190258018206805, 5239799.626155391335487 ], [ 480087.311234595719725, 5239670.77779995277524 ], [ 480086.403654825349804, 5239669.889431246556342 ], [ 479960.282678247836884, 5239798.737786684185266 ] ] ] } },
{ "type": "Feature", "properties": { "name": "SchopfMoor 26", "GI": 0.32034969860259094, "MGRVI": -0.10097213123132066, "MGRVI_COLOR": "#eab308" }, "geometry": { "type": "Polygon", "coordinates": [ [ [ 479961.680743830394931, 5239799.839856073260307 ], [ 479962.588323600881267, 5239800.728224780410528 ], [ 480088.707547071098816, 5239671.881660362705588 ], [ 480087.79996730084531, 5239670.993291655555367 ], [ 479961.680743830394931, 5239799.839856073260307 ] ] ] } },
{ "type": "Feature", "properties": { "name": "SchopfMoor 27", "GI": 0.32155055213014327, "MGRVI": -0.094100556912963679, "MGRVI_COLOR": "#eab308" }, "geometry": { "type": "Polygon", "coordinates": [ [ [ 479963.078809412778355, 5239800.941925464197993 ], [ 479963.986389183264691, 5239801.830294171348214 ], [ 480090.103859546186868, 5239672.985520771704614 ], [ 480089.19627977575874, 5239672.097152064554393 ], [ 479963.078809412778355, 5239800.941925464197993 ] ] ] } },
{ "type": "Feature", "properties": { "name": "SchopfMoor 28", "GI": 0.32144532695953687, "MGRVI": -0.095627996599080112, "MGRVI_COLOR": "#eab308" }, "geometry": { "type": "Polygon", "coordinates": [ [ [ 479964.476874994754326, 5239802.043994856067002 ], [ 479965.384454765182454, 5239802.9323635622859 ], [ 480091.50017202104209, 5239674.089381179772317 ], [ 480090.592592250613961, 5239673.201012473553419 ], [ 479964.476874994754326, 5239802.043994856067002 ] ] ] } },
{ "type": "Feature", "properties": { "name": "SchopfMoor 29", "GI": 0.31934225946061084, "MGRVI": -0.11661397773374839, "MGRVI_COLOR": "#eab308" }, "geometry": { "type": "Polygon", "coordinates": [ [ [ 479965.874940577778034, 5239803.146064246073365 ], [ 479966.782520348322578, 5239804.034432952292264 ], [ 480092.896484496537596, 5239675.193241588771343 ], [ 480091.988904726109467, 5239674.3048728806898 ], [ 479965.874940577778034, 5239803.146064246073365 ] ] ] } },
{ "type": "Feature", "properties": { "name": "SchopfMoor 30", "GI": 0.32039798578932971, "MGRVI": -0.11073365881670937, "MGRVI_COLOR": "#eab308" }, "geometry": { "type": "Polygon", "coordinates": [ [ [ 479967.273006159462966, 5239804.248133636079729 ], [ 479968.18058593000751, 5239805.136502342298627 ], [ 480094.292796971101779, 5239676.297101996839046 ], [ 480093.385217200731859, 5239675.408733289688826 ], [ 479967.273006159462966, 5239804.248133636079729 ] ] ] } },
{ "type": "Feature", "properties": { "name": "SchopfMoor 31", "GI": 0.32152856912345235, "MGRVI": -0.10032619446396811, "MGRVI_COLOR": "#eab308" }, "geometry": { "type": "Polygon", "coordinates": [ [ [ 479968.671071742137428, 5239805.350203027017415 ], [ 479969.578651512507349, 5239806.238571733236313 ], [ 480086.966729368781671, 5239686.311964844353497 ], [ 480086.059149598353542, 5239685.423596137203276 ], [ 479968.671071742137428, 5239805.350203027017415 ] ] ] } },
{ "type": "Feature", "properties": { "name": "SchopfMoor 32", "GI": 0.32139668255026982, "MGRVI": -0.099332741524264911, "MGRVI_COLOR": "#eab308" }, "geometry": { "type": "Polygon", "coordinates": [ [ [ 479970.06913732457906, 5239806.452272417023778 ], [ 479970.976717095181812, 5239807.340641124173999 ], [ 480088.363041844044346, 5239687.415825253352523 ], [ 480087.455462073616218, 5239686.527456547133625 ], [ 479970.06913732457906, 5239806.452272417023778 ] ] ] } },
{ "type": "Feature", "properties": { "name": "SchopfMoor 33", "GI": 0.32465399610229656, "MGRVI": -0.087856429252674104, "MGRVI_COLOR": "#eab308" }, "geometry": { "type": "Polygon", "coordinates": [ [ [ 479971.467202906496823, 5239807.554341807030141 ], [ 479972.374782676866744, 5239808.442710514180362 ], [ 480089.759354318666738, 5239688.519685660488904 ], [ 480088.851774548238609, 5239687.631316954270005 ], [ 479971.467202906496823, 5239807.554341807030141 ] ] ] } },
{ "type": "Feature", "properties": { "name": "SchopfMoor 34", "GI": 0.35973414070191256, "MGRVI": 0.0006217074135474079, "MGRVI_COLOR": "#a3e635" }, "geometry": { "type": "Polygon", "coordinates": [ [ [ 479980.025784405122977, 5239801.341048390604556 ], [ 479980.933364175609313, 5239802.229417097754776 ], [ 480091.155666793638375, 5239689.623546068556607 ], [ 480090.248087023210246, 5239688.735177362337708 ], [ 479980.025784405122977, 5239801.341048390604556 ] ] ] } },
{ "type": "Feature", "properties": { "name": "SchopfMoor 35", "GI": 0.40718135146586837, "MGRVI": 0.19585931839015688, "MGRVI_COLOR": "#a3e635" }, "geometry": { "type": "Polygon", "coordinates": [ [ [ 479981.633828718157019, 5239802.773139515891671 ], [ 479982.541408488585148, 5239803.661508222110569 ], [ 480092.761979269271251, 5239691.057406481355429 ], [ 480091.854399498843122, 5239690.169037774205208 ], [ 479981.633828718157019, 5239802.773139515891671 ] ] ] } },
{ "type": "Feature", "properties": { "name": "SchopfMoor 36", "GI": 0.41515819630660478, "MGRVI": 0.2088341179701842, "MGRVI_COLOR": "#4ade80" }, "geometry": { "type": "Polygon", "coordinates": [ [ [ 479983.031869649945293, 5239803.875234088860452 ], [ 479983.939449420489836, 5239804.76360279507935 ], [ 480094.158291744242888, 5239692.161266890354455 ], [ 480093.250711973698344, 5239691.272898183204234 ], [ 479983.031869649945293, 5239803.875234088860452 ] ] ] } },
{ "type": "Feature", "properties": { "name": "SchopfMoor 37", "GI": 0.41194022771341887, "MGRVI": 0.206033131929414, "MGRVI_COLOR": "#4ade80" }, "geometry": { "type": "Polygon", "coordinates": [ [ [ 479984.429910581558943, 5239804.977328661829233 ], [ 479985.337490351928864, 5239805.865697368979454 ], [ 480095.554604218632448, 5239693.26512729935348 ], [ 480094.64702444820432, 5239692.376758592203259 ], [ 479984.429910581558943, 5239804.977328661829233 ] ] ] } },
{ "type": "Feature", "properties": { "name": "SchopfMoor 38", "GI": 0.42932165020798935, "MGRVI": 0.25026516847678393, "MGRVI_COLOR": "#4ade80" }, "geometry": { "type": "Polygon", "coordinates": [ [ [ 479985.827951514511369, 5239806.079423235729337 ], [ 479986.735531285055913, 5239806.967791941948235 ], [ 480096.950900737603661, 5239694.36900400929153 ], [ 480096.043320967117324, 5239693.480635303072631 ], [ 479985.827951514511369, 5239806.079423235729337 ] ] ] } },
{ "type": "Feature", "properties": { "name": "SchopfMoor 39", "GI": 0.41353406723694663, "MGRVI": 0.18258440331508799, "MGRVI_COLOR": "#a3e635" }, "geometry": { "type": "Polygon", "coordinates": [ [ [ 479987.225992445775773, 5239807.181517808698118 ], [ 479988.13357221626211, 5239808.069886514917016 ], [ 480098.347175228758715, 5239695.472903224639595 ], [ 480097.439595458272379, 5239694.584534517489374 ], [ 479987.225992445775773, 5239807.181517808698118 ] ] ] } },
{ "type": "Feature", "properties": { "name": "SchopfMoor 40", "GI": 0.40145542399214063, "MGRVI": 0.13491548906342563, "MGRVI_COLOR": "#a3e635" }, "geometry": { "type": "Polygon", "coordinates": [ [ [ 479988.624033378146123, 5239808.283612381666899 ], [ 479989.531613148516044, 5239809.17198108881712 ], [ 480099.7434497209033, 5239696.576802436262369 ], [ 480098.835869950416964, 5239695.688433729112148 ], [ 479988.624033378146123, 5239808.283612381666899 ] ] ] } },
{ "type": "Feature", "properties": { "name": "SchopfMoor 41", "GI": 0.38804888490550965, "MGRVI": 0.087808180012783205, "MGRVI_COLOR": "#a3e635" }, "geometry": { "type": "Polygon", "coordinates": [ [ [ 479990.02207431034185, 5239809.385706955567002 ], [ 479990.929654080769978, 5239810.274075663648546 ], [ 480101.1397242131643, 5239697.680701651610434 ], [ 480100.232144442736171, 5239696.792332943528891 ], [ 479990.02207431034185, 5239809.385706955567002 ] ] ] } },
{ "type": "Feature", "properties": { "name": "SchopfMoor 42", "GI": 0.38538316562139946, "MGRVI": 0.075874446692027378, "MGRVI_COLOR": "#a3e635" }, "geometry": { "type": "Polygon", "coordinates": [ [ [ 479991.420115242479369, 5239810.487801531329751 ], [ 479992.327695012907498, 5239811.376170236617327 ], [ 480102.535998704785015, 5239698.784600864164531 ], [ 480101.628418934473302, 5239697.89623215701431 ], [ 479991.420115242479369, 5239810.487801531329751 ] ] ] } },
{ "type": "Feature", "properties": { "name": "SchopfMoor 43", "GI": 0.38757031051378399, "MGRVI": 0.088310945317124259, "MGRVI_COLOR": "#a3e635" }, "geometry": { "type": "Polygon", "coordinates": [ [ [ 479992.818156174500473, 5239811.589896104298532 ], [ 479993.725735944928601, 5239812.478264811448753 ], [ 480103.932273196696769, 5239699.888500077649951 ], [ 480103.024693426326849, 5239699.000131369568408 ], [ 479992.818156174500473, 5239811.589896104298532 ] ] ] } },
{ "type": "Feature", "properties": { "name": "SchopfMoor 44", "GI": 0.38624512457213356, "MGRVI": 0.0770374122122362, "MGRVI_COLOR": "#a3e635" }, "geometry": { "type": "Polygon", "coordinates": [ [ [ 479994.216197106288746, 5239812.691990678198636 ], [ 479995.123776876658667, 5239813.580359385348856 ], [ 480105.328547688375693, 5239700.992399289272726 ], [ 480104.420967917889357, 5239700.104030583053827 ], [ 479994.216197106288746, 5239812.691990678198636 ] ] ] } },
{ "type": "Feature", "properties": { "name": "SchopfMoor 45", "GI": 0.38186801320751063, "MGRVI": 0.063658363480325039, "MGRVI_COLOR": "#a3e635" }, "geometry": { "type": "Polygon", "coordinates": [ [ [ 479995.614238038600888, 5239813.794085252098739 ], [ 479996.521817809087224, 5239814.682453958317637 ], [ 480106.724822180578485, 5239702.096298503689468 ], [ 480105.817242410092149, 5239701.20792979747057 ], [ 479995.614238038600888, 5239813.794085252098739 ] ] ] } },
{ "type": "Feature", "properties": { "name": "SchopfMoor 46", "GI": 0.37633433922971021, "MGRVI": 0.047924561462669074, "MGRVI_COLOR": "#a3e635" }, "geometry": { "type": "Polygon", "coordinates": [ [ [ 479997.012278970796615, 5239814.89617982506752 ], [ 479997.919858741282951, 5239815.784548533149064 ], [ 480108.121096672606654, 5239703.200197717174888 ], [ 480107.213516902120318, 5239702.311829010024667 ], [ 479997.012278970796615, 5239814.89617982506752 ] ] ] } },
{ "type": "Feature", "properties": { "name": "SchopfMoor 47", "GI": 0.37841030797140246, "MGRVI": 0.04652295554839924, "MGRVI_COLOR": "#a3e635" }, "geometry": { "type": "Polygon", "coordinates": [ [ [ 479998.410319902352057, 5239815.998274398967624 ], [ 479999.317899672838394, 5239816.886643105186522 ], [ 480109.517371163878124, 5239704.304096929728985 ], [ 480108.609791393566411, 5239703.415728222578764 ], [ 479998.410319902352057, 5239815.998274398967624 ] ] ] } },
{ "type": "Feature", "properties": { "name": "SchopfMoor 48", "GI": 0.38936967513750081, "MGRVI": 0.08391783848443006, "MGRVI_COLOR": "#a3e635" }, "geometry": { "type": "Polygon", "coordinates": [ [ [ 479999.808360834722407, 5239817.100368972867727 ], [ 480000.715940605150536, 5239817.988737679086626 ], [ 480110.913645656080917, 5239705.407996143214405 ], [ 480110.006065885652788, 5239704.519627436064184 ], [ 479999.808360834722407, 5239817.100368972867727 ] ] ] } },
{ "type": "Feature", "properties": { "name": "SchopfMoor 49", "GI": 0.38716058790444652, "MGRVI": 0.07453998079022181, "MGRVI_COLOR": "#a3e635" }, "geometry": { "type": "Polygon", "coordinates": [ [ [ 480001.20640176651068, 5239818.202463545836508 ], [ 480002.113981536938809, 5239819.090832252986729 ], [ 480112.30992014775984, 5239706.511895356699824 ], [ 480111.402340377273504, 5239705.623526649549603 ], [ 480001.20640176651068, 5239818.202463545836508 ] ] ] } },
{ "type": "Feature", "properties": { "name": "SchopfMoor 50", "GI": 0.3819311374634981, "MGRVI": 0.053560055136887899, "MGRVI_COLOR": "#a3e635" }, "geometry": { "type": "Polygon", "coordinates": [ [ [ 480002.604442699113861, 5239819.304558119736612 ], [ 480003.512022469600197, 5239820.192926826886833 ], [ 480113.706194640137255, 5239707.615794570185244 ], [ 480112.798614869650919, 5239706.727425863035023 ], [ 480002.604442699113861, 5239819.304558119736612 ] ] ] } },
{ "type": "Feature", "properties": { "name": "SchopfMoor 51", "GI": 0.37975464907210016, "MGRVI": 0.0349763914972901, "MGRVI_COLOR": "#a3e635" }, "geometry": { "type": "Polygon", "coordinates": [ [ [ 480004.002483630785719, 5239820.406652693636715 ], [ 480004.910063400981016, 5239821.295021400786936 ], [ 480115.102469131466933, 5239708.719693783670664 ], [ 480114.194889361038804, 5239707.83132507558912 ], [ 480004.002483630785719, 5239820.406652693636715 ] ] ] } },
{ "type": "Feature", "properties": { "name": "SchopfMoor 52", "GI": 0.3905106786301249, "MGRVI": 0.067638123821452692, "MGRVI_COLOR": "#a3e635" }, "geometry": { "type": "Polygon", "coordinates": [ [ [ 480005.40052456286503, 5239821.508747267536819 ], [ 480006.308104333293159, 5239822.39711597468704 ], [ 480116.498743623611517, 5239709.823592996224761 ], [ 480115.591163853241596, 5239708.93522428907454 ], [ 480005.40052456286503, 5239821.508747267536819 ] ] ] } },
{ "type": "Feature", "properties": { "name": "SchopfMoor 53", "GI": 0.3873272646029125, "MGRVI": 0.014960473344533324, "MGRVI_COLOR": "#a3e635" }, "geometry": { "type": "Polygon", "coordinates": [ [ [ 480006.79856549424585, 5239822.610841841436923 ], [ 480007.706145264673978, 5239823.499210547655821 ], [ 480117.895018114999402, 5239710.927492207847536 ], [ 480116.987438344687689, 5239710.039123501628637 ], [ 480006.79856549424585, 5239822.610841841436923 ] ] ] } },
{ "type": "Feature", "properties": { "name": "SchopfMoor 54", "GI": 0.39878428313359982, "MGRVI": 0.040738424240878132, "MGRVI_COLOR": "#a3e635" }, "geometry": { "type": "Polygon", "coordinates": [ [ [ 480008.196606426557992, 5239823.712936414405704 ], [ 480009.10418619698612, 5239824.601305121555924 ], [ 480119.291292607085779, 5239712.031391422264278 ], [ 480118.383712836599443, 5239711.143022715114057 ], [ 480008.196606426557992, 5239823.712936414405704 ] ] ] } },
{ "type": "Feature", "properties": { "name": "SchopfMoor 55", "GI": 0.40487143751652144, "MGRVI": 0.068031520753350602, "MGRVI_COLOR": "#a3e635" }, "geometry": { "type": "Polygon", "coordinates": [ [ [ 480009.59464735846268, 5239824.815030988305807 ], [ 480010.502227128832601, 5239825.703399695456028 ], [ 480120.687567098706495, 5239713.135290635749698 ], [ 480119.779987328336574, 5239712.246921928599477 ], [ 480009.59464735846268, 5239824.815030988305807 ] ] ] } },
{ "type": "Feature", "properties": { "name": "SchopfMoor 56", "GI": 0.41004444337485052, "MGRVI": 0.12569260142967881, "MGRVI_COLOR": "#a3e635" }, "geometry": { "type": "Polygon", "coordinates": [ [ [ 480010.992688290891238, 5239825.917125561274588 ], [ 480011.900268061261158, 5239826.805494270287454 ], [ 480122.083841590909287, 5239714.23918985016644 ], [ 480121.176261820481159, 5239713.350821142084897 ], [ 480010.992688290891238, 5239825.917125561274588 ] ] ] } },
{ "type": "Feature", "properties": { "name": "SchopfMoor 57", "GI": 0.4099343119141185, "MGRVI": 0.073064994092256433, "MGRVI_COLOR": "#a3e635" }, "geometry": { "type": "Polygon", "coordinates": [ [ [ 480012.390729222272057, 5239827.019220135174692 ], [ 480013.298308992758393, 5239827.90758884139359 ], [ 480123.480116082238965, 5239715.343089061789215 ], [ 480122.572536311810836, 5239714.454720354638994 ], [ 480012.390729222272057, 5239827.019220135174692 ] ] ] } },
{ "type": "Feature", "properties": { "name": "SchopfMoor 58", "GI": 0.39806683691311728, "MGRVI": 0.030359612734270201, "MGRVI_COLOR": "#a3e635" }, "geometry": { "type": "Polygon", "coordinates": [ [ [ 480013.788728711020667, 5239828.121357046999037 ], [ 480014.696308481507003, 5239829.009725756943226 ], [ 480117.514076560677495, 5239723.968513073399663 ], [ 480116.606496790249366, 5239723.08014436531812 ], [ 480013.788728711020667, 5239828.121357046999037 ] ] ] } },
{ "type": "Feature", "properties": { "name": "SchopfMoor 59", "GI": 0.38841718069729592, "MGRVI": -0.0035711058865662863, "MGRVI_COLOR": "#eab308" }, "geometry": { "type": "Polygon", "coordinates": [ [ [ 480015.186698663048446, 5239829.223524137400091 ], [ 480016.094278433476575, 5239830.111892844550312 ], [ 480107.15705357270781, 5239737.079876 ], [ 480106.249473802221473, 5239736.191507291980088 ], [ 480015.186698663048446, 5239829.223524137400091 ] ] ] } },
{ "type": "Feature", "properties": { "name": "SchopfMoor 60", "GI": 0.38158302855936971, "MGRVI": -0.020988624477906979, "MGRVI_COLOR": "#eab308" }, "geometry": { "type": "Polygon", "coordinates": [ [ [ 480016.584668615250848, 5239830.325691225938499 ], [ 480017.492248385795392, 5239831.21405993308872 ], [ 480088.077650506747887, 5239759.102241366170347 ], [ 480087.170070736377966, 5239758.213872659020126 ], [ 480016.584668615250848, 5239830.325691225938499 ] ] ] } },
{ "type": "Feature", "properties": { "name": "SchopfMoor 61", "GI": 0.36793295274278059, "MGRVI": -0.067930481778969598, "MGRVI_COLOR": "#eab308" }, "geometry": { "type": "Polygon", "coordinates": [ [ [ 480017.982638566929381, 5239831.427858316339552 ], [ 480018.890218337299302, 5239832.316227023489773 ], [ 480068.998247447714675, 5239781.124606723897159 ], [ 480068.090667677170131, 5239780.236238016746938 ], [ 480017.982638566929381, 5239831.427858316339552 ] ] ] } },
{ "type": "Feature", "properties": { "name": "SchopfMoor 62", "GI": 0.35400525780394304, "MGRVI": -0.11805416385567943, "MGRVI_COLOR": "#eab308" }, "geometry": { "type": "Polygon", "coordinates": [ [ [ 480019.380608518782537, 5239832.530025403946638 ], [ 480020.288188289094251, 5239833.418394111096859 ], [ 480049.918844385654666, 5239803.146972084417939 ], [ 480049.011264615168329, 5239802.258603379130363 ], [ 480019.380608518782537, 5239832.530025403946638 ] ] ] } },
{ "type": "Feature", "properties": { "name": "SchopfMoor 63", "GI": 0.34942835991818266, "MGRVI": -0.10476761602029055, "MGRVI_COLOR": "#eab308" }, "geometry": { "type": "Polygon", "coordinates": [ [ [ 480020.778578470868524, 5239833.632192491553724 ], [ 480021.686158241296653, 5239834.520561198703945 ], [ 480030.839441320684273, 5239825.169337450526655 ], [ 480029.931861550139729, 5239824.280968742445111 ], [ 480020.778578470868524, 5239833.632192491553724 ] ] ] } }
]
}
