{
"type": "FeatureCollection",
"name": "SchopfMoor_260304",
"crs": { "type": "name", "properties": { "name": "urn:ogc:def:crs:EPSG::32632" } },
"features": [
{ "type": "Feature", "properties": { "name": "SchopfMoor 01", "GI": 0.33899531139581457, "MGRVI": -0.071355310111705358, "MGRVI_COLOR": "#eab308" }, "geometry": { "type": "Polygon", "coordinates": [ [ [ 479924.337566868227441, 5239772.74659819342196 ], [ 479925.241261771763675, 5239773.638918492943048 ], [ 480055.155868245987222, 5239642.068262204527855 ], [ 480054.25217334239278, 5239641.175941904075444 ], [ 479924.337566868227441, 5239772.74659819342196 ] ] ] } },
{ "type": "Feature", "properties": { "name": "SchopfMoor 02", "GI": 0.34220228540950226, "MGRVI": -0.059278283276489159, "MGRVI_COLOR": "#eab308" }, "geometry": { "type": "Polygon", "coordinates": [ [ [ 479925.735725784790702, 5239773.848580756224692 ], [ 479926.639420688326936, 5239774.740901058539748 ], [ 480056.552106876857579, 5239643.17218953371048 ], [ 480055.648411973321345, 5239642.279869232326746 ], [ 479925.735725784790702, 5239773.848580756224692 ] ] ] } },
{ "type": "Feature", "properties": { "name": "SchopfMoor 03", "GI": 0.34555632437088002, "MGRVI": -0.048490458192887657, "MGRVI_COLOR": "#eab308" }, "geometry": { "type": "Polygon", "coordinates": [ [ [ 479927.133884699898772, 5239774.950563318096101 ], [ 479928.037579603260383, 5239775.842883622273803 ], [ 480057.948345506330952, 5239644.276116860099137 ], [ 480057.044650602852926, 5239643.383796556852758 ], [ 479927.133884699898772, 5239774.950563318096101 ] ] ] } },
{ "type": "Feature", "properties": { "name": "SchopfMoor 04", "GI": 0.36099733839086462, "MGRVI": -0.0041559571547005042, "MGRVI_COLOR": "#eab308" }, "geometry": { "type": "Polygon", "coordinates": [ [ [ 479928.531995319353882, 5239776.052595149725676 ], [ 479929.435690222890116, 5239776.944915451109409 ], [ 480059.344552310882136, 5239645.38007677346468 ], [ 480058.44085740740411, 5239644.487756471149623 ], [ 479928.531995319353882, 5239776.052595149725676 ] ] ] } },
{ "type": "Feature", "properties": { "name": "SchopfMoor 05", "GI": 0.36426044847156541, "MGRVI": 0.0038124815234221979, "MGRVI_COLOR": "#a3e635" }, "geometry": { "type": "Polygon", "coordinates": [ [ [ 479929.930073556723073, 5239777.154660130850971 ], [ 479930.8337684602011, 5239778.046980432234704 ], [ 480060.740711072226986, 5239646.484085698612034 ], [ 480059.837016168632545, 5239645.591765397228301 ], [ 479929.930073556723073, 5239777.154660130850971 ] ] ] } },
{ "type": "Feature", "properties": { "name": "SchopfMoor 06", "GI": 0.36975953433771769, "MGRVI": 0.015454916120725444, "MGRVI_COLOR": "#a3e635" }, "geometry": { "type": "Polygon", "coordinates": [ [ [ 479931.328151793393772, 5239778.256725113838911 ], [ 479932.231846696755383, 5239779.149045415222645 ], [ 480062.13686983298976, 5239647.588094624690711 ], [ 480061.233174929453526, 5239646.695774322375655 ], [ 479931.328151793393772, 5239778.256725113838911 ] ] ] } },
{ "type": "Feature", "properties": { "name": "SchopfMoor 07", "GI": 0.38276423264812032, "MGRVI": 0.1327087091341958, "MGRVI_COLOR": "#a3e635" }, "geometry": { "type": "Polygon", "coordinates": [ [ [ 479932.72589828656055, 5239779.359126252122223 ], [ 479933.629593190038577, 5239780.251446555368602 ], [ 480063.533318925823551, 5239648.691809702664614 ], [ 480062.629624022345524, 5239647.799489402212203 ], [ 479932.72589828656055, 5239779.359126252122223 ] ] ] } },
{ "type": "Feature", "properties": { "name": "SchopfMoor 08", "GI": 0.41907410636584591, "MGRVI": 0.24062863494912642, "MGRVI_COLOR": "#4ade80" }, "geometry": { "type": "Polygon", "coordinates": [ [ [ 479934.123895434313454, 5239780.461272718384862 ], [ 479935.027590337849688, 5239781.353593018837273 ], [ 480064.929703074099962, 5239649.795589729212224 ], [ 480064.026008170563728, 5239648.903269427828491 ], [ 479934.123895434313454, 5239780.461272718384862 ] ] ] } },
{ "type": "Feature", "properties": { "name": "SchopfMoor 09", "GI": 0.41498479367386387, "MGRVI": 0.22678041712936356, "MGRVI_COLOR": "#4ade80" }, "geometry": { "type": "Polygon", "coordinates": [ [ [ 479935.521892776247114, 5239781.563419374637306 ], [ 479936.42558767972514, 5239782.455739676021039 ], [ 480066.325999425724149, 5239650.89945905841887 ], [ 480065.422304522246122, 5239650.007138755172491 ], [ 479935.521892776247114, 5239781.563419374637306 ] ] ] } },
{ "type": "Feature", "properties": { "name": "SchopfMoor 10", "GI": 0.3579242117491474, "MGRVI": 0.047455442023470261, "MGRVI_COLOR": "#a3e635" }, "geometry": { "type": "Polygon", "coordinates": [ [ [ 479936.889890118793119, 5239782.575566031038761 ], [ 479937.79358502215473, 5239783.467886332422495 ], [ 480067.692295777495019, 5239651.913328387774527 ], [ 480066.788600873958785, 5239651.021008087322116 ], [ 479936.889890118793119, 5239782.575566031038761 ] ] ] } },
{ "type": "Feature", "properties": { "name": "SchopfMoor 11", "GI": 0.39262475982563799, "MGRVI": 0.16832761225669629, "MGRVI_COLOR": "#a3e635" }, "geometry": { "type": "Polygon", "coordinates": [ [ [ 479938.287888858118095, 5239783.677711265161633 ], [ 479939.191583761479706, 5239784.570031566545367 ], [ 480069.088592125510331, 5239653.017197715118527 ], [ 480068.184897222032305, 5239652.124877413734794 ], [ 479938.287888858118095, 5239783.677711265161633 ] ] ] } },
{ "type": "Feature", "properties": { "name": "SchopfMoor 12", "GI": 0.39179713168886399, "MGRVI": 0.16420493985309359, "MGRVI_COLOR": "#a3e635" }, "geometry": { "type": "Polygon", "coordinates": [ [ [ 479939.685958367190324, 5239784.779784516431391 ], [ 479940.58965327066835, 5239785.672104818746448 ], [ 480070.484888317238074, 5239654.121066888794303 ], [ 480069.581193413876463, 5239653.228746586479247 ], [ 479939.685958367190324, 5239784.779784516431391 ] ] ] } },
{ "type": "Feature", "properties": { "name": "SchopfMoor 13", "GI": 0.40221084571819499, "MGRVI": 0.19619533719410465, "MGRVI_COLOR": "#a3e635" }, "geometry": { "type": "Polygon", "coordinates": [ [ [ 479941.084027852397412, 5239785.881857743486762 ], [ 479941.987722755933646, 5239786.774178046733141 ], [ 480071.88119515607832, 5239655.224925230257213 ], [ 480070.977500252658501, 5239654.332604929804802 ], [ 479941.084027852397412, 5239785.881857743486762 ] ] ] } },
{ "type": "Feature", "properties": { "name": "SchopfMoor 14", "GI": 0.40146429143064477, "MGRVI": 0.1902110633772392, "MGRVI_COLOR": "#a3e635" }, "geometry": { "type": "Polygon", "coordinates": [ [ [ 479942.512097334605642, 5239787.073930968530476 ], [ 479943.415792238083668, 5239787.966251270845532 ], [ 480073.307503732969053, 5239656.418781808577478 ], [ 480072.403808829432819, 5239655.526461507193744 ], [ 479942.512097334605642, 5239787.073930968530476 ] ] ] } },
{ "type": "Feature", "properties": { "name": "SchopfMoor 15", "GI": 0.39850248049642417, "MGRVI": 0.16834089338166772, "MGRVI_COLOR": "#a3e635" }, "geometry": { "type": "Polygon", "coordinates": [ [ [ 479943.910166815039702, 5239788.176004190929234 ], [ 479944.813861718517728, 5239789.068324492312968 ], [ 480074.703812308202032, 5239657.522638382390141 ], [ 480073.800117404491175, 5239656.630318081006408 ], [ 479943.910166815039702, 5239788.176004190929234 ] ] ] } },
{ "type": "Feature", "properties": { "name": "SchopfMoor 16", "GI": 0.38715977265925339, "MGRVI": 0.13590803265348753, "MGRVI_COLOR": "#a3e635" }, "geometry": { "type": "Polygon", "coordinates": [ [ [ 479945.308236297103576, 5239789.278077414259315 ], [ 479946.211931200523395, 5239790.170397716574371 ], [ 480076.100120884599164, 5239658.62649495806545 ], [ 480075.19642598106293, 5239657.734174657613039 ], [ 479945.308236297103576, 5239789.278077414259315 ] ] ] } },
{ "type": "Feature", "properties": { "name": "SchopfMoor 17", "GI": 0.39400718783492938, "MGRVI": 0.15596667820305801, "MGRVI_COLOR": "#a3e635" }, "geometry": { "type": "Polygon", "coordinates": [ [ [ 479946.706305777479429, 5239790.380150638520718 ], [ 479947.610000681015663, 5239791.272470940835774 ], [ 480077.496429459773935, 5239659.730351535603404 ], [ 480076.592734556354117, 5239658.838031232357025 ], [ 479946.706305777479429, 5239790.380150638520718 ] ] ] } },
{ "type": "Feature", "properties": { "name": "SchopfMoor 18", "GI": 0.38034026837432416, "MGRVI": 0.10479157274635084, "MGRVI_COLOR": "#a3e635" }, "geometry": { "type": "Polygon", "coordinates": [ [ [ 479948.104375259426888, 5239791.482223861850798 ], [ 479949.008070162846707, 5239792.374544163234532 ], [ 480078.892738036403898, 5239660.834208109416068 ], [ 480077.989043132867664, 5239659.941887806169689 ], [ 479948.104375259426888, 5239791.482223861850798 ] ] ] } },
{ "type": "Feature", "properties": { "name": "SchopfMoor 19", "GI": 0.40220951874459493, "MGRVI": 0.14971022290389863, "MGRVI_COLOR": "#a3e635" }, "geometry": { "type": "Polygon", "coordinates": [ [ [ 479949.502444741025101, 5239792.584297086112201 ], [ 479950.406139644677751, 5239793.476617386564612 ], [ 480080.289046612626407, 5239661.938064685091376 ], [ 480079.385351709323004, 5239661.045744383707643 ], [ 479949.502444741025101, 5239792.584297086112201 ] ] ] } },
{ "type": "Feature", "properties": { "name": "SchopfMoor 20", "GI": 0.41504293225991462, "MGRVI": 0.18490901840043139, "MGRVI_COLOR": "#a3e635" }, "geometry": { "type": "Polygon", "coordinates": [ [ [ 479950.9005142217502, 5239793.596370309591293 ], [ 479951.804209125402849, 5239794.488690610043705 ], [ 480081.685355187975802, 5239662.951921259984374 ], [ 480080.781660284555983, 5239662.05960095860064 ], [ 479950.9005142217502, 5239793.596370309591293 ] ] ] } },
{ "type": "Feature", "properties": { "name": "SchopfMoor 21", "GI": 0.41714645055558469, "MGRVI": 0.18026000555835364, "MGRVI_COLOR": "#a3e635" }, "geometry": { "type": "Polygon", "coordinates": [ [ [ 479952.298583703464828, 5239794.698443532921374 ], [ 479953.202278606826439, 5239795.59076383523643 ], [ 480083.081663764256518, 5239664.05577783472836 ], [ 480082.1779688608367, 5239663.163457535207272 ], [ 479952.298583703464828, 5239794.698443532921374 ] ] ] } },
{ "type": "Feature", "properties": { "name": "SchopfMoor 22", "GI": 0.4267272817103076, "MGRVI": 0.13770004607754951, "MGRVI_COLOR": "#a3e635" }, "geometry": { "type": "Polygon", "coordinates": [ [ [ 479953.696653185179457, 5239795.890516756102443 ], [ 479954.600348088657483, 5239796.782837057486176 ], [ 480084.47797234065365, 5239665.24963441118598 ], [ 480083.574277437292039, 5239664.357314109802246 ], [ 479953.696653185179457, 5239795.890516756102443 ] ] ] } },
{ "type": "Feature", "properties": { "name": "SchopfMoor 23", "GI": 0.35012377188618576, "MGRVI": -0.013808516083046245, "MGRVI_COLOR": "#eab308" }, "geometry": { "type": "Polygon", "coordinates": [ [ [ 479955.094722665671725, 5239796.992589980363846 ], [ 479955.998417569207959, 5239797.884910282678902 ], [ 480085.874280915944837, 5239666.353490986861289 ], [ 480084.970586012466811, 5239665.461170685477555 ], [ 479955.094722665671725, 5239796.992589980363846 ] ] ] } },
{ "type": "Feature", "properties": { "name": "SchopfMoor 24", "GI": 0.32445429207063015, "MGRVI": -0.089374507700302627, "MGRVI_COLOR": "#eab308" }, "geometry": { "type": "Polygon", "coordinates": [ [ [ 479956.492792147560976, 5239798.094663202762604 ], [ 479957.396487051039003, 5239798.986983504146338 ], [ 480087.270589492400177, 5239667.457347561605275 ], [ 480086.366894589038566, 5239666.565027259290218 ], [ 479956.492792147560976, 5239798.094663202762604 ] ] ] } },
{ "type": "Feature", "properties": { "name": "SchopfMoor 25", "GI": 0.32503110223871823, "MGRVI": -0.082079748886193293, "MGRVI_COLOR": "#eab308" }, "geometry": { "type": "Polygon", "coordinates": [ [ [ 479957.890861628693528, 5239799.196736427024007 ], [ 479958.794556532171555, 5239800.089056729339063 ], [ 480088.666898068157025, 5239668.561204137280583 ], [ 480087.763203164678998, 5239667.66888383589685 ], [ 479957.890861628693528, 5239799.196736427024007 ] ] ] } },
{ "type": "Feature", "properties": { "name": "SchopfMoor 26", "GI": 0.32730219301531061, "MGRVI": -0.072522052250385466, "MGRVI_COLOR": "#eab308" }, "geometry": { "type": "Polygon", "coordinates": [ [ [ 479959.288931110233534, 5239800.298809650354087 ], [ 479960.192626013769768, 5239801.191129950806499 ], [ 480090.063206644437741, 5239669.665060714818537 ], [ 480089.15951174107613, 5239668.772740412503481 ], [ 479959.288931110233534, 5239800.298809650354087 ] ] ] } },
{ "type": "Feature", "properties": { "name": "SchopfMoor 27", "GI": 0.32862467540932239, "MGRVI": -0.062929104333807481, "MGRVI_COLOR": "#eab308" }, "geometry": { "type": "Polygon", "coordinates": [ [ [ 479960.687000591715332, 5239801.400882873684168 ], [ 479961.590695495193359, 5239802.293203175067902 ], [ 480091.459515220485628, 5239670.768917289562523 ], [ 480090.555820316949394, 5239669.87659698817879 ], [ 479960.687000591715332, 5239801.400882873684168 ] ] ] } },
{ "type": "Feature", "properties": { "name": "SchopfMoor 28", "GI": 0.32892674631924701, "MGRVI": -0.061409022294953028, "MGRVI_COLOR": "#eab308" }, "geometry": { "type": "Polygon", "coordinates": [ [ [ 479962.085070072673261, 5239802.502956097945571 ], [ 479962.988764976209495, 5239803.395276399329305 ], [ 480092.855823796300683, 5239671.872773864306509 ], [ 480091.952128892822657, 5239670.980453564785421 ], [ 479962.085070072673261, 5239802.502956097945571 ] ] ] } },
{ "type": "Feature", "properties": { "name": "SchopfMoor 29", "GI": 0.32860712226386518, "MGRVI": -0.060226557654269104, "MGRVI_COLOR": "#eab308" }, "geometry": { "type": "Polygon", "coordinates": [ [ [ 479963.483139554737136, 5239803.605029321275651 ], [ 479964.386834458331577, 5239804.497349622659385 ], [ 480094.252132372756023, 5239672.976630440913141 ], [ 480093.348437469277997, 5239672.084310137666762 ], [ 479963.483139554737136, 5239803.605029321275651 ] ] ] } },
{ "type": "Feature", "properties": { "name": "SchopfMoor 30", "GI": 0.3283090943381699, "MGRVI": -0.062775007647688411, "MGRVI_COLOR": "#eab308" }, "geometry": { "type": "Polygon", "coordinates": [ [ [ 479964.881209035404027, 5239804.707102543674409 ], [ 479965.784903939056676, 5239805.599422845058143 ], [ 480087.046454172290396, 5239682.792125189676881 ], [ 480086.142759268870577, 5239681.899804888293147 ], [ 479964.881209035404027, 5239804.707102543674409 ] ] ] } },
{ "type": "Feature", "properties": { "name": "SchopfMoor 31", "GI": 0.32934502523277631, "MGRVI": -0.055977599016830221, "MGRVI_COLOR": "#eab308" }, "geometry": { "type": "Polygon", "coordinates": [ [ [ 479966.279278517176863, 5239805.809175768867135 ], [ 479967.182973420596682, 5239806.701496070250869 ], [ 480088.442762748512905, 5239683.895981766283512 ], [ 480087.539067845034879, 5239683.003661463968456 ], [ 479966.279278517176863, 5239805.809175768867135 ] ] ] } },
{ "type": "Feature", "properties": { "name": "SchopfMoor 32", "GI": 0.32928450383882257, "MGRVI": -0.055453101020874009, "MGRVI_COLOR": "#eab308" }, "geometry": { "type": "Polygon", "coordinates": [ [ [ 479967.677347998658661, 5239806.911248992197216 ], [ 479968.58104290231131, 5239807.803569294512272 ], [ 480089.839071324735414, 5239684.999838341958821 ], [ 480088.935376421257388, 5239684.107518040575087 ], [ 479967.677347998658661, 5239806.911248992197216 ] ] ] } },
{ "type": "Feature", "properties": { "name": "SchopfMoor 33", "GI": 0.329862110752629, "MGRVI": -0.057005226463723635, "MGRVI_COLOR": "#eab308" }, "geometry": { "type": "Polygon", "coordinates": [ [ [ 479969.07541747961659, 5239808.013322215527296 ], [ 479969.979112383094616, 5239808.90564251691103 ], [ 480091.235379900375847, 5239686.103694915771484 ], [ 480090.33168499689782, 5239685.211374615319073 ], [ 479969.07541747961659, 5239808.013322215527296 ] ] ] } },
{ "type": "Feature", "properties": { "name": "SchopfMoor 34", "GI": 0.38277684552568458, "MGRVI": 0.043128618521324991, "MGRVI_COLOR": "#a3e635" }, "geometry": { "type": "Polygon", "coordinates": [ [ [ 479970.473486960923765, 5239809.115395437926054 ], [ 479971.377181864401791, 5239810.007715739309788 ], [ 480092.631688476365525, 5239687.207551490515471 ], [ 480091.727993572829291, 5239686.315231190063059 ], [ 479970.473486960923765, 5239809.115395437926054 ] ] ] } },
{ "type": "Feature", "properties": { "name": "SchopfMoor 35", "GI": 0.43137699319633732, "MGRVI": 0.15047122763815179, "MGRVI_COLOR": "#a3e635" }, "geometry": { "type": "Polygon", "coordinates": [ [ [ 479971.87153512542136, 5239810.217490347102284 ], [ 479972.775230028899387, 5239811.109810646623373 ], [ 480094.02799709996907, 5239688.311408113688231 ], [ 480093.124302196432836, 5239687.419087812304497 ], [ 479971.87153512542136, 5239810.217490347102284 ] ] ] } },
{ "type": "Feature", "properties": { "name": "SchopfMoor 36", "GI": 0.41843760726421364, "MGRVI": 0.11528443294369499, "MGRVI_COLOR": "#a3e635" }, "geometry": { "type": "Polygon", "coordinates": [ [ [ 479973.269579901418183, 5239811.319588699378073 ], [ 479974.173274805012625, 5239812.211909000761807 ], [ 480095.424305730790365, 5239689.415264744311571 ], [ 480094.520610827137716, 5239688.522944441996515 ], [ 479973.269579901418183, 5239811.319588699378073 ] ] ] } },
{ "type": "Feature", "properties": { "name": "SchopfMoor 37", "GI": 0.41661846443756068, "MGRVI": 0.11312044975273801, "MGRVI_COLOR": "#a3e635" }, "geometry": { "type": "Polygon", "coordinates": [ [ [ 479974.667624677240383, 5239812.421687051653862 ], [ 479975.571319580718409, 5239813.314007353037596 ], [ 480096.820614360913169, 5239690.519121373072267 ], [ 480095.916919457376935, 5239689.626801071688533 ], [ 479974.667624677240383, 5239812.421687051653862 ] ] ] } },
{ "type": "Feature", "properties": { "name": "SchopfMoor 38", "GI": 0.41283062350224181, "MGRVI": 0.11277075663683635, "MGRVI_COLOR": "#a3e635" }, "geometry": { "type": "Polygon", "coordinates": [ [ [ 479976.065669489908032, 5239813.523785439319909 ], [ 479976.969364393502474, 5239814.416105740703642 ], [ 480098.216907000227366, 5239691.622994269244373 ], [ 480097.313212096632924, 5239690.730673967860639 ], [ 479976.065669489908032, 5239813.523785439319909 ] ] ] } },
{ "type": "Feature", "properties": { "name": "SchopfMoor 39", "GI": 0.43278220890528124, "MGRVI": 0.1561573432260569, "MGRVI_COLOR": "#a3e635" }, "geometry": { "type": "Polygon", "coordinates": [ [ [ 479977.463714349840302, 5239814.625883873552084 ], [ 479978.367409253434744, 5239815.518204174935818 ], [ 480099.613177562656347, 5239692.726889621466398 ], [ 480098.709482659061905, 5239691.834569320082664 ], [ 479977.463714349840302, 5239814.625883873552084 ] ] ] } },
{ "type": "Feature", "properties": { "name": "SchopfMoor 40", "GI": 0.4149059896536168, "MGRVI": 0.12269481868343549, "MGRVI_COLOR": "#a3e635" }, "geometry": { "type": "Polygon", "coordinates": [ [ [ 479978.861759210936725, 5239815.727982310578227 ], [ 479979.765454114356544, 5239816.620302611030638 ], [ 480101.009448126074858, 5239693.830784971825778 ], [ 480100.105753222596832, 5239692.938464669510722 ], [ 479978.861759210936725, 5239815.727982310578227 ] ] ] } },
{ "type": "Feature", "properties": { "name": "SchopfMoor 41", "GI": 0.40207218859712313, "MGRVI": 0.097039792818315887, "MGRVI_COLOR": "#a3e635" }, "geometry": { "type": "Polygon", "coordinates": [ [ [ 479980.259804071800318, 5239816.830080745741725 ], [ 479981.163498975336552, 5239817.722401048988104 ], [ 480102.405718689609785, 5239694.934680323116481 ], [ 480101.502023786131758, 5239694.042360021732748 ], [ 479980.259804071800318, 5239816.830080745741725 ] ] ] } },
{ "type": "Feature", "properties": { "name": "SchopfMoor 42", "GI": 0.3973240334966216, "MGRVI": 0.081700997348201826, "MGRVI_COLOR": "#a3e635" }, "geometry": { "type": "Polygon", "coordinates": [ [ [ 479981.657848932605702, 5239817.932179183699191 ], [ 479982.561543836083729, 5239818.824499484151602 ], [ 480103.801989252562635, 5239696.038575674407184 ], [ 480102.898294349142816, 5239695.146255372092128 ], [ 479981.657848932605702, 5239817.932179183699191 ] ] ] } },
{ "type": "Feature", "properties": { "name": "SchopfMoor 43", "GI": 0.39251273734964148, "MGRVI": 0.068001990291435166, "MGRVI_COLOR": "#a3e635" }, "geometry": { "type": "Polygon", "coordinates": [ [ [ 479983.05589379335288, 5239819.034277618862689 ], [ 479983.959588696830906, 5239819.926597920246422 ], [ 480105.198259815806523, 5239697.142471024766564 ], [ 480104.294564912386704, 5239696.250150722451508 ], [ 479983.05589379335288, 5239819.034277618862689 ] ] ] } },
{ "type": "Feature", "properties": { "name": "SchopfMoor 44", "GI": 0.39846796318162897, "MGRVI": 0.087079068417310418, "MGRVI_COLOR": "#a3e635" }, "geometry": { "type": "Polygon", "coordinates": [ [ [ 479984.453938653867226, 5239820.136376055888832 ], [ 479985.357633557345252, 5239821.028696357272565 ], [ 480106.594530378817581, 5239698.246366375125945 ], [ 480105.690835475339554, 5239697.354046073742211 ], [ 479984.453938653867226, 5239820.136376055888832 ] ] ] } },
{ "type": "Feature", "properties": { "name": "SchopfMoor 45", "GI": 0.39378769001463387, "MGRVI": 0.071447016437264491, "MGRVI_COLOR": "#a3e635" }, "geometry": { "type": "Polygon", "coordinates": [ [ [ 479985.851983514905442, 5239821.238474492914975 ], [ 479986.755678418441676, 5239822.130794793367386 ], [ 480107.990800942352507, 5239699.350261726416647 ], [ 480107.087106038758066, 5239698.457941426895559 ], [ 479985.851983514905442, 5239821.238474492914975 ] ] ] } },
{ "type": "Feature", "properties": { "name": "SchopfMoor 46", "GI": 0.39236541254694485, "MGRVI": 0.064943237306447341, "MGRVI_COLOR": "#a3e635" }, "geometry": { "type": "Polygon", "coordinates": [ [ [ 479987.250028375769034, 5239822.34057292714715 ], [ 479988.153723279363476, 5239823.232893230393529 ], [ 480109.387071505712811, 5239700.45415707770735 ], [ 480108.483376602176577, 5239699.561836775392294 ], [ 479987.250028375769034, 5239822.34057292714715 ] ] ] } },
{ "type": "Feature", "properties": { "name": "SchopfMoor 47", "GI": 0.3899955347089184, "MGRVI": 0.056766726609654719, "MGRVI_COLOR": "#a3e635" }, "geometry": { "type": "Polygon", "coordinates": [ [ [ 479988.648073235992342, 5239823.442671363241971 ], [ 479989.551768139528576, 5239824.334991664625704 ], [ 480110.7833420682, 5239701.55805242806673 ], [ 480109.879647164838389, 5239700.665732126682997 ], [ 479988.648073235992342, 5239823.442671363241971 ] ] ] } },
{ "type": "Feature", "properties": { "name": "SchopfMoor 48", "GI": 0.38851882010422017, "MGRVI": 0.04874313169628721, "MGRVI_COLOR": "#a3e635" }, "geometry": { "type": "Polygon", "coordinates": [ [ [ 479990.046118097030558, 5239824.544769799336791 ], [ 479990.949813000566792, 5239825.437090099789202 ], [ 480112.179612631734926, 5239702.661947779357433 ], [ 480111.2759177282569, 5239701.769627477042377 ], [ 479990.046118097030558, 5239824.544769799336791 ] ] ] } },
{ "type": "Feature", "properties": { "name": "SchopfMoor 49", "GI": 0.39613521096102738, "MGRVI": 0.060444288512755018, "MGRVI_COLOR": "#a3e635" }, "geometry": { "type": "Polygon", "coordinates": [ [ [ 479991.444162957603112, 5239825.646868235431612 ], [ 479992.347857861081138, 5239826.539188536815345 ], [ 480113.575883194745984, 5239703.765843129716814 ], [ 480112.672188291151542, 5239702.873522829264402 ], [ 479991.444162957603112, 5239825.646868235431612 ] ] ] } },
{ "type": "Feature", "properties": { "name": "SchopfMoor 50", "GI": 0.39531139574812735, "MGRVI": 0.059470336699890158, "MGRVI_COLOR": "#a3e635" }, "geometry": { "type": "Polygon", "coordinates": [ [ [ 479992.84220781881595, 5239826.748966670595109 ], [ 479993.745902722352184, 5239827.641286972910166 ], [ 480114.972153758397326, 5239704.869738481007516 ], [ 480114.068458854861092, 5239703.97741817869246 ], [ 479992.84220781881595, 5239826.748966670595109 ] ] ] } },
{ "type": "Feature", "properties": { "name": "SchopfMoor 51", "GI": 0.38993517163337099, "MGRVI": 0.03919318887135198, "MGRVI_COLOR": "#a3e635" }, "geometry": { "type": "Polygon", "coordinates": [ [ [ 479994.240252679213881, 5239827.851065107621253 ], [ 479995.143947582517285, 5239828.743385409004986 ], [ 480116.368424321117345, 5239705.973633832298219 ], [ 480115.464729417581111, 5239705.081313529983163 ], [ 479994.240252679213881, 5239827.851065107621253 ] ] ] } },
{ "type": "Feature", "properties": { "name": "SchopfMoor 52", "GI": 0.38805830805634906, "MGRVI": 0.031703552164563754, "MGRVI_COLOR": "#a3e635" }, "geometry": { "type": "Polygon", "coordinates": [ [ [ 479995.638297540019266, 5239828.953163543716073 ], [ 479996.541992443497293, 5239829.845483846031129 ], [ 480117.764694884535857, 5239707.077529183588922 ], [ 480116.860999981116038, 5239706.185208881273866 ], [ 479995.638297540019266, 5239828.953163543716073 ] ] ] } },
{ "type": "Feature", "properties": { "name": "SchopfMoor 53", "GI": 0.4007228007417768, "MGRVI": 0.046570545318659423, "MGRVI_COLOR": "#a3e635" }, "geometry": { "type": "Polygon", "coordinates": [ [ [ 479997.036342400067952, 5239830.055261980742216 ], [ 479997.940037303604186, 5239830.947582280263305 ], [ 480119.160965447197668, 5239708.181424532085657 ], [ 480118.257270543836057, 5239707.289104231633246 ], [ 479997.036342400067952, 5239830.055261980742216 ] ] ] } },
{ "type": "Feature", "properties": { "name": "SchopfMoor 54", "GI": 0.41241967210430069, "MGRVI": 0.077909778574033153, "MGRVI_COLOR": "#a3e635" }, "geometry": { "type": "Polygon", "coordinates": [ [ [ 479998.434387261047959, 5239831.157360415905714 ], [ 479999.338082164525986, 5239832.049680717289448 ], [ 480120.557236010557972, 5239709.285319884307683 ], [ 480119.653541107021738, 5239708.392999582923949 ], [ 479998.434387261047959, 5239831.157360415905714 ] ] ] } },
{ "type": "Feature", "properties": { "name": "SchopfMoor 55", "GI": null, "MGRVI": null, "MGRVI_COLOR": "#94a3b8" }, "geometry": { "type": "Polygon", "coordinates": [ [ [ 479999.832432121678721, 5239832.259458851069212 ], [ 480000.736127025156748, 5239833.151779153384268 ], [ 480121.95350657356903, 5239710.389215234667063 ], [ 480121.049811670091003, 5239709.496894932352006 ], [ 479999.832432121678721, 5239832.259458851069212 ] ] ] } },
{ "type": "Feature", "properties": { "name": "SchopfMoor 56", "GI": null, "MGRVI": null, "MGRVI_COLOR": "#94a3b8" }, "geometry": { "type": "Polygon", "coordinates": [ [ [ 480001.230476982775144, 5239833.361557287164032 ], [ 480002.134171886253171, 5239834.253877590410411 ], [ 480123.349777136987541, 5239711.493110587820411 ], [ 480122.44608223362593, 5239710.600790284574032 ], [ 480001.230476982775144, 5239833.361557287164032 ] ] ] } },
{ "type": "Feature", "properties": { "name": "SchopfMoor 57", "GI": null, "MGRVI": null, "MGRVI_COLOR": "#94a3b8" }, "geometry": { "type": "Polygon", "coordinates": [ [ [ 480002.62852184282383, 5239834.46365572232753 ], [ 480003.532216746360064, 5239835.355976023711264 ], [ 480124.746047699591145, 5239712.597005936317146 ], [ 480123.842352796113119, 5239711.70468563400209 ], [ 480002.62852184282383, 5239834.46365572232753 ] ] ] } },
{ "type": "Feature", "properties": { "name": "SchopfMoor 58", "GI": null, "MGRVI": null, "MGRVI_COLOR": "#94a3b8" }, "geometry": { "type": "Polygon", "coordinates": [ [ [ 480004.042899495747406, 5239835.5818942328915 ], [ 480004.94659439928364, 5239836.474214538000524 ], [ 480127.365616790077183, 5239712.494690175168216 ], [ 480126.461921886599157, 5239711.60236987285316 ], [ 480004.042899495747406, 5239835.5818942328915 ] ] ] } },
{ "type": "Feature", "properties": { "name": "SchopfMoor 59", "GI": null, "MGRVI": null, "MGRVI_COLOR": "#94a3b8" }, "geometry": { "type": "Polygon", "coordinates": [ [ [ 480005.486412630416453, 5239836.728835452347994 ], [ 480006.390107533952687, 5239837.621155753731728 ], [ 480108.240670541650616, 5239734.472281412221491 ], [ 480107.336975638114382, 5239733.579961108975112 ], [ 480005.486412630416453, 5239836.728835452347994 ] ] ] } },
{ "type": "Feature", "properties": { "name": "SchopfMoor 60", "GI": null, "MGRVI": null, "MGRVI_COLOR": "#94a3b8" }, "geometry": { "type": "Polygon", "coordinates": [ [ [ 480006.929925765434746, 5239837.87577666901052 ], [ 480007.833620669087395, 5239838.768096971325576 ], [ 480089.11572429293301, 5239756.449872649274766 ], [ 480088.212029389513191, 5239755.557552347891033 ], [ 480006.929925765434746, 5239837.87577666901052 ] ] ] } },
{ "type": "Feature", "properties": { "name": "SchopfMoor 61", "GI": null, "MGRVI": null, "MGRVI_COLOR": "#94a3b8" }, "geometry": { "type": "Polygon", "coordinates": [ [ [ 480008.373438899812754, 5239839.022717889398336 ], [ 480009.277133803290781, 5239839.915038189850748 ], [ 480069.990778051142115, 5239778.427463879808784 ], [ 480069.087083147547673, 5239777.535143577493727 ], [ 480008.373438899812754, 5239839.022717889398336 ] ] ] } },
{ "type": "Feature", "properties": { "name": "SchopfMoor 62", "GI": null, "MGRVI": null, "MGRVI_COLOR": "#94a3b8" }, "geometry": { "type": "Polygon", "coordinates": [ [ [ 480009.816952034481801, 5239840.16965910512954 ], [ 480010.72064693790162, 5239841.061979406513274 ], [ 480050.86583180638263, 5239800.405055111274123 ], [ 480049.962136902788188, 5239799.512734811753035 ], [ 480009.816952034481801, 5239840.16965910512954 ] ] ] } },
{ "type": "Feature", "properties": { "name": "SchopfMoor 63", "GI": null, "MGRVI": null, "MGRVI_COLOR": "#94a3b8" }, "geometry": { "type": "Polygon", "coordinates": [ [ [ 480011.260465169325471, 5239841.316600319929421 ], [ 480012.164160072861705, 5239842.208920621313155 ], [ 480031.740885558596347, 5239822.382646348327398 ], [ 480030.837190654943697, 5239821.490326045081019 ], [ 480011.260465169325471, 5239841.316600319929421 ] ] ] } }
]
}
