{
"type": "FeatureCollection",
"name": "Spannweid_251203",
"crs": { "type": "name", "properties": { "name": "urn:ogc:def:crs:EPSG::32632" } },
"features": [
{ "type": "Feature", "properties": { "name": "Spannweid 01", "GI": 0.33103323434043896, "MGRVI": -0.1080735288602352, "MGRVI_COLOR": "#eab308" }, "geometry": { "type": "Polygon", "coordinates": [ [ [ 479644.083394346118439, 5240064.04338454734534 ], [ 479644.962739547539968, 5240064.959709825925529 ], [ 479782.995874181448016, 5239932.497169065289199 ], [ 479782.11652897996828, 5239931.580843787640333 ], [ 479644.083394346118439, 5240064.04338454734534 ] ] ] } },
{ "type": "Feature", "properties": { "name": "Spannweid 02", "GI": 0.32600578472540731, "MGRVI": -0.090344598898783532, "MGRVI_COLOR": "#eab308" }, "geometry": { "type": "Polygon", "coordinates": [ [ [ 479645.489734984410461, 5240065.146967663429677 ], [ 479646.369080185948405, 5240066.063292942009866 ], [ 479784.397712808044162, 5239933.605072507634759 ], [ 479783.518367606389802, 5239932.68874722905457 ], [ 479645.489734984410461, 5240065.146967663429677 ] ] ] } },
{ "type": "Feature", "properties": { "name": "Spannweid 03", "GI": 0.33557118933703722, "MGRVI": -0.090603543299498504, "MGRVI_COLOR": "#eab308" }, "geometry": { "type": "Polygon", "coordinates": [ [ [ 479646.896075623459183, 5240066.250550782307982 ], [ 479647.775420825055335, 5240067.166876061819494 ], [ 479785.799551435280591, 5239934.712975949048996 ], [ 479784.920206233626232, 5239933.79665067140013 ], [ 479646.896075623459183, 5240066.250550782307982 ] ] ] } },
{ "type": "Feature", "properties": { "name": "Spannweid 04", "GI": 0.44877828950302079, "MGRVI": 0.25360190149661277, "MGRVI_COLOR": "#4ade80" }, "geometry": { "type": "Polygon", "coordinates": [ [ [ 479648.302416262216866, 5240067.35413389839232 ], [ 479649.181761463871226, 5240068.270459177903831 ], [ 479787.201390061934944, 5239935.820879390463233 ], [ 479786.322044860397, 5239934.904554112814367 ], [ 479648.302416262216866, 5240067.35413389839232 ] ] ] } },
{ "type": "Feature", "properties": { "name": "Spannweid 05", "GI": 0.33803337033277048, "MGRVI": -0.083815743121875813, "MGRVI_COLOR": "#eab308" }, "geometry": { "type": "Polygon", "coordinates": [ [ [ 479649.708756902022287, 5240068.457717017270625 ], [ 479650.588102103443816, 5240069.374042294919491 ], [ 479788.60322868975345, 5239936.928782832808793 ], [ 479787.723883488273714, 5239936.012457555159926 ], [ 479649.708756902022287, 5240068.457717017270625 ] ] ] } },
{ "type": "Feature", "properties": { "name": "Spannweid 06", "GI": 0.44487910947836168, "MGRVI": 0.25665971752070066, "MGRVI_COLOR": "#4ade80" }, "geometry": { "type": "Polygon", "coordinates": [ [ [ 479651.11509753955761, 5240069.561300133354962 ], [ 479651.994442741153762, 5240070.477625412866473 ], [ 479790.005067315534689, 5239938.036686273291707 ], [ 479789.125722114054952, 5239937.120360996574163 ], [ 479651.11509753955761, 5240069.561300133354962 ] ] ] } },
{ "type": "Feature", "properties": { "name": "Spannweid 07", "GI": 0.45973210607973064, "MGRVI": 0.30367575292111393, "MGRVI_COLOR": "#4ade80" }, "geometry": { "type": "Polygon", "coordinates": [ [ [ 479652.521438178839162, 5240070.664883249439299 ], [ 479653.400783380260691, 5240071.581208528019488 ], [ 479791.406905942829326, 5239939.144589715637267 ], [ 479790.527560741291381, 5239938.228264438919723 ], [ 479652.521438178839162, 5240070.664883249439299 ] ] ] } },
{ "type": "Feature", "properties": { "name": "Spannweid 08", "GI": 0.33733840202851478, "MGRVI": -0.10116394440502231, "MGRVI_COLOR": "#eab308" }, "geometry": { "type": "Polygon", "coordinates": [ [ [ 479653.92777881748043, 5240071.768466366454959 ], [ 479654.807124018901959, 5240072.684791646897793 ], [ 479792.808744569658302, 5239940.252493157982826 ], [ 479791.929399368236773, 5239939.336167878471315 ], [ 479653.92777881748043, 5240071.768466366454959 ] ] ] } },
{ "type": "Feature", "properties": { "name": "Spannweid 09", "GI": 0.33828949429745503, "MGRVI": -0.084237142617689081, "MGRVI_COLOR": "#eab308" }, "geometry": { "type": "Polygon", "coordinates": [ [ [ 479655.334119456645567, 5240072.872049485333264 ], [ 479656.213464658183511, 5240073.78837476298213 ], [ 479794.210583197127562, 5239941.360396600328386 ], [ 479793.331237995414995, 5239940.444071321748197 ], [ 479655.334119456645567, 5240072.872049485333264 ] ] ] } },
{ "type": "Feature", "properties": { "name": "Spannweid 10", "GI": 0.34288971654441802, "MGRVI": -0.062879995340660882, "MGRVI_COLOR": "#eab308" }, "geometry": { "type": "Polygon", "coordinates": [ [ [ 479656.740460094762966, 5240073.975632602348924 ], [ 479657.619805296359118, 5240074.891957880929112 ], [ 479795.612421823316254, 5239942.4683000408113 ], [ 479794.733076621836517, 5239941.551974761299789 ], [ 479656.740460094762966, 5240073.975632602348924 ] ] ] } },
{ "type": "Feature", "properties": { "name": "Spannweid 11", "GI": 0.44950545491478439, "MGRVI": 0.26024232845946493, "MGRVI_COLOR": "#4ade80" }, "geometry": { "type": "Polygon", "coordinates": [ [ [ 479658.146800733578857, 5240075.079215719364583 ], [ 479659.026145935058594, 5240075.99554099701345 ], [ 479797.01426045014523, 5239943.57620348315686 ], [ 479796.134915248665493, 5239942.659878204576671 ], [ 479658.146800733578857, 5240075.079215719364583 ] ] ] } },
{ "type": "Feature", "properties": { "name": "Spannweid 12", "GI": 0.43816481973081484, "MGRVI": 0.19604246461494501, "MGRVI_COLOR": "#a3e635" }, "geometry": { "type": "Polygon", "coordinates": [ [ [ 479659.553141372802202, 5240076.182798836380243 ], [ 479660.432486574340146, 5240077.099124114960432 ], [ 479798.416099077556282, 5239944.684106924571097 ], [ 479797.53675387596013, 5239943.767781645990908 ], [ 479659.553141372802202, 5240076.182798836380243 ] ] ] } },
{ "type": "Feature", "properties": { "name": "Spannweid 13", "GI": 0.43698737462532189, "MGRVI": 0.18683317410115058, "MGRVI_COLOR": "#a3e635" }, "geometry": { "type": "Polygon", "coordinates": [ [ [ 479660.959482012025546, 5240077.286381955258548 ], [ 479661.838827213621698, 5240078.202707232907414 ], [ 479799.817937704792712, 5239945.792010366916656 ], [ 479798.93859250319656, 5239944.875685088336468 ], [ 479660.959482012025546, 5240077.286381955258548 ] ] ] } },
{ "type": "Feature", "properties": { "name": "Spannweid 14", "GI": 0.39917626366346426, "MGRVI": 0.04695270425838486, "MGRVI_COLOR": "#a3e635" }, "geometry": { "type": "Polygon", "coordinates": [ [ [ 479662.365822651307099, 5240078.389965071342885 ], [ 479663.245167852728628, 5240079.306290350854397 ], [ 479801.219776332087349, 5239946.899913808330894 ], [ 479800.340431130607612, 5239945.983588529750705 ], [ 479662.365822651307099, 5240078.389965071342885 ] ] ] } },
{ "type": "Feature", "properties": { "name": "Spannweid 15", "GI": 0.3999783340631175, "MGRVI": 0.056432282049804328, "MGRVI_COLOR": "#a3e635" }, "geometry": { "type": "Polygon", "coordinates": [ [ [ 479663.922163289389573, 5240079.583548188209534 ], [ 479664.80150849086931, 5240080.499873467721045 ], [ 479802.771614958415739, 5239948.097817250527442 ], [ 479801.89226975676138, 5239947.181491971947253 ], [ 479663.922163289389573, 5240079.583548188209534 ] ] ] } },
{ "type": "Feature", "properties": { "name": "Spannweid 16", "GI": 0.34615271198086139, "MGRVI": -0.075114839885218804, "MGRVI_COLOR": "#eab308" }, "geometry": { "type": "Polygon", "coordinates": [ [ [ 479665.328503928496502, 5240080.657131305895746 ], [ 479666.207849130034447, 5240081.573456585407257 ], [ 479804.173453585535754, 5239949.175720692612231 ], [ 479803.294108383997809, 5239948.259395414032042 ], [ 479665.328503928496502, 5240080.657131305895746 ] ] ] } },
{ "type": "Feature", "properties": { "name": "Spannweid 17", "GI": 0.33870523134318004, "MGRVI": -0.097944326789964245, "MGRVI_COLOR": "#eab308" }, "geometry": { "type": "Polygon", "coordinates": [ [ [ 479666.734844567195978, 5240081.760714422911406 ], [ 479667.614189768675715, 5240082.677039701491594 ], [ 479805.575292212539352, 5239950.283624134026468 ], [ 479804.6959470109432, 5239949.367298854514956 ], [ 479666.734844567195978, 5240081.760714422911406 ] ] ] } },
{ "type": "Feature", "properties": { "name": "Spannweid 18", "GI": 0.418383596153936, "MGRVI": 0.13295065334709036, "MGRVI_COLOR": "#a3e635" }, "geometry": { "type": "Polygon", "coordinates": [ [ [ 479668.141185205895454, 5240082.864297540858388 ], [ 479669.020530407316983, 5240083.780622817575932 ], [ 479806.977130839368328, 5239951.391527576372027 ], [ 479806.097785637772176, 5239950.475202296860516 ], [ 479668.141185205895454, 5240082.864297540858388 ] ] ] } },
{ "type": "Feature", "properties": { "name": "Spannweid 19", "GI": 0.34393631402218705, "MGRVI": -0.098904009084830977, "MGRVI_COLOR": "#eab308" }, "geometry": { "type": "Polygon", "coordinates": [ [ [ 479669.54752584482776, 5240083.967880657874048 ], [ 479670.426871046249289, 5240084.884205936454237 ], [ 479808.378969466371927, 5239952.499431016854942 ], [ 479807.499624264892191, 5239951.583105739206076 ], [ 479669.54752584482776, 5240083.967880657874048 ] ] ] } },
{ "type": "Feature", "properties": { "name": "Spannweid 20", "GI": 0.43464267791748751, "MGRVI": 0.2017775555300112, "MGRVI_COLOR": "#4ade80" }, "geometry": { "type": "Polygon", "coordinates": [ [ [ 479670.953866483934689, 5240085.071463774889708 ], [ 479671.833211685414426, 5240085.987789054401219 ], [ 479809.780808093433734, 5239953.607334458269179 ], [ 479808.90146289189579, 5239952.69100917968899 ], [ 479670.953866483934689, 5240085.071463774889708 ] ] ] } },
{ "type": "Feature", "properties": { "name": "Spannweid 21", "GI": 0.39430980248256836, "MGRVI": 0.097977700625052705, "MGRVI_COLOR": "#a3e635" }, "geometry": { "type": "Polygon", "coordinates": [ [ [ 479672.360207123216242, 5240086.17504689283669 ], [ 479673.239552324754186, 5240087.091372170485556 ], [ 479811.18264672101941, 5239954.715237901546061 ], [ 479810.303301519481465, 5239953.798912622965872 ], [ 479672.360207123216242, 5240086.17504689283669 ] ] ] } },
{ "type": "Feature", "properties": { "name": "Spannweid 22", "GI": 0.43983093767336529, "MGRVI": 0.22728862340463352, "MGRVI_COLOR": "#4ade80" }, "geometry": { "type": "Polygon", "coordinates": [ [ [ 479673.766547761450056, 5240087.27863000985235 ], [ 479674.645892963046208, 5240088.194955288432539 ], [ 479812.584485347324517, 5239955.823141342028975 ], [ 479811.70514014584478, 5239954.906816063448787 ], [ 479673.766547761450056, 5240087.27863000985235 ] ] ] } },
{ "type": "Feature", "properties": { "name": "Spannweid 23", "GI": 0.44324681600047927, "MGRVI": 0.23131677705234244, "MGRVI_COLOR": "#4ade80" }, "geometry": { "type": "Polygon", "coordinates": [ [ [ 479675.172888399800286, 5240088.382213125936687 ], [ 479676.05223360133823, 5240089.298538404516876 ], [ 479813.986323973804247, 5239956.931044783443213 ], [ 479813.106978772266302, 5239956.014719504863024 ], [ 479675.172888399800286, 5240088.382213125936687 ] ] ] } },
{ "type": "Feature", "properties": { "name": "Spannweid 24", "GI": 0.40275221076195139, "MGRVI": 0.052159685697414374, "MGRVI_COLOR": "#a3e635" }, "geometry": { "type": "Polygon", "coordinates": [ [ [ 479676.579229039198253, 5240089.275796242058277 ], [ 479677.458574240503367, 5240090.192121520638466 ], [ 479815.388162601215299, 5239957.82894822396338 ], [ 479814.508817399619147, 5239956.912622946314514 ], [ 479676.579229039198253, 5240089.275796242058277 ] ] ] } },
{ "type": "Feature", "properties": { "name": "Spannweid 25", "GI": 0.3823500126231637, "MGRVI": 0.058990813625305519, "MGRVI_COLOR": "#a3e635" }, "geometry": { "type": "Polygon", "coordinates": [ [ [ 479677.985569678014144, 5240090.379379359073937 ], [ 479678.864914879493881, 5240091.295704637654126 ], [ 479816.790001228218898, 5239958.936851665377617 ], [ 479815.910656026797369, 5239958.020526386797428 ], [ 479677.985569678014144, 5240090.379379359073937 ] ] ] } },
{ "type": "Feature", "properties": { "name": "Spannweid 26", "GI": 0.44616854499467612, "MGRVI": 0.23883838555968415, "MGRVI_COLOR": "#4ade80" }, "geometry": { "type": "Polygon", "coordinates": [ [ [ 479679.391910316422582, 5240091.482962477020919 ], [ 479680.271255517960526, 5240092.399287754669785 ], [ 479818.191839854815044, 5239960.044755105860531 ], [ 479817.312494653218891, 5239959.128429827280343 ], [ 479679.391910316422582, 5240091.482962477020919 ] ] ] } },
{ "type": "Feature", "properties": { "name": "Spannweid 27", "GI": 0.3233291278194026, "MGRVI": -0.20672499104293426, "MGRVI_COLOR": "#f97316" }, "geometry": { "type": "Polygon", "coordinates": [ [ [ 479680.798250955645926, 5240092.586545594036579 ], [ 479681.677596157242078, 5240093.502870872616768 ], [ 479819.593678482109681, 5239961.152658549137414 ], [ 479818.714333280629944, 5239960.236333269625902 ], [ 479680.798250955645926, 5240092.586545594036579 ] ] ] } },
{ "type": "Feature", "properties": { "name": "Spannweid 28", "GI": 0.45439912497477725, "MGRVI": 0.2640017867123034, "MGRVI_COLOR": "#4ade80" }, "geometry": { "type": "Polygon", "coordinates": [ [ [ 479682.204591594578233, 5240093.900128712877631 ], [ 479683.083936796174385, 5240094.81645399145782 ], [ 479820.995517109229695, 5239962.470561992377043 ], [ 479820.116171907749958, 5239961.554236713796854 ], [ 479682.204591594578233, 5240093.900128712877631 ] ] ] } },
{ "type": "Feature", "properties": { "name": "Spannweid 29", "GI": 0.42324628897043348, "MGRVI": 0.15438208683119511, "MGRVI_COLOR": "#a3e635" }, "geometry": { "type": "Polygon", "coordinates": [ [ [ 479683.610932233044878, 5240095.003711828961968 ], [ 479684.490277434524614, 5240095.92003710847348 ], [ 479822.397355735767633, 5239963.578465432859957 ], [ 479821.518010534229688, 5239962.662140156142414 ], [ 479683.610932233044878, 5240095.003711828961968 ] ] ] } },
{ "type": "Feature", "properties": { "name": "Spannweid 30", "GI": 0.39044216702508605, "MGRVI": -0.0019038386564749822, "MGRVI_COLOR": "#eab308" }, "geometry": { "type": "Polygon", "coordinates": [ [ [ 479685.017272871802561, 5240095.897294945083559 ], [ 479685.896618073340505, 5240096.813620222732425 ], [ 479823.799194362713024, 5239964.476368873380125 ], [ 479822.91984916117508, 5239963.560043594799936 ], [ 479685.017272871802561, 5240095.897294945083559 ] ] ] } },
{ "type": "Feature", "properties": { "name": "Spannweid 31", "GI": 0.34530586850842132, "MGRVI": -0.076128383374251082, "MGRVI_COLOR": "#eab308" }, "geometry": { "type": "Polygon", "coordinates": [ [ [ 479686.423613511025906, 5240097.210878063924611 ], [ 479687.302958712505642, 5240098.127203343436122 ], [ 479825.201032989949454, 5239965.794272318482399 ], [ 479824.321687788469717, 5239964.877947038970888 ], [ 479686.423613511025906, 5240097.210878063924611 ] ] ] } },
{ "type": "Feature", "properties": { "name": "Spannweid 32", "GI": 0.3991526918880845, "MGRVI": 0.052404590767517925, "MGRVI_COLOR": "#a3e635" }, "geometry": { "type": "Polygon", "coordinates": [ [ [ 479687.830028037540615, 5240098.314390275627375 ], [ 479688.709373239194974, 5240099.230715555138886 ], [ 479826.602898689743597, 5239966.902149777859449 ], [ 479825.72355348826386, 5239965.985824501141906 ], [ 479687.830028037540615, 5240098.314390275627375 ] ] ] } },
{ "type": "Feature", "properties": { "name": "Spannweid 33", "GI": 0.40149106276976138, "MGRVI": 0.071442247202661804, "MGRVI_COLOR": "#a3e635" }, "geometry": { "type": "Polygon", "coordinates": [ [ [ 479689.236560452962294, 5240099.41778935585171 ], [ 479690.115905654616654, 5240100.334114634431899 ], [ 479828.004767350386828, 5239968.010024398565292 ], [ 479827.125422148907091, 5239967.093699119985104 ], [ 479689.236560452962294, 5240099.41778935585171 ] ] ] } },
{ "type": "Feature", "properties": { "name": "Spannweid 34", "GI": 0.39195495043812151, "MGRVI": 0.030251090105379824, "MGRVI_COLOR": "#a3e635" }, "geometry": { "type": "Polygon", "coordinates": [ [ [ 479690.823092867911328, 5240100.581188437528908 ], [ 479691.70243806950748, 5240101.497513716109097 ], [ 479829.586751032737084, 5239969.177788640372455 ], [ 479828.707405830966309, 5239968.261463361792266 ], [ 479690.823092867911328, 5240100.581188437528908 ] ] ] } },
{ "type": "Feature", "properties": { "name": "Spannweid 35", "GI": 0.38193016836340266, "MGRVI": -0.012761582120597579, "MGRVI_COLOR": "#eab308" }, "geometry": { "type": "Polygon", "coordinates": [ [ [ 479692.229625283041969, 5240101.684587517753243 ], [ 479693.108970484696329, 5240102.600912796333432 ], [ 479830.988750207587145, 5239970.285538013093174 ], [ 479830.109405006049201, 5239969.369212733581662 ], [ 479692.229625283041969, 5240101.684587517753243 ] ] ] } },
{ "type": "Feature", "properties": { "name": "Spannweid 36", "GI": 0.41233923966046293, "MGRVI": 0.10812253286768951, "MGRVI_COLOR": "#a3e635" }, "geometry": { "type": "Polygon", "coordinates": [ [ [ 479693.636157698638272, 5240102.787986598908901 ], [ 479694.515502900234424, 5240103.704311875626445 ], [ 479832.39059846958844, 5239971.393432210199535 ], [ 479831.511253267992288, 5239970.477106931619346 ], [ 479693.636157698638272, 5240102.787986598908901 ] ] ] } },
{ "type": "Feature", "properties": { "name": "Spannweid 37", "GI": 0.37624511097851121, "MGRVI": 0.018570648454446805, "MGRVI_COLOR": "#a3e635" }, "geometry": { "type": "Polygon", "coordinates": [ [ [ 479695.042510227009188, 5240103.891558304429054 ], [ 479695.921855428488925, 5240104.807883583940566 ], [ 479833.79242199647706, 5239972.501350141130388 ], [ 479832.913076794880908, 5239971.585024863481522 ], [ 479695.042510227009188, 5240103.891558304429054 ] ] ] } },
{ "type": "Feature", "properties": { "name": "Spannweid 38", "GI": 0.39365717198685285, "MGRVI": 0.022526845038300301, "MGRVI_COLOR": "#a3e635" }, "geometry": { "type": "Polygon", "coordinates": [ [ [ 479696.448849205509759, 5240104.995143014937639 ], [ 479697.328194407047704, 5240105.911468294449151 ], [ 479835.194245523074642, 5239973.609268073923886 ], [ 479834.314900321536697, 5239972.692942793481052 ], [ 479696.448849205509759, 5240104.995143014937639 ] ] ] } },
{ "type": "Feature", "properties": { "name": "Spannweid 39", "GI": 0.38073035297504509, "MGRVI": -0.032988253953177282, "MGRVI_COLOR": "#eab308" }, "geometry": { "type": "Polygon", "coordinates": [ [ [ 479697.855188184592407, 5240106.098727725446224 ], [ 479698.734533386013936, 5240107.01505300309509 ], [ 479836.596069050370716, 5239974.717186005786061 ], [ 479835.716723848716356, 5239973.80086072627455 ], [ 479697.855188184592407, 5240106.098727725446224 ] ] ] } },
{ "type": "Feature", "properties": { "name": "Spannweid 40", "GI": 0.3890821362461297, "MGRVI": 0.014182733413011276, "MGRVI_COLOR": "#a3e635" }, "geometry": { "type": "Polygon", "coordinates": [ [ [ 479699.261527163442224, 5240107.202312435023487 ], [ 479700.140872364980169, 5240108.118637714534998 ], [ 479837.997892577492166, 5239975.825103937648237 ], [ 479837.118547375954222, 5239974.908778659068048 ], [ 479699.261527163442224, 5240107.202312435023487 ] ] ] } },
{ "type": "Feature", "properties": { "name": "Spannweid 41", "GI": 0.40750787254602006, "MGRVI": 0.099681478010277394, "MGRVI_COLOR": "#a3e635" }, "geometry": { "type": "Polygon", "coordinates": [ [ [ 479700.66786614258308, 5240108.305897146463394 ], [ 479701.547211344121024, 5240109.222222423180938 ], [ 479839.399716104613617, 5239976.933021869510412 ], [ 479838.520370903192088, 5239976.016696590930223 ], [ 479700.66786614258308, 5240108.305897146463394 ] ] ] } },
{ "type": "Feature", "properties": { "name": "Spannweid 42", "GI": 0.3707089341307645, "MGRVI": -0.012566368319618642, "MGRVI_COLOR": "#eab308" }, "geometry": { "type": "Polygon", "coordinates": [ [ [ 479702.074205121025443, 5240109.409481854178011 ], [ 479702.953550322679803, 5240110.325807134620845 ], [ 479840.801539631327614, 5239978.04093980230391 ], [ 479839.922194429731462, 5239977.124614523723722 ], [ 479702.074205121025443, 5240109.409481854178011 ] ] ] } },
{ "type": "Feature", "properties": { "name": "Spannweid 43", "GI": 0.37504827681879116, "MGRVI": 0.05492023693069744, "MGRVI_COLOR": "#a3e635" }, "geometry": { "type": "Polygon", "coordinates": [ [ [ 479703.480544100108091, 5240110.513066565617919 ], [ 479704.359889301587828, 5240111.429391844198108 ], [ 479842.203363158507273, 5239979.148857734166086 ], [ 479841.324017956911121, 5239978.232532455585897 ], [ 479703.480544100108091, 5240110.513066565617919 ] ] ] } },
{ "type": "Feature", "properties": { "name": "Spannweid 44", "GI": 0.37659809269476041, "MGRVI": -0.065036270104977437, "MGRVI_COLOR": "#eab308" }, "geometry": { "type": "Polygon", "coordinates": [ [ [ 479704.886883079074323, 5240111.616651277057827 ], [ 479705.766228280670475, 5240112.532976554706693 ], [ 479843.605186685628723, 5239980.256775666959584 ], [ 479842.725841484148987, 5239979.340450388379395 ], [ 479704.886883079074323, 5240111.616651277057827 ] ] ] } },
{ "type": "Feature", "properties": { "name": "Spannweid 45", "GI": 0.38279518651119387, "MGRVI": 0.043469691362385723, "MGRVI_COLOR": "#a3e635" }, "geometry": { "type": "Polygon", "coordinates": [ [ [ 479706.293222058156971, 5240112.480235983617604 ], [ 479707.172567259694915, 5240113.396561263129115 ], [ 479845.007010212924797, 5239981.124693595804274 ], [ 479844.127665011270437, 5239980.208368318155408 ], [ 479706.293222058156971, 5240112.480235983617604 ] ] ] } },
{ "type": "Feature", "properties": { "name": "Spannweid 46", "GI": 0.36162275738220068, "MGRVI": 0.00022375880902522808, "MGRVI_COLOR": "#a3e635" }, "geometry": { "type": "Polygon", "coordinates": [ [ [ 479707.69956103694858, 5240113.583820694126189 ], [ 479708.578906238544732, 5240114.500145972706378 ], [ 479846.408833739871625, 5239982.232611529529095 ], [ 479845.52948853833368, 5239981.316286250948906 ], [ 479707.69956103694858, 5240113.583820694126189 ] ] ] } },
{ "type": "Feature", "properties": { "name": "Spannweid 47", "GI": 0.35717523162682463, "MGRVI": -0.013937509200849272, "MGRVI_COLOR": "#eab308" }, "geometry": { "type": "Polygon", "coordinates": [ [ [ 479709.105900015507359, 5240114.687405405566096 ], [ 479709.985245217103511, 5240115.60373068228364 ], [ 479847.810657266469207, 5239983.340529462322593 ], [ 479846.931312065047678, 5239982.424204182811081 ], [ 479709.105900015507359, 5240114.687405405566096 ] ] ] } },
{ "type": "Feature", "properties": { "name": "Spannweid 48", "GI": 0.36092392709849219, "MGRVI": 9.3125645635803718e-05, "MGRVI_COLOR": "#a3e635" }, "geometry": { "type": "Polygon", "coordinates": [ [ [ 479710.512238994822837, 5240115.790990114212036 ], [ 479711.391584196360782, 5240116.707315392792225 ], [ 479849.212480793939903, 5239984.448447392322123 ], [ 479848.333135592343751, 5239983.532122114673257 ], [ 479710.512238994822837, 5240115.790990114212036 ] ] ] } },
{ "type": "Feature", "properties": { "name": "Spannweid 49", "GI": 0.40653916056442535, "MGRVI": 0.10502294096055276, "MGRVI_COLOR": "#a3e635" }, "geometry": { "type": "Polygon", "coordinates": [ [ [ 479711.858577973674983, 5240117.164574827067554 ], [ 479712.737923175271135, 5240118.080900105647743 ], [ 479850.554304321063682, 5239985.826365328393877 ], [ 479849.674959119700361, 5239984.910040049813688 ], [ 479711.858577973674983, 5240117.164574827067554 ] ] ] } },
{ "type": "Feature", "properties": { "name": "Spannweid 50", "GI": 0.35873549438439567, "MGRVI": -0.011873805027983964, "MGRVI_COLOR": "#eab308" }, "geometry": { "type": "Polygon", "coordinates": [ [ [ 479713.264916952233762, 5240118.268159535713494 ], [ 479714.144262153829914, 5240119.184484815225005 ], [ 479851.956127847894095, 5239986.934283260256052 ], [ 479851.07678264612332, 5239986.017957980744541 ], [ 479713.264916952233762, 5240118.268159535713494 ] ] ] } },
{ "type": "Feature", "properties": { "name": "Spannweid 51", "GI": 0.35509459094657941, "MGRVI": -0.030121242674709735, "MGRVI_COLOR": "#eab308" }, "geometry": { "type": "Polygon", "coordinates": [ [ [ 479714.671255931316409, 5240119.371744247153401 ], [ 479715.550601132970769, 5240120.288069524802268 ], [ 479853.357951374840923, 5239988.042201192118227 ], [ 479852.478606173302978, 5239987.125875913538039 ], [ 479714.671255931316409, 5240119.371744247153401 ] ] ] } },
{ "type": "Feature", "properties": { "name": "Spannweid 52", "GI": 0.36692478990326599, "MGRVI": 0.012939083135522399, "MGRVI_COLOR": "#a3e635" }, "geometry": { "type": "Polygon", "coordinates": [ [ [ 479716.077594910108019, 5240120.475328958593309 ], [ 479716.956940111587755, 5240121.391654236242175 ], [ 479854.759774901845958, 5239989.150119123980403 ], [ 479853.880429700424429, 5239988.233793844468892 ], [ 479716.077594910108019, 5240120.475328958593309 ] ] ] } },
{ "type": "Feature", "properties": { "name": "Spannweid 53", "GI": 0.39680116472249249, "MGRVI": 0.066982176690937714, "MGRVI_COLOR": "#a3e635" }, "geometry": { "type": "Polygon", "coordinates": [ [ [ 479717.483933889132459, 5240121.578913666307926 ], [ 479718.363279090786818, 5240122.495238945819438 ], [ 479856.161598429025616, 5239990.258037055842578 ], [ 479855.282253227429464, 5239989.34171177726239 ], [ 479717.483933889132459, 5240121.578913666307926 ] ] ] } },
{ "type": "Feature", "properties": { "name": "Spannweid 54", "GI": 0.36267884748773754, "MGRVI": 0.0025870733948981611, "MGRVI_COLOR": "#a3e635" }, "geometry": { "type": "Polygon", "coordinates": [ [ [ 479718.770272867754102, 5240122.592498377896845 ], [ 479719.649618069292046, 5240123.508823655545712 ], [ 479857.443796758132521, 5239991.275595311075449 ], [ 479856.564451556536369, 5239990.359270033426583 ], [ 479718.770272867754102, 5240122.592498377896845 ] ] ] } },
{ "type": "Feature", "properties": { "name": "Spannweid 55", "GI": 0.36422473717867265, "MGRVI": 0.016702948949030599, "MGRVI_COLOR": "#a3e635" }, "geometry": { "type": "Polygon", "coordinates": [ [ [ 479720.17661184706958, 5240123.696083087474108 ], [ 479721.055957048549317, 5240124.612408365122974 ], [ 479858.846152556943707, 5239992.383002454414964 ], [ 479857.966807355347555, 5239991.466677174903452 ], [ 479720.17661184706958, 5240123.696083087474108 ] ] ] } },
{ "type": "Feature", "properties": { "name": "Spannweid 56", "GI": 0.36342396263209492, "MGRVI": 0.043396524498759595, "MGRVI_COLOR": "#a3e635" }, "geometry": { "type": "Polygon", "coordinates": [ [ [ 479721.582950826035812, 5240124.79966779705137 ], [ 479722.462296027573757, 5240125.715993075631559 ], [ 479860.248508355638478, 5239993.490409594960511 ], [ 479859.369163153984118, 5239992.574084316380322 ], [ 479721.582950826035812, 5240124.79966779705137 ] ] ] } },
{ "type": "Feature", "properties": { "name": "Spannweid 57", "GI": 0.41415113557481847, "MGRVI": 0.17007277897599918, "MGRVI_COLOR": "#a3e635" }, "geometry": { "type": "Polygon", "coordinates": [ [ [ 479722.793486670649145, 5240125.900115877389908 ], [ 479723.668825290689711, 5240126.820269288495183 ], [ 479862.026667288446333, 5239995.200953372754157 ], [ 479861.151328668172937, 5239994.280799961648881 ], [ 479722.793486670649145, 5240125.900115877389908 ] ] ] } },
{ "type": "Feature", "properties": { "name": "Spannweid 58", "GI": 0.36661930833528572, "MGRVI": 0.077834905897562645, "MGRVI_COLOR": "#a3e635" }, "geometry": { "type": "Polygon", "coordinates": [ [ [ 479723.959833969478495, 5240126.943709294311702 ], [ 479724.835172589868307, 5240127.863862704485655 ], [ 479863.189014766481705, 5239996.248351807706058 ], [ 479862.313676146208309, 5239995.32819839566946 ], [ 479723.959833969478495, 5240126.943709294311702 ] ] ] } },
{ "type": "Feature", "properties": { "name": "Spannweid 59", "GI": 0.36653764348110052, "MGRVI": 0.069506628939759313, "MGRVI_COLOR": "#a3e635" }, "geometry": { "type": "Polygon", "coordinates": [ [ [ 479725.366181268705986, 5240128.047302709892392 ], [ 479726.241519888979383, 5240128.967456123791635 ], [ 479864.591362244682387, 5239997.355750240385532 ], [ 479863.716023624467198, 5239996.435596828348935 ], [ 479725.366181268705986, 5240128.047302709892392 ] ] ] } },
{ "type": "Feature", "properties": { "name": "Spannweid 60", "GI": 0.36861814830666556, "MGRVI": 0.080899886067604926, "MGRVI_COLOR": "#a3e635" }, "geometry": { "type": "Polygon", "coordinates": [ [ [ 479726.772528567700647, 5240129.150896131061018 ], [ 479727.647867187915836, 5240130.071049543097615 ], [ 479865.993709722766653, 5239998.463148672133684 ], [ 479865.118371102493256, 5239997.542995262891054 ], [ 479726.772528567700647, 5240129.150896131061018 ] ] ] } },
{ "type": "Feature", "properties": { "name": "Spannweid 61", "GI": 0.39319646691163251, "MGRVI": 0.14514607804148588, "MGRVI_COLOR": "#a3e635" }, "geometry": { "type": "Polygon", "coordinates": [ [ [ 479728.40738599060569, 5240130.437070787884295 ], [ 479729.285931212827563, 5240131.354163089767098 ], [ 479867.16754707734799, 5239999.26796586625278 ], [ 479866.289001855184324, 5239998.350873562507331 ], [ 479728.40738599060569, 5240130.437070787884295 ] ] ] } },
{ "type": "Feature", "properties": { "name": "Spannweid 62", "GI": 0.34275139250661329, "MGRVI": -0.033628807529639919, "MGRVI_COLOR": "#eab308" }, "geometry": { "type": "Polygon", "coordinates": [ [ [ 479729.813726636464708, 5240131.540657237172127 ], [ 479730.692271858511958, 5240132.457749540917575 ], [ 479868.569901208509691, 5240000.375371268950403 ], [ 479867.691355986346025, 5239999.458278966136277 ], [ 479729.813726636464708, 5240131.540657237172127 ] ] ] } },
{ "type": "Feature", "properties": { "name": "Spannweid 63", "GI": 0.33974209281020451, "MGRVI": -0.053230067014050787, "MGRVI_COLOR": "#eab308" }, "geometry": { "type": "Polygon", "coordinates": [ [ [ 479731.220067282498349, 5240132.644243684597313 ], [ 479732.098612504720222, 5240133.561335987411439 ], [ 479869.972255339846015, 5240001.482776670716703 ], [ 479869.093710117798764, 5240000.565684368833899 ], [ 479731.220067282498349, 5240132.644243684597313 ] ] ] } },
{ "type": "Feature", "properties": { "name": "Spannweid 64", "GI": 0.34060553511770081, "MGRVI": -0.05157862623987932, "MGRVI_COLOR": "#eab308" }, "geometry": { "type": "Polygon", "coordinates": [ [ [ 479732.626407928648405, 5240133.747830134816468 ], [ 479733.504953150928486, 5240134.664922438561916 ], [ 479871.374609471648, 5240002.590182076208293 ], [ 479870.496064249426126, 5240001.673089773394167 ], [ 479732.626407928648405, 5240133.747830134816468 ] ] ] } },
{ "type": "Feature", "properties": { "name": "Spannweid 65", "GI": 0.32185830646095959, "MGRVI": -0.1231915828781515, "MGRVI_COLOR": "#eab308" }, "geometry": { "type": "Polygon", "coordinates": [ [ [ 479734.032748574391007, 5240134.851416581310332 ], [ 479734.911293796438258, 5240135.76850888505578 ], [ 479872.776963602751493, 5240003.697587477043271 ], [ 479871.898418380471412, 5240002.780495175160468 ], [ 479734.032748574391007, 5240134.851416581310332 ] ] ] } },
{ "type": "Feature", "properties": { "name": "Spannweid 66", "GI": 0.34377675210703518, "MGRVI": -0.032391526649354879, "MGRVI_COLOR": "#eab308" }, "geometry": { "type": "Polygon", "coordinates": [ [ [ 479735.439089220250025, 5240135.955003032460809 ], [ 479736.317634442471899, 5240136.872095334343612 ], [ 479874.179317733854987, 5240004.804992880672216 ], [ 479873.300772511924151, 5240003.887900575995445 ], [ 479735.439089220250025, 5240135.955003032460809 ] ] ] } },
{ "type": "Feature", "properties": { "name": "Spannweid 67", "GI": 0.34257244505007628, "MGRVI": -0.034585962241709269, "MGRVI_COLOR": "#eab308" }, "geometry": { "type": "Polygon", "coordinates": [ [ [ 479736.845429866632912, 5240137.058589482679963 ], [ 479737.723975088738371, 5240137.975681784562767 ], [ 479875.58167186571518, 5240005.912398286163807 ], [ 479874.703126643609721, 5240004.995305981487036 ], [ 479736.845429866632912, 5240137.058589482679963 ] ] ] } },
{ "type": "Feature", "properties": { "name": "Spannweid 68", "GI": 0.31850084251273503, "MGRVI": -0.12710599142324164, "MGRVI_COLOR": "#eab308" }, "geometry": { "type": "Polygon", "coordinates": [ [ [ 479738.191770512494259, 5240138.162175929173827 ], [ 479739.070315734599717, 5240139.079268231987953 ], [ 479876.924025997112039, 5240007.019803687930107 ], [ 479876.045480774715543, 5240006.102711384184659 ], [ 479738.191770512494259, 5240138.162175929173827 ] ] ] } },
{ "type": "Feature", "properties": { "name": "Spannweid 69", "GI": 0.32032511393841551, "MGRVI": -0.12429035944978248, "MGRVI_COLOR": "#eab308" }, "geometry": { "type": "Polygon", "coordinates": [ [ [ 479739.598111158935353, 5240139.265762378461659 ], [ 479740.476656381040812, 5240140.182854681275785 ], [ 479878.326380128622986, 5240008.127209089696407 ], [ 479877.447834906517528, 5240007.210116786882281 ], [ 479739.598111158935353, 5240139.265762378461659 ] ] ] } },
{ "type": "Feature", "properties": { "name": "Spannweid 70", "GI": 0.32172095695000941, "MGRVI": -0.12397345022553385, "MGRVI_COLOR": "#eab308" }, "geometry": { "type": "Polygon", "coordinates": [ [ [ 479741.004451804619748, 5240140.369348827749491 ], [ 479741.882997026783414, 5240141.286441129632294 ], [ 479879.72873425995931, 5240009.234614490531385 ], [ 479878.850189037970267, 5240008.317522188648582 ], [ 479741.004451804619748, 5240140.369348827749491 ] ] ] } },
{ "type": "Feature", "properties": { "name": "Spannweid 71", "GI": 0.32263587097603913, "MGRVI": -0.119703977292342, "MGRVI_COLOR": "#eab308" }, "geometry": { "type": "Polygon", "coordinates": [ [ [ 479742.410792450304143, 5240141.472935277037323 ], [ 479743.289337672526017, 5240142.390027579851449 ], [ 479881.131088390829973, 5240010.342019895091653 ], [ 479880.252543168666307, 5240009.424927591346204 ], [ 479742.410792450304143, 5240141.472935277037323 ] ] ] } },
{ "type": "Feature", "properties": { "name": "Spannweid 72", "GI": 0.32392078517303513, "MGRVI": -0.10841624194498445, "MGRVI_COLOR": "#eab308" }, "geometry": { "type": "Polygon", "coordinates": [ [ [ 479743.817133096861653, 5240142.576521724462509 ], [ 479744.695678318967111, 5240143.493614028207958 ], [ 479882.533442522806581, 5240011.449425298720598 ], [ 479881.654897300584707, 5240010.532332994043827 ], [ 479743.817133096861653, 5240142.576521724462509 ] ] ] } },
{ "type": "Feature", "properties": { "name": "Spannweid 73", "GI": 0.32119691219149576, "MGRVI": -0.11701973404295542, "MGRVI_COLOR": "#eab308" }, "geometry": { "type": "Polygon", "coordinates": [ [ [ 479745.533839077455923, 5240143.382528258487582 ], [ 479746.412384299677797, 5240144.299620561301708 ], [ 479883.935666810022667, 5240012.556695278733969 ], [ 479883.057121587742586, 5240011.63960297498852 ], [ 479745.533839077455923, 5240143.382528258487582 ] ] ] } },
{ "type": "Feature", "properties": { "name": "Spannweid 74", "GI": 0.32125172072261987, "MGRVI": -0.11074708240313672, "MGRVI_COLOR": "#eab308" }, "geometry": { "type": "Polygon", "coordinates": [ [ [ 479753.748051617760211, 5240137.866219633258879 ], [ 479754.626596839982085, 5240138.78331193793565 ], [ 479885.395197916950565, 5240013.511156366206706 ], [ 479884.516652694612276, 5240012.594064062461257 ], [ 479753.748051617760211, 5240137.866219633258879 ] ] ] } },
{ "type": "Feature", "properties": { "name": "Spannweid 75", "GI": 0.32303371534964859, "MGRVI": -0.095162329345722857, "MGRVI_COLOR": "#eab308" }, "geometry": { "type": "Polygon", "coordinates": [ [ [ 479755.989701558079105, 5240138.168907136656344 ], [ 479756.868246780300979, 5240139.08599943947047 ], [ 479886.797202590154484, 5240014.61819729488343 ], [ 479885.918657367990818, 5240013.701104992069304 ], [ 479755.989701558079105, 5240138.168907136656344 ] ] ] } },
{ "type": "Feature", "properties": { "name": "Spannweid 76", "GI": 0.32552800689709849, "MGRVI": -0.088216172074374155, "MGRVI_COLOR": "#eab308" }, "geometry": { "type": "Polygon", "coordinates": [ [ [ 479759.592795381031465, 5240137.166235083714128 ], [ 479760.471340603136923, 5240138.083327385596931 ], [ 479888.198637692956254, 5240015.724644185043871 ], [ 479887.32009247073438, 5240014.807551882229745 ], [ 479759.592795381031465, 5240137.166235083714128 ] ] ] } },
{ "type": "Feature", "properties": { "name": "Spannweid 77", "GI": 0.32362430381522395, "MGRVI": -0.064718149314475837, "MGRVI_COLOR": "#eab308" }, "geometry": { "type": "Polygon", "coordinates": [ [ [ 479763.980970023025293, 5240135.410823410376906 ], [ 479764.859515245247167, 5240136.327915711328387 ], [ 479889.599744351638947, 5240016.83074851706624 ], [ 479888.721199129417073, 5240015.913656212389469 ], [ 479763.980970023025293, 5240135.410823410376906 ] ] ] } },
{ "type": "Feature", "properties": { "name": "Spannweid 78", "GI": 0.32856595661135918, "MGRVI": -0.051143173371796177, "MGRVI_COLOR": "#eab308" }, "geometry": { "type": "Polygon", "coordinates": [ [ [ 479768.369144660828169, 5240133.655411737039685 ], [ 479769.247689883050043, 5240134.572504038922489 ], [ 479891.000851009099279, 5240017.936852849088609 ], [ 479890.12230578699382, 5240017.019760545343161 ], [ 479768.369144660828169, 5240133.655411737039685 ] ] ] } },
{ "type": "Feature", "properties": { "name": "Spannweid 79", "GI": 0.32965003207006044, "MGRVI": -0.063355409520803652, "MGRVI_COLOR": "#eab308" }, "geometry": { "type": "Polygon", "coordinates": [ [ [ 479772.757319300959352, 5240131.900000063702464 ], [ 479773.635864523181226, 5240132.81709236651659 ], [ 479892.40195766731631, 5240019.042957182973623 ], [ 479891.523412445152644, 5240018.125864879228175 ], [ 479772.757319300959352, 5240131.900000063702464 ] ] ] } },
{ "type": "Feature", "properties": { "name": "Spannweid 80", "GI": 0.32736477973546196, "MGRVI": -0.074719075266447901, "MGRVI_COLOR": "#eab308" }, "geometry": { "type": "Polygon", "coordinates": [ [ [ 479777.265493942017201, 5240130.384588394314051 ], [ 479778.144039164180867, 5240131.301680696196854 ], [ 479893.923064325936139, 5240020.389061517082155 ], [ 479893.044519103772473, 5240019.471969213336706 ], [ 479777.265493942017201, 5240130.384588394314051 ] ] ] } },
{ "type": "Feature", "properties": { "name": "Spannweid 81", "GI": 0.32681209394036187, "MGRVI": -0.08776041749961172, "MGRVI_COLOR": "#eab308" }, "geometry": { "type": "Polygon", "coordinates": [ [ [ 479781.653668580402154, 5240128.629176722839475 ], [ 479782.532213802507613, 5240129.546269026584923 ], [ 479895.324170983338263, 5240021.495165848173201 ], [ 479894.445625761174597, 5240020.578073545359075 ], [ 479781.653668580402154, 5240128.629176722839475 ] ] ] } },
{ "type": "Feature", "properties": { "name": "Spannweid 82", "GI": 0.32791341295782939, "MGRVI": -0.072410065805075835, "MGRVI_COLOR": "#eab308" }, "geometry": { "type": "Polygon", "coordinates": [ [ [ 479786.041843217215501, 5240126.873765049502254 ], [ 479786.920388439379167, 5240127.790857354179025 ], [ 479896.725277640740387, 5240022.601270177401602 ], [ 479895.846732418460306, 5240021.684177874587476 ], [ 479786.041843217215501, 5240126.873765049502254 ] ] ] } },
{ "type": "Feature", "properties": { "name": "Spannweid 83", "GI": 0.32182815061923337, "MGRVI": -0.085155084426741745, "MGRVI_COLOR": "#eab308" }, "geometry": { "type": "Polygon", "coordinates": [ [ [ 479790.430017859966028, 5240125.118353377096355 ], [ 479791.308563082129695, 5240126.035445678047836 ], [ 479898.126384299597703, 5240023.707374511286616 ], [ 479897.247839077375829, 5240022.790282209403813 ], [ 479790.430017859966028, 5240125.118353377096355 ] ] ] } },
{ "type": "Feature", "properties": { "name": "Spannweid 84", "GI": 0.32222960195693207, "MGRVI": -0.081729976294231219, "MGRVI_COLOR": "#eab308" }, "geometry": { "type": "Polygon", "coordinates": [ [ [ 479794.818192500912119, 5240123.362941703759134 ], [ 479795.696737723133992, 5240124.280034008435905 ], [ 479899.52749095793115, 5240024.81347884517163 ], [ 479898.648945735651068, 5240023.896386542357504 ], [ 479794.818192500912119, 5240123.362941703759134 ] ] ] } },
{ "type": "Feature", "properties": { "name": "Spannweid 85", "GI": 0.3273046367372005, "MGRVI": -0.07580196414469767, "MGRVI_COLOR": "#eab308" }, "geometry": { "type": "Polygon", "coordinates": [ [ [ 479799.206367140170187, 5240121.607530030421913 ], [ 479800.084912362275645, 5240122.524622336030006 ], [ 479900.928597615857143, 5240025.919583177193999 ], [ 479900.0500523938681, 5240025.002490875311196 ], [ 479799.206367140170187, 5240121.607530030421913 ] ] ] } },
{ "type": "Feature", "properties": { "name": "Spannweid 86", "GI": 0.32988924992973989, "MGRVI": -0.060758599354680594, "MGRVI_COLOR": "#eab308" }, "geometry": { "type": "Polygon", "coordinates": [ [ [ 479803.594541777158156, 5240119.852118361741304 ], [ 479804.473086999263614, 5240120.76921066455543 ], [ 479902.329704272910021, 5240027.025687509216368 ], [ 479901.451159050746355, 5240026.108595206402242 ], [ 479803.594541777158156, 5240119.852118361741304 ] ] ] } },
{ "type": "Feature", "properties": { "name": "Spannweid 87", "GI": 0.32915104626172181, "MGRVI": -0.069486858804645016, "MGRVI_COLOR": "#eab308" }, "geometry": { "type": "Polygon", "coordinates": [ [ [ 479807.825990004464984, 5240117.989321029745042 ], [ 479808.701328624796588, 5240118.909474440850317 ], [ 479903.887537345057353, 5240028.359177501872182 ], [ 479903.012198724725749, 5240027.439024090766907 ], [ 479807.825990004464984, 5240117.989321029745042 ] ] ] } },
{ "type": "Feature", "properties": { "name": "Spannweid 88", "GI": 0.32707117035850075, "MGRVI": -0.070848547972606354, "MGRVI_COLOR": "#eab308" }, "geometry": { "type": "Polygon", "coordinates": [ [ [ 479811.808117197768297, 5240116.631857135333121 ], [ 479812.683455817983486, 5240117.552010547369719 ], [ 479905.284515620849561, 5240029.460956445895135 ], [ 479904.409177000634372, 5240028.540803033858538 ], [ 479811.808117197768297, 5240116.631857135333121 ] ] ] } },
{ "type": "Feature", "properties": { "name": "Spannweid 89", "GI": 0.32470112146521263, "MGRVI": -0.071181530525448206, "MGRVI_COLOR": "#eab308" }, "geometry": { "type": "Polygon", "coordinates": [ [ [ 479815.398759429343045, 5240115.648441866971552 ], [ 479816.274098049558233, 5240116.568595278076828 ], [ 479906.682309945346788, 5240030.563589480705559 ], [ 479905.806971325248014, 5240029.643436069600284 ], [ 479815.398759429343045, 5240115.648441866971552 ] ] ] } },
{ "type": "Feature", "properties": { "name": "Spannweid 90", "GI": 0.32418434342409674, "MGRVI": -0.082669570509985732, "MGRVI_COLOR": "#eab308" }, "geometry": { "type": "Polygon", "coordinates": [ [ [ 479818.989401657425333, 5240114.665026596747339 ], [ 479819.864740277640522, 5240115.585180007852614 ], [ 479908.080104268621653, 5240031.666222513653338 ], [ 479907.204765648348257, 5240030.74606910161674 ], [ 479818.989401657425333, 5240114.665026596747339 ] ] ] } },
{ "type": "Feature", "properties": { "name": "Spannweid 91", "GI": 0.32496701969604042, "MGRVI": -0.086689460336053903, "MGRVI_COLOR": "#eab308" }, "geometry": { "type": "Polygon", "coordinates": [ [ [ 479822.580043889698572, 5240113.681611330248415 ], [ 479823.455382509971969, 5240114.601764741353691 ], [ 479909.477898593409918, 5240032.768855547532439 ], [ 479908.602559973136522, 5240031.848702136427164 ], [ 479822.580043889698572, 5240113.681611330248415 ] ] ] } },
{ "type": "Feature", "properties": { "name": "Spannweid 92", "GI": 0.32599886726514216, "MGRVI": -0.087601856257648936, "MGRVI_COLOR": "#eab308" }, "geometry": { "type": "Polygon", "coordinates": [ [ [ 479826.170686122379266, 5240112.698196061886847 ], [ 479827.046024742594454, 5240113.6183494720608 ], [ 479910.875692918198183, 5240033.871488582342863 ], [ 479910.00035429809941, 5240032.951335171237588 ], [ 479826.170686122379266, 5240112.698196061886847 ] ] ] } },
{ "type": "Feature", "properties": { "name": "Spannweid 93", "GI": 0.32789901766618107, "MGRVI": -0.087771056926632188, "MGRVI_COLOR": "#eab308" }, "geometry": { "type": "Polygon", "coordinates": [ [ [ 479829.761328353895806, 5240111.714780792593956 ], [ 479830.636666973994579, 5240112.634934202767909 ], [ 479912.273487242811825, 5240034.974121614359319 ], [ 479911.398148622538429, 5240034.053968202322721 ], [ 479829.761328353895806, 5240111.714780792593956 ] ] ] } },
{ "type": "Feature", "properties": { "name": "Spannweid 94", "GI": 0.32295949074022873, "MGRVI": -0.10243207992790117, "MGRVI_COLOR": "#eab308" }, "geometry": { "type": "Polygon", "coordinates": [ [ [ 479833.351970582385547, 5240110.73136552516371 ], [ 479834.227309202658944, 5240111.651518935337663 ], [ 479913.671281566261314, 5240036.076754646375775 ], [ 479912.795942945987917, 5240035.156601236201823 ], [ 479833.351970582385547, 5240110.73136552516371 ] ] ] } },
{ "type": "Feature", "properties": { "name": "Spannweid 95", "GI": 0.32290202843585014, "MGRVI": -0.10957245000589595, "MGRVI_COLOR": "#eab308" }, "geometry": { "type": "Polygon", "coordinates": [ [ [ 479836.942612814775202, 5240109.747950255870819 ], [ 479837.817951435048599, 5240110.668103666976094 ], [ 479915.069075891049579, 5240037.179387681186199 ], [ 479914.193737270892598, 5240036.259234270080924 ], [ 479836.942612814775202, 5240109.747950255870819 ] ] ] } },
{ "type": "Feature", "properties": { "name": "Spannweid 96", "GI": 0.32518485044488576, "MGRVI": -0.10754131161833372, "MGRVI_COLOR": "#eab308" }, "geometry": { "type": "Polygon", "coordinates": [ [ [ 479840.533255046117119, 5240108.764534986577928 ], [ 479841.408593666332308, 5240109.684688397683203 ], [ 479916.466870215372182, 5240038.282020714133978 ], [ 479915.591531595215201, 5240037.361867303960025 ], [ 479840.533255046117119, 5240108.764534986577928 ] ] ] } },
{ "type": "Feature", "properties": { "name": "Spannweid 97", "GI": 0.32298968451282728, "MGRVI": -0.1028477645321447, "MGRVI_COLOR": "#eab308" }, "geometry": { "type": "Polygon", "coordinates": [ [ [ 479844.123897277051583, 5240107.781119717285037 ], [ 479844.999235897266772, 5240108.701273129321635 ], [ 479917.864664539752994, 5240039.384653748013079 ], [ 479916.989325919479597, 5240038.464500336907804 ], [ 479844.123897277051583, 5240107.781119717285037 ] ] ] } },
{ "type": "Feature", "properties": { "name": "Spannweid 98", "GI": 0.3809559642329185, "MGRVI": 0.045287451492896917, "MGRVI_COLOR": "#a3e635" }, "geometry": { "type": "Polygon", "coordinates": [ [ [ 479847.71453950641444, 5240106.797704449854791 ], [ 479848.589878126571421, 5240107.717857860960066 ], [ 479919.262458863377105, 5240040.487286780960858 ], [ 479918.387120243220124, 5240039.567133370786905 ], [ 479847.71453950641444, 5240106.797704449854791 ] ] ] } },
{ "type": "Feature", "properties": { "name": "Spannweid 99", "GI": 0.37048707052945201, "MGRVI": -0.0053649151858985609, "MGRVI_COLOR": "#eab308" }, "geometry": { "type": "Polygon", "coordinates": [ [ [ 479851.305181737698149, 5240105.814289181493223 ], [ 479852.180520357913338, 5240106.73444259352982 ], [ 479920.660253187816124, 5240041.589919816702604 ], [ 479919.784914567542728, 5240040.669766404666007 ], [ 479851.305181737698149, 5240105.814289181493223 ] ] ] } },
{ "type": "Feature", "properties": { "name": "Spannweid 100", "GI": 0.36132045449907263, "MGRVI": -0.046976162713452223, "MGRVI_COLOR": "#eab308" }, "geometry": { "type": "Polygon", "coordinates": [ [ [ 479854.895823969971389, 5240104.830873912200332 ], [ 479855.77116259012837, 5240105.751027324236929 ], [ 479922.058047512720805, 5240042.69255284871906 ], [ 479921.182708892447408, 5240041.772399437613785 ], [ 479854.895823969971389, 5240104.830873912200332 ] ] ] } },
{ "type": "Feature", "properties": { "name": "Spannweid 101", "GI": 0.34827630165915335, "MGRVI": -0.098316730430660998, "MGRVI_COLOR": "#eab308" }, "geometry": { "type": "Polygon", "coordinates": [ [ [ 479858.486466202070005, 5240103.847458643838763 ], [ 479859.361804822285194, 5240104.767612056806684 ], [ 479923.455841837218031, 5240043.795185884460807 ], [ 479922.580503217002843, 5240042.875032473355532 ], [ 479858.486466202070005, 5240103.847458643838763 ] ] ] } },
{ "type": "Feature", "properties": { "name": "Spannweid 102", "GI": 0.34638280218412032, "MGRVI": -0.1067253904342616, "MGRVI_COLOR": "#eab308" }, "geometry": { "type": "Polygon", "coordinates": [ [ [ 479862.077108431491069, 5240102.864043376408517 ], [ 479862.952447051764466, 5240103.78419678658247 ], [ 479924.853636160900351, 5240044.897818918339908 ], [ 479923.97829754074337, 5240043.977665505371988 ], [ 479862.077108431491069, 5240102.864043376408517 ] ] ] } },
{ "type": "Feature", "properties": { "name": "Spannweid 103", "GI": 0.3473350286817698, "MGRVI": -0.10786558777826796, "MGRVI_COLOR": "#eab308" }, "geometry": { "type": "Polygon", "coordinates": [ [ [ 479865.667750663589686, 5240101.880628108046949 ], [ 479866.543089283804875, 5240102.800781517289579 ], [ 479926.251430485805031, 5240046.000451949425042 ], [ 479925.376091865531635, 5240045.080298539251089 ], [ 479865.667750663589686, 5240101.880628108046949 ] ] ] } },
{ "type": "Feature", "properties": { "name": "Spannweid 104", "GI": 0.35759294674177944, "MGRVI": -0.079750334313822904, "MGRVI_COLOR": "#eab308" }, "geometry": { "type": "Polygon", "coordinates": [ [ [ 479869.258392894291319, 5240100.89721283968538 ], [ 479870.133731514564715, 5240101.817366249859333 ], [ 479927.649224809953012, 5240047.103084983304143 ], [ 479926.773886189796031, 5240046.18293157313019 ], [ 479869.258392894291319, 5240100.89721283968538 ] ] ] } },
{ "type": "Feature", "properties": { "name": "Spannweid 105", "GI": 0.36845578863382206, "MGRVI": -0.034930614426412709, "MGRVI_COLOR": "#eab308" }, "geometry": { "type": "Polygon", "coordinates": [ [ [ 479872.849035127204843, 5240099.913797571323812 ], [ 479873.724373747478239, 5240100.833950979635119 ], [ 479929.047019134915899, 5240048.205718019977212 ], [ 479928.171680514700711, 5240047.285564607940614 ], [ 479872.849035127204843, 5240099.913797571323812 ] ] ] } },
{ "type": "Feature", "properties": { "name": "Spannweid 106", "GI": 0.3888104846473493, "MGRVI": 0.046314498212353818, "MGRVI_COLOR": "#a3e635" }, "geometry": { "type": "Polygon", "coordinates": [ [ [ 479876.439677355403546, 5240098.930382303893566 ], [ 479877.315015975676943, 5240099.850535713136196 ], [ 479930.44481345807435, 5240049.308351050131023 ], [ 479929.569474837917369, 5240048.38819763995707 ], [ 479876.439677355403546, 5240098.930382303893566 ] ] ] } },
{ "type": "Feature", "properties": { "name": "Spannweid 107", "GI": 0.37972638852716151, "MGRVI": 0.0061306983401930521, "MGRVI_COLOR": "#a3e635" }, "geometry": { "type": "Polygon", "coordinates": [ [ [ 479880.709564170450903, 5240097.297975449822843 ], [ 479881.584902790607885, 5240098.218128859996796 ], [ 479931.841157103364822, 5240050.40953544806689 ], [ 479930.965818483149633, 5240049.489382036961615 ], [ 479880.709564170450903, 5240097.297975449822843 ] ] ] } },
{ "type": "Feature", "properties": { "name": "Spannweid 108", "GI": 0.36299210824995021, "MGRVI": -0.061791049156074029, "MGRVI_COLOR": "#eab308" }, "geometry": { "type": "Polygon", "coordinates": [ [ [ 479885.859740269021131, 5240094.824486702680588 ], [ 479886.735078888945282, 5240095.744640114717185 ], [ 479933.235614803968929, 5240051.508848063647747 ], [ 479932.360276183811948, 5240050.588694651611149 ], [ 479885.859740269021131, 5240094.824486702680588 ] ] ] } },
{ "type": "Feature", "properties": { "name": "Spannweid 109", "GI": 0.34601509039898654, "MGRVI": -0.10545464220476602, "MGRVI_COLOR": "#eab308" }, "geometry": { "type": "Polygon", "coordinates": [ [ [ 479891.009916368289851, 5240092.350997955538332 ], [ 479891.885254988505039, 5240093.271151366643608 ], [ 479934.63007250498049, 5240052.608160677365959 ], [ 479933.754733884765301, 5240051.688007266260684 ], [ 479891.009916368289851, 5240092.350997955538332 ] ] ] } },
{ "type": "Feature", "properties": { "name": "Spannweid 110", "GI": 0.38718475310331762, "MGRVI": 0.0013998883546482044, "MGRVI_COLOR": "#a3e635" }, "geometry": { "type": "Polygon", "coordinates": [ [ [ 479900.270763852167875, 5240085.954444625414908 ], [ 479901.146102472383063, 5240086.874598036520183 ], [ 479934.932479311304633, 5240054.733739644289017 ], [ 479934.057140691147652, 5240053.813586235046387 ], [ 479900.270763852167875, 5240085.954444625414908 ] ] ] } }
]
}
